{"type":"FeatureCollection","features":[{"type":"Feature","geometry":{"type":"Point","coordinates":[-100.25464,25.78006]},"properties":{"s":13.5,"a":13.6,"t":1.0,"c":0.3,"nc":1,"k":"19006_0361"}},{"type":"Feature","geometry":{"type":"Point","coordinates":[-100.25564,25.78006]},"properties":{"s":9.4,"a":10.0,"t":0.0,"c":0.0,"nc":0,"k":"19006_0361"}},{"type":"Feature","geometry":{"type":"Point","coordinates":[-100.25564,25.77916]},"properties":{"s":9.0,"a":7.5,"t":2.0,"c":0.0,"nc":0,"k":"19006_0361"}},{"type":"Feature","geometry":{"type":"Point","coordinates":[-100.25464,25.78097]},"properties":{"s":8.4,"a":8.9,"t":0.0,"c":0.0,"nc":0,"k":"19006_0361"}},{"type":"Feature","geometry":{"type":"Point","coordinates":[-100.25364,25.78187]},"properties":{"s":7.9,"a":8.7,"t":0.0,"c":0.3,"nc":1,"k":"19006_0361"}},{"type":"Feature","geometry":{"type":"Point","coordinates":[-100.25364,25.78097]},"properties":{"s":7.2,"a":7.2,"t":1.0,"c":0.7,"nc":2,"k":"19006_0361"}},{"type":"Feature","geometry":{"type":"Point","coordinates":[-100.25364,25.78278]},"properties":{"s":7.1,"a":7.6,"t":0.0,"c":0.0,"nc":0,"k":"19006_0361"}},{"type":"Feature","geometry":{"type":"Point","coordinates":[-100.25364,25.78458]},"properties":{"s":6.5,"a":5.9,"t":1.0,"c":0.0,"nc":0,"k":"19006_0361"}},{"type":"Feature","geometry":{"type":"Point","coordinates":[-100.25464,25.78187]},"properties":{"s":6.2,"a":6.6,"t":0.0,"c":0.0,"nc":0,"k":"19006_0361"}},{"type":"Feature","geometry":{"type":"Point","coordinates":[-100.25863,25.78368]},"properties":{"s":5.8,"a":5.2,"t":1.0,"c":0.0,"nc":0,"k":"19006_0361"}},{"type":"Feature","geometry":{"type":"Point","coordinates":[-100.25863,25.78458]},"properties":{"s":5.8,"a":3.2,"t":3.0,"c":0.0,"nc":0,"k":"19006_0361"}},{"type":"Feature","geometry":{"type":"Point","coordinates":[-100.25763,25.77916]},"properties":{"s":5.8,"a":5.2,"t":1.0,"c":0.0,"nc":0,"k":"19006_0361"}},{"type":"Feature","geometry":{"type":"Point","coordinates":[-100.25564,25.78187]},"properties":{"s":5.8,"a":6.2,"t":0.0,"c":0.0,"nc":0,"k":"19006_0361"}},{"type":"Feature","geometry":{"type":"Point","coordinates":[-100.25663,25.77916]},"properties":{"s":5.4,"a":5.8,"t":0.0,"c":0.0,"nc":0,"k":"19006_0361"}},{"type":"Feature","geometry":{"type":"Point","coordinates":[-100.25663,25.78006]},"properties":{"s":5.2,"a":5.6,"t":0.0,"c":0.0,"nc":0,"k":"19006_0361"}},{"type":"Feature","geometry":{"type":"Point","coordinates":[-100.25763,25.78006]},"properties":{"s":5.1,"a":5.4,"t":0.0,"c":0.0,"nc":0,"k":"19006_0361"}},{"type":"Feature","geometry":{"type":"Point","coordinates":[-100.25265,25.78458]},"properties":{"s":4.9,"a":5.2,"t":0.0,"c":0.0,"nc":0,"k":"19006_0361"}},{"type":"Feature","geometry":{"type":"Point","coordinates":[-100.25464,25.78368]},"properties":{"s":4.8,"a":5.1,"t":0.0,"c":0.0,"nc":0,"k":"19006_0361"}},{"type":"Feature","geometry":{"type":"Point","coordinates":[-100.25663,25.78097]},"properties":{"s":4.6,"a":4.9,"t":0.0,"c":0.0,"nc":0,"k":"19006_0361"}},{"type":"Feature","geometry":{"type":"Point","coordinates":[-100.25564,25.78097]},"properties":{"s":4.6,"a":4.9,"t":0.0,"c":0.0,"nc":0,"k":"19006_0361"}},{"type":"Feature","geometry":{"type":"Point","coordinates":[-100.25863,25.78187]},"properties":{"s":4.3,"a":4.6,"t":0.0,"c":0.0,"nc":0,"k":"19006_0361"}},{"type":"Feature","geometry":{"type":"Point","coordinates":[-100.25663,25.77825]},"properties":{"s":4.3,"a":4.6,"t":0.0,"c":0.0,"nc":0,"k":"19006_0361"}},{"type":"Feature","geometry":{"type":"Point","coordinates":[-100.25265,25.78368]},"properties":{"s":4.3,"a":4.7,"t":0.0,"c":0.1,"nc":1,"k":"19006_0361"}},{"type":"Feature","geometry":{"type":"Point","coordinates":[-100.25663,25.78187]},"properties":{"s":4.2,"a":4.5,"t":0.0,"c":0.0,"nc":0,"k":"19006_0361"}},{"type":"Feature","geometry":{"type":"Point","coordinates":[-100.25464,25.78278]},"properties":{"s":4.2,"a":4.5,"t":0.0,"c":0.0,"nc":0,"k":"19006_0361"}},{"type":"Feature","geometry":{"type":"Point","coordinates":[-100.25364,25.78368]},"properties":{"s":4.0,"a":4.2,"t":0.0,"c":0.0,"nc":0,"k":"19006_0361"}},{"type":"Feature","geometry":{"type":"Point","coordinates":[-100.25763,25.78187]},"properties":{"s":3.9,"a":4.2,"t":0.0,"c":0.0,"nc":0,"k":"19006_0361"}},{"type":"Feature","geometry":{"type":"Point","coordinates":[-100.25763,25.78368]},"properties":{"s":3.8,"a":4.0,"t":0.0,"c":0.0,"nc":0,"k":"19006_0361"}},{"type":"Feature","geometry":{"type":"Point","coordinates":[-100.24966,25.78458]},"properties":{"s":3.6,"a":3.4,"t":2.0,"c":1.6,"nc":2,"k":"19006_0361"}},{"type":"Feature","geometry":{"type":"Point","coordinates":[-100.25663,25.78368]},"properties":{"s":3.4,"a":3.6,"t":0.0,"c":0.0,"nc":1,"k":"19006_0361"}},{"type":"Feature","geometry":{"type":"Point","coordinates":[-100.25763,25.77644]},"properties":{"s":3.2,"a":0.4,"t":3.0,"c":0.0,"nc":0,"k":"19006_0361"}},{"type":"Feature","geometry":{"type":"Point","coordinates":[-100.25863,25.78278]},"properties":{"s":3.1,"a":3.2,"t":0.0,"c":0.0,"nc":0,"k":"19006_0361"}},{"type":"Feature","geometry":{"type":"Point","coordinates":[-100.25763,25.77825]},"properties":{"s":3.1,"a":3.3,"t":0.0,"c":0.0,"nc":0,"k":"19006_0361"}},{"type":"Feature","geometry":{"type":"Point","coordinates":[-100.25763,25.78278]},"properties":{"s":3.1,"a":3.2,"t":0.0,"c":0.0,"nc":0,"k":"19006_0361"}},{"type":"Feature","geometry":{"type":"Point","coordinates":[-100.25663,25.77735]},"properties":{"s":3.1,"a":2.2,"t":1.0,"c":0.0,"nc":0,"k":"19006_0361"}},{"type":"Feature","geometry":{"type":"Point","coordinates":[-100.25265,25.78187]},"properties":{"s":3.1,"a":4.9,"t":0.0,"c":1.6,"nc":2,"k":"19006_0361"}},{"type":"Feature","geometry":{"type":"Point","coordinates":[-100.25265,25.78278]},"properties":{"s":2.9,"a":4.2,"t":0.0,"c":1.2,"nc":2,"k":"19006_0361"}},{"type":"Feature","geometry":{"type":"Point","coordinates":[-100.25564,25.78278]},"properties":{"s":2.7,"a":2.9,"t":0.0,"c":0.0,"nc":0,"k":"19006_0361"}},{"type":"Feature","geometry":{"type":"Point","coordinates":[-100.25065,25.78368]},"properties":{"s":2.6,"a":4.8,"t":1.0,"c":3.0,"nc":2,"k":"19006_0361"}},{"type":"Feature","geometry":{"type":"Point","coordinates":[-100.25763,25.78097]},"properties":{"s":2.4,"a":2.5,"t":0.0,"c":0.0,"nc":0,"k":"19006_0361"}},{"type":"Feature","geometry":{"type":"Point","coordinates":[-100.25763,25.78458]},"properties":{"s":2.3,"a":3.2,"t":0.0,"c":0.8,"nc":1,"k":"19006_0361"}},{"type":"Feature","geometry":{"type":"Point","coordinates":[-100.25464,25.78458]},"properties":{"s":2.3,"a":2.1,"t":1.0,"c":0.6,"nc":1,"k":"19006_0361"}},{"type":"Feature","geometry":{"type":"Point","coordinates":[-100.25165,25.78458]},"properties":{"s":2.1,"a":2.7,"t":0.0,"c":0.5,"nc":1,"k":"19006_0361"}},{"type":"Feature","geometry":{"type":"Point","coordinates":[-100.25763,25.77735]},"properties":{"s":1.9,"a":1.0,"t":1.0,"c":0.0,"nc":0,"k":"19006_0361"}},{"type":"Feature","geometry":{"type":"Point","coordinates":[-100.25663,25.78458]},"properties":{"s":1.8,"a":3.2,"t":0.0,"c":1.3,"nc":1,"k":"19006_0361"}},{"type":"Feature","geometry":{"type":"Point","coordinates":[-100.25065,25.78458]},"properties":{"s":1.2,"a":1.8,"t":1.0,"c":1.5,"nc":2,"k":"19006_0361"}},{"type":"Feature","geometry":{"type":"Point","coordinates":[-100.25663,25.78278]},"properties":{"s":1.1,"a":1.2,"t":0.0,"c":0.0,"nc":0,"k":"19006_0361"}},{"type":"Feature","geometry":{"type":"Point","coordinates":[-100.25564,25.78368]},"properties":{"s":1.1,"a":1.2,"t":0.0,"c":0.0,"nc":0,"k":"19006_0361"}},{"type":"Feature","geometry":{"type":"Point","coordinates":[-100.25165,25.78278]},"properties":{"s":0.9,"a":4.3,"t":0.0,"c":3.3,"nc":2,"k":"19006_0361"}},{"type":"Feature","geometry":{"type":"Point","coordinates":[-100.24966,25.78368]},"properties":{"s":0.7,"a":3.8,"t":0.0,"c":3.0,"nc":2,"k":"19006_0361"}},{"type":"Feature","geometry":{"type":"Point","coordinates":[-100.25165,25.78368]},"properties":{"s":0.5,"a":2.3,"t":0.0,"c":1.8,"nc":2,"k":"19006_0361"}},{"type":"Feature","geometry":{"type":"Point","coordinates":[-100.25065,25.78278]},"properties":{"s":0.2,"a":5.2,"t":0.0,"c":4.9,"nc":2,"k":"19006_0361"}},{"type":"Feature","geometry":{"type":"Point","coordinates":[-100.15993,25.75835]},"properties":{"s":5.9,"a":5.7,"t":0.0,"c":0.0,"nc":0,"k":"19006_0405"}},{"type":"Feature","geometry":{"type":"Point","coordinates":[-100.16392,25.76106]},"properties":{"s":5.7,"a":5.6,"t":0.0,"c":0.0,"nc":0,"k":"19006_0405"}},{"type":"Feature","geometry":{"type":"Point","coordinates":[-100.15993,25.75925]},"properties":{"s":5.7,"a":5.5,"t":0.0,"c":0.0,"nc":0,"k":"19006_0405"}},{"type":"Feature","geometry":{"type":"Point","coordinates":[-100.15694,25.76106]},"properties":{"s":5.4,"a":5.2,"t":0.0,"c":0.0,"nc":0,"k":"19006_0405"}},{"type":"Feature","geometry":{"type":"Point","coordinates":[-100.16193,25.76016]},"properties":{"s":5.3,"a":5.1,"t":0.0,"c":0.0,"nc":0,"k":"19006_0405"}},{"type":"Feature","geometry":{"type":"Point","coordinates":[-100.16292,25.76106]},"properties":{"s":5.1,"a":4.9,"t":0.0,"c":0.0,"nc":0,"k":"19006_0405"}},{"type":"Feature","geometry":{"type":"Point","coordinates":[-100.16093,25.75925]},"properties":{"s":4.6,"a":4.5,"t":0.0,"c":0.0,"nc":0,"k":"19006_0405"}},{"type":"Feature","geometry":{"type":"Point","coordinates":[-100.15893,25.76016]},"properties":{"s":4.6,"a":4.5,"t":0.0,"c":0.0,"nc":0,"k":"19006_0405"}},{"type":"Feature","geometry":{"type":"Point","coordinates":[-100.16392,25.76197]},"properties":{"s":4.4,"a":4.2,"t":0.0,"c":0.0,"nc":0,"k":"19006_0405"}},{"type":"Feature","geometry":{"type":"Point","coordinates":[-100.16093,25.76106]},"properties":{"s":4.2,"a":4.1,"t":0.0,"c":0.0,"nc":0,"k":"19006_0405"}},{"type":"Feature","geometry":{"type":"Point","coordinates":[-100.15993,25.76016]},"properties":{"s":4.2,"a":4.1,"t":0.0,"c":0.0,"nc":0,"k":"19006_0405"}},{"type":"Feature","geometry":{"type":"Point","coordinates":[-100.15893,25.76197]},"properties":{"s":4.1,"a":4.0,"t":0.0,"c":0.0,"nc":0,"k":"19006_0405"}},{"type":"Feature","geometry":{"type":"Point","coordinates":[-100.15794,25.76106]},"properties":{"s":4.1,"a":4.0,"t":0.0,"c":0.0,"nc":0,"k":"19006_0405"}},{"type":"Feature","geometry":{"type":"Point","coordinates":[-100.15594,25.76106]},"properties":{"s":3.7,"a":3.6,"t":0.0,"c":0.0,"nc":0,"k":"19006_0405"}},{"type":"Feature","geometry":{"type":"Point","coordinates":[-100.16392,25.76287]},"properties":{"s":3.6,"a":3.4,"t":0.0,"c":0.0,"nc":0,"k":"19006_0405"}},{"type":"Feature","geometry":{"type":"Point","coordinates":[-100.16292,25.76197]},"properties":{"s":3.6,"a":3.4,"t":0.0,"c":0.0,"nc":0,"k":"19006_0405"}},{"type":"Feature","geometry":{"type":"Point","coordinates":[-100.16093,25.76016]},"properties":{"s":3.4,"a":3.2,"t":0.0,"c":0.0,"nc":0,"k":"19006_0405"}},{"type":"Feature","geometry":{"type":"Point","coordinates":[-100.16193,25.76106]},"properties":{"s":3.3,"a":3.2,"t":0.0,"c":0.0,"nc":0,"k":"19006_0405"}},{"type":"Feature","geometry":{"type":"Point","coordinates":[-100.15993,25.76197]},"properties":{"s":3.3,"a":3.2,"t":0.0,"c":0.0,"nc":0,"k":"19006_0405"}},{"type":"Feature","geometry":{"type":"Point","coordinates":[-100.15893,25.76106]},"properties":{"s":3.3,"a":3.2,"t":0.0,"c":0.0,"nc":0,"k":"19006_0405"}},{"type":"Feature","geometry":{"type":"Point","coordinates":[-100.15794,25.76197]},"properties":{"s":3.3,"a":3.2,"t":0.0,"c":0.0,"nc":0,"k":"19006_0405"}},{"type":"Feature","geometry":{"type":"Point","coordinates":[-100.16292,25.76287]},"properties":{"s":3.2,"a":3.0,"t":0.0,"c":0.0,"nc":0,"k":"19006_0405"}},{"type":"Feature","geometry":{"type":"Point","coordinates":[-100.16193,25.76197]},"properties":{"s":3.1,"a":3.0,"t":0.0,"c":0.0,"nc":0,"k":"19006_0405"}},{"type":"Feature","geometry":{"type":"Point","coordinates":[-100.16093,25.76197]},"properties":{"s":2.9,"a":2.8,"t":0.0,"c":0.0,"nc":0,"k":"19006_0405"}},{"type":"Feature","geometry":{"type":"Point","coordinates":[-100.15993,25.76106]},"properties":{"s":2.9,"a":2.8,"t":0.0,"c":0.0,"nc":0,"k":"19006_0405"}},{"type":"Feature","geometry":{"type":"Point","coordinates":[-100.15794,25.76287]},"properties":{"s":2.9,"a":2.8,"t":0.0,"c":0.0,"nc":0,"k":"19006_0405"}},{"type":"Feature","geometry":{"type":"Point","coordinates":[-100.15694,25.76197]},"properties":{"s":2.9,"a":2.8,"t":0.0,"c":0.0,"nc":0,"k":"19006_0405"}},{"type":"Feature","geometry":{"type":"Point","coordinates":[-100.15893,25.76287]},"properties":{"s":2.5,"a":2.4,"t":0.0,"c":0.0,"nc":0,"k":"19006_0405"}},{"type":"Feature","geometry":{"type":"Point","coordinates":[-100.15594,25.76197]},"properties":{"s":2.5,"a":2.4,"t":0.0,"c":0.0,"nc":0,"k":"19006_0405"}},{"type":"Feature","geometry":{"type":"Point","coordinates":[-100.15694,25.76287]},"properties":{"s":2.1,"a":2.0,"t":0.0,"c":0.0,"nc":0,"k":"19006_0405"}},{"type":"Feature","geometry":{"type":"Point","coordinates":[-100.16392,25.76378]},"properties":{"s":1.7,"a":1.6,"t":0.0,"c":0.0,"nc":0,"k":"19006_0405"}},{"type":"Feature","geometry":{"type":"Point","coordinates":[-100.15594,25.76287]},"properties":{"s":0.8,"a":0.8,"t":0.0,"c":0.0,"nc":0,"k":"19006_0405"}},{"type":"Feature","geometry":{"type":"Point","coordinates":[-100.16691,25.75925]},"properties":{"s":8.0,"a":7.9,"t":0.0,"c":0.0,"nc":0,"k":"19006_0407"}},{"type":"Feature","geometry":{"type":"Point","coordinates":[-100.16591,25.75925]},"properties":{"s":7.5,"a":7.5,"t":0.0,"c":0.0,"nc":0,"k":"19006_0407"}},{"type":"Feature","geometry":{"type":"Point","coordinates":[-100.16791,25.75925]},"properties":{"s":7.2,"a":7.1,"t":0.0,"c":0.0,"nc":0,"k":"19006_0407"}},{"type":"Feature","geometry":{"type":"Point","coordinates":[-100.1709,25.75835]},"properties":{"s":6.5,"a":5.4,"t":1.0,"c":0.0,"nc":0,"k":"19006_0407"}},{"type":"Feature","geometry":{"type":"Point","coordinates":[-100.16791,25.75654]},"properties":{"s":6.4,"a":6.3,"t":0.0,"c":0.0,"nc":0,"k":"19006_0407"}},{"type":"Feature","geometry":{"type":"Point","coordinates":[-100.16691,25.75564]},"properties":{"s":6.3,"a":5.2,"t":1.0,"c":0.0,"nc":0,"k":"19006_0407"}},{"type":"Feature","geometry":{"type":"Point","coordinates":[-100.16691,25.75654]},"properties":{"s":6.1,"a":5.1,"t":1.0,"c":0.0,"nc":0,"k":"19006_0407"}},{"type":"Feature","geometry":{"type":"Point","coordinates":[-100.1689,25.75835]},"properties":{"s":5.9,"a":4.9,"t":1.0,"c":0.0,"nc":0,"k":"19006_0407"}},{"type":"Feature","geometry":{"type":"Point","coordinates":[-100.16591,25.75835]},"properties":{"s":5.9,"a":5.9,"t":0.0,"c":0.0,"nc":0,"k":"19006_0407"}},{"type":"Feature","geometry":{"type":"Point","coordinates":[-100.16392,25.76016]},"properties":{"s":5.9,"a":5.8,"t":0.0,"c":0.0,"nc":0,"k":"19006_0407"}},{"type":"Feature","geometry":{"type":"Point","coordinates":[-100.1689,25.75564]},"properties":{"s":5.8,"a":5.8,"t":0.0,"c":0.0,"nc":0,"k":"19006_0407"}},{"type":"Feature","geometry":{"type":"Point","coordinates":[-100.16691,25.75835]},"properties":{"s":5.7,"a":5.7,"t":0.0,"c":0.0,"nc":0,"k":"19006_0407"}},{"type":"Feature","geometry":{"type":"Point","coordinates":[-100.16791,25.75835]},"properties":{"s":5.6,"a":5.6,"t":0.0,"c":0.0,"nc":0,"k":"19006_0407"}},{"type":"Feature","geometry":{"type":"Point","coordinates":[-100.1689,25.75654]},"properties":{"s":5.3,"a":5.3,"t":0.0,"c":0.0,"nc":0,"k":"19006_0407"}},{"type":"Feature","geometry":{"type":"Point","coordinates":[-100.16492,25.75925]},"properties":{"s":5.2,"a":5.2,"t":0.0,"c":0.0,"nc":0,"k":"19006_0407"}},{"type":"Feature","geometry":{"type":"Point","coordinates":[-100.16791,25.75564]},"properties":{"s":5.0,"a":5.0,"t":0.0,"c":0.0,"nc":0,"k":"19006_0407"}},{"type":"Feature","geometry":{"type":"Point","coordinates":[-100.16392,25.75925]},"properties":{"s":5.0,"a":4.9,"t":0.0,"c":0.0,"nc":0,"k":"19006_0407"}},{"type":"Feature","geometry":{"type":"Point","coordinates":[-100.16292,25.76016]},"properties":{"s":5.0,"a":5.0,"t":0.0,"c":0.0,"nc":0,"k":"19006_0407"}},{"type":"Feature","geometry":{"type":"Point","coordinates":[-100.1689,25.75383]},"properties":{"s":4.9,"a":0.9,"t":4.0,"c":0.0,"nc":0,"k":"19006_0407"}},{"type":"Feature","geometry":{"type":"Point","coordinates":[-100.16591,25.75654]},"properties":{"s":4.8,"a":4.1,"t":1.0,"c":0.3,"nc":1,"k":"19006_0407"}},{"type":"Feature","geometry":{"type":"Point","coordinates":[-100.15993,25.75654]},"properties":{"s":4.5,"a":4.5,"t":0.0,"c":0.0,"nc":0,"k":"19006_0407"}},{"type":"Feature","geometry":{"type":"Point","coordinates":[-100.16591,25.75564]},"properties":{"s":4.3,"a":4.0,"t":1.0,"c":0.8,"nc":1,"k":"19006_0407"}},{"type":"Feature","geometry":{"type":"Point","coordinates":[-100.16791,25.75745]},"properties":{"s":3.9,"a":3.9,"t":0.0,"c":0.0,"nc":0,"k":"19006_0407"}},{"type":"Feature","geometry":{"type":"Point","coordinates":[-100.16093,25.75564]},"properties":{"s":3.9,"a":5.0,"t":0.0,"c":1.2,"nc":2,"k":"19006_0407"}},{"type":"Feature","geometry":{"type":"Point","coordinates":[-100.1699,25.75745]},"properties":{"s":3.7,"a":3.6,"t":0.0,"c":0.0,"nc":0,"k":"19006_0407"}},{"type":"Feature","geometry":{"type":"Point","coordinates":[-100.1699,25.75835]},"properties":{"s":3.7,"a":3.6,"t":0.0,"c":0.0,"nc":0,"k":"19006_0407"}},{"type":"Feature","geometry":{"type":"Point","coordinates":[-100.16691,25.75473]},"properties":{"s":3.7,"a":3.7,"t":0.0,"c":0.0,"nc":0,"k":"19006_0407"}},{"type":"Feature","geometry":{"type":"Point","coordinates":[-100.16193,25.75925]},"properties":{"s":3.7,"a":3.6,"t":0.0,"c":0.0,"nc":0,"k":"19006_0407"}},{"type":"Feature","geometry":{"type":"Point","coordinates":[-100.16691,25.75745]},"properties":{"s":3.6,"a":3.6,"t":0.0,"c":0.0,"nc":0,"k":"19006_0407"}},{"type":"Feature","geometry":{"type":"Point","coordinates":[-100.16591,25.75745]},"properties":{"s":3.6,"a":3.6,"t":0.0,"c":0.0,"nc":0,"k":"19006_0407"}},{"type":"Feature","geometry":{"type":"Point","coordinates":[-100.1689,25.75473]},"properties":{"s":3.5,"a":2.5,"t":1.0,"c":0.0,"nc":0,"k":"19006_0407"}},{"type":"Feature","geometry":{"type":"Point","coordinates":[-100.15993,25.75564]},"properties":{"s":3.4,"a":4.2,"t":0.0,"c":0.8,"nc":1,"k":"19006_0407"}},{"type":"Feature","geometry":{"type":"Point","coordinates":[-100.1689,25.75745]},"properties":{"s":3.3,"a":3.2,"t":0.0,"c":0.0,"nc":0,"k":"19006_0407"}},{"type":"Feature","geometry":{"type":"Point","coordinates":[-100.16492,25.75745]},"properties":{"s":3.3,"a":3.4,"t":0.0,"c":0.2,"nc":1,"k":"19006_0407"}},{"type":"Feature","geometry":{"type":"Point","coordinates":[-100.16492,25.75564]},"properties":{"s":3.2,"a":5.2,"t":0.0,"c":2.1,"nc":1,"k":"19006_0407"}},{"type":"Feature","geometry":{"type":"Point","coordinates":[-100.16492,25.75835]},"properties":{"s":3.0,"a":3.0,"t":0.0,"c":0.0,"nc":0,"k":"19006_0407"}},{"type":"Feature","geometry":{"type":"Point","coordinates":[-100.1699,25.75654]},"properties":{"s":2.9,"a":2.8,"t":0.0,"c":0.0,"nc":0,"k":"19006_0407"}},{"type":"Feature","geometry":{"type":"Point","coordinates":[-100.16791,25.75473]},"properties":{"s":2.9,"a":2.9,"t":0.0,"c":0.0,"nc":0,"k":"19006_0407"}},{"type":"Feature","geometry":{"type":"Point","coordinates":[-100.16292,25.75925]},"properties":{"s":2.7,"a":2.6,"t":0.0,"c":0.0,"nc":0,"k":"19006_0407"}},{"type":"Feature","geometry":{"type":"Point","coordinates":[-100.16492,25.75654]},"properties":{"s":2.4,"a":3.6,"t":0.0,"c":1.3,"nc":1,"k":"19006_0407"}},{"type":"Feature","geometry":{"type":"Point","coordinates":[-100.16093,25.75835]},"properties":{"s":2.4,"a":2.4,"t":0.0,"c":0.0,"nc":0,"k":"19006_0407"}},{"type":"Feature","geometry":{"type":"Point","coordinates":[-100.16591,25.75473]},"properties":{"s":2.0,"a":2.8,"t":0.0,"c":0.8,"nc":1,"k":"19006_0407"}},{"type":"Feature","geometry":{"type":"Point","coordinates":[-100.16292,25.75835]},"properties":{"s":1.4,"a":1.4,"t":0.0,"c":0.0,"nc":0,"k":"19006_0407"}},{"type":"Feature","geometry":{"type":"Point","coordinates":[-100.16093,25.75654]},"properties":{"s":1.4,"a":1.4,"t":0.0,"c":0.0,"nc":0,"k":"19006_0407"}},{"type":"Feature","geometry":{"type":"Point","coordinates":[-100.16093,25.75745]},"properties":{"s":1.4,"a":1.4,"t":0.0,"c":0.0,"nc":0,"k":"19006_0407"}},{"type":"Feature","geometry":{"type":"Point","coordinates":[-100.16193,25.75564]},"properties":{"s":1.3,"a":3.2,"t":0.0,"c":1.9,"nc":2,"k":"19006_0407"}},{"type":"Feature","geometry":{"type":"Point","coordinates":[-100.16392,25.75835]},"properties":{"s":1.2,"a":1.2,"t":0.0,"c":0.0,"nc":0,"k":"19006_0407"}},{"type":"Feature","geometry":{"type":"Point","coordinates":[-100.16392,25.75745]},"properties":{"s":1.1,"a":1.6,"t":0.0,"c":0.6,"nc":1,"k":"19006_0407"}},{"type":"Feature","geometry":{"type":"Point","coordinates":[-100.16193,25.75745]},"properties":{"s":1.0,"a":1.0,"t":0.0,"c":0.0,"nc":0,"k":"19006_0407"}},{"type":"Feature","geometry":{"type":"Point","coordinates":[-100.16193,25.75835]},"properties":{"s":1.0,"a":1.0,"t":0.0,"c":0.0,"nc":0,"k":"19006_0407"}},{"type":"Feature","geometry":{"type":"Point","coordinates":[-100.16492,25.75473]},"properties":{"s":0.7,"a":2.8,"t":0.0,"c":2.1,"nc":1,"k":"19006_0407"}},{"type":"Feature","geometry":{"type":"Point","coordinates":[-100.16392,25.75564]},"properties":{"s":0.3,"a":3.4,"t":0.0,"c":3.2,"nc":1,"k":"19006_0407"}},{"type":"Feature","geometry":{"type":"Point","coordinates":[-100.16193,25.75654]},"properties":{"s":0.2,"a":1.2,"t":0.0,"c":1.0,"nc":1,"k":"19006_0407"}},{"type":"Feature","geometry":{"type":"Point","coordinates":[-100.16392,25.75654]},"properties":{"s":0.1,"a":2.0,"t":0.0,"c":1.9,"nc":1,"k":"19006_0407"}},{"type":"Feature","geometry":{"type":"Point","coordinates":[-100.19482,25.73302]},"properties":{"s":9.7,"a":9.5,"t":1.0,"c":0.7,"nc":1,"k":"19006_0310"}},{"type":"Feature","geometry":{"type":"Point","coordinates":[-100.19582,25.73302]},"properties":{"s":8.9,"a":8.3,"t":1.0,"c":0.4,"nc":1,"k":"19006_0310"}},{"type":"Feature","geometry":{"type":"Point","coordinates":[-100.19682,25.73392]},"properties":{"s":8.7,"a":8.3,"t":1.0,"c":0.6,"nc":1,"k":"19006_0310"}},{"type":"Feature","geometry":{"type":"Point","coordinates":[-100.18984,25.73664]},"properties":{"s":8.2,"a":8.2,"t":0.0,"c":0.0,"nc":0,"k":"19006_0310"}},{"type":"Feature","geometry":{"type":"Point","coordinates":[-100.18984,25.73845]},"properties":{"s":6.9,"a":4.0,"t":3.0,"c":0.0,"nc":0,"k":"19006_0310"}},{"type":"Feature","geometry":{"type":"Point","coordinates":[-100.19383,25.73302]},"properties":{"s":6.6,"a":6.2,"t":1.0,"c":0.5,"nc":1,"k":"19006_0310"}},{"type":"Feature","geometry":{"type":"Point","coordinates":[-100.19183,25.73573]},"properties":{"s":6.4,"a":6.5,"t":0.0,"c":0.1,"nc":1,"k":"19006_0310"}},{"type":"Feature","geometry":{"type":"Point","coordinates":[-100.19283,25.73302]},"properties":{"s":6.3,"a":5.4,"t":1.0,"c":0.0,"nc":0,"k":"19006_0310"}},{"type":"Feature","geometry":{"type":"Point","coordinates":[-100.19582,25.73392]},"properties":{"s":6.2,"a":7.8,"t":0.0,"c":1.6,"nc":1,"k":"19006_0310"}},{"type":"Feature","geometry":{"type":"Point","coordinates":[-100.18984,25.73754]},"properties":{"s":6.1,"a":6.2,"t":0.0,"c":0.0,"nc":0,"k":"19006_0310"}},{"type":"Feature","geometry":{"type":"Point","coordinates":[-100.18884,25.73664]},"properties":{"s":6.1,"a":6.2,"t":0.0,"c":0.0,"nc":0,"k":"19006_0310"}},{"type":"Feature","geometry":{"type":"Point","coordinates":[-100.19383,25.73392]},"properties":{"s":5.7,"a":7.4,"t":0.0,"c":1.7,"nc":1,"k":"19006_0310"}},{"type":"Feature","geometry":{"type":"Point","coordinates":[-100.19283,25.73392]},"properties":{"s":5.7,"a":6.6,"t":0.0,"c":0.8,"nc":1,"k":"19006_0310"}},{"type":"Feature","geometry":{"type":"Point","coordinates":[-100.19084,25.73573]},"properties":{"s":5.6,"a":5.7,"t":0.0,"c":0.0,"nc":0,"k":"19006_0310"}},{"type":"Feature","geometry":{"type":"Point","coordinates":[-100.19084,25.73664]},"properties":{"s":5.4,"a":5.5,"t":0.0,"c":0.0,"nc":0,"k":"19006_0310"}},{"type":"Feature","geometry":{"type":"Point","coordinates":[-100.19084,25.73754]},"properties":{"s":5.4,"a":5.5,"t":0.0,"c":0.0,"nc":0,"k":"19006_0310"}},{"type":"Feature","geometry":{"type":"Point","coordinates":[-100.18984,25.73573]},"properties":{"s":5.4,"a":5.4,"t":0.0,"c":0.0,"nc":0,"k":"19006_0310"}},{"type":"Feature","geometry":{"type":"Point","coordinates":[-100.19383,25.73573]},"properties":{"s":5.2,"a":7.8,"t":0.0,"c":2.6,"nc":1,"k":"19006_0310"}},{"type":"Feature","geometry":{"type":"Point","coordinates":[-100.19781,25.73392]},"properties":{"s":4.5,"a":4.6,"t":0.0,"c":0.0,"nc":0,"k":"19006_0310"}},{"type":"Feature","geometry":{"type":"Point","coordinates":[-100.19183,25.73754]},"properties":{"s":4.4,"a":4.5,"t":0.0,"c":0.0,"nc":0,"k":"19006_0310"}},{"type":"Feature","geometry":{"type":"Point","coordinates":[-100.18984,25.73121]},"properties":{"s":4.3,"a":4.3,"t":0.0,"c":0.0,"nc":0,"k":"19006_0310"}},{"type":"Feature","geometry":{"type":"Point","coordinates":[-100.19084,25.73483]},"properties":{"s":4.2,"a":4.2,"t":0.0,"c":0.0,"nc":0,"k":"19006_0310"}},{"type":"Feature","geometry":{"type":"Point","coordinates":[-100.19084,25.73302]},"properties":{"s":4.1,"a":3.1,"t":1.0,"c":0.0,"nc":0,"k":"19006_0310"}},{"type":"Feature","geometry":{"type":"Point","coordinates":[-100.18984,25.73302]},"properties":{"s":4.1,"a":3.1,"t":1.0,"c":0.0,"nc":0,"k":"19006_0310"}},{"type":"Feature","geometry":{"type":"Point","coordinates":[-100.19482,25.73483]},"properties":{"s":4.0,"a":7.4,"t":0.0,"c":3.4,"nc":1,"k":"19006_0310"}},{"type":"Feature","geometry":{"type":"Point","coordinates":[-100.19283,25.73573]},"properties":{"s":3.9,"a":5.2,"t":0.0,"c":1.4,"nc":1,"k":"19006_0310"}},{"type":"Feature","geometry":{"type":"Point","coordinates":[-100.19183,25.73483]},"properties":{"s":3.9,"a":4.0,"t":0.0,"c":0.1,"nc":1,"k":"19006_0310"}},{"type":"Feature","geometry":{"type":"Point","coordinates":[-100.19482,25.73392]},"properties":{"s":3.8,"a":5.9,"t":0.0,"c":2.0,"nc":1,"k":"19006_0310"}},{"type":"Feature","geometry":{"type":"Point","coordinates":[-100.19283,25.73483]},"properties":{"s":3.8,"a":5.2,"t":0.0,"c":1.4,"nc":1,"k":"19006_0310"}},{"type":"Feature","geometry":{"type":"Point","coordinates":[-100.19582,25.73483]},"properties":{"s":3.7,"a":6.2,"t":0.0,"c":2.4,"nc":1,"k":"19006_0310"}},{"type":"Feature","geometry":{"type":"Point","coordinates":[-100.19183,25.73664]},"properties":{"s":3.6,"a":3.6,"t":0.0,"c":0.0,"nc":0,"k":"19006_0310"}},{"type":"Feature","geometry":{"type":"Point","coordinates":[-100.19283,25.73754]},"properties":{"s":3.4,"a":3.4,"t":0.0,"c":0.0,"nc":0,"k":"19006_0310"}},{"type":"Feature","geometry":{"type":"Point","coordinates":[-100.19682,25.73483]},"properties":{"s":3.3,"a":4.5,"t":0.0,"c":1.1,"nc":1,"k":"19006_0310"}},{"type":"Feature","geometry":{"type":"Point","coordinates":[-100.19183,25.73302]},"properties":{"s":3.2,"a":1.2,"t":2.0,"c":0.0,"nc":0,"k":"19006_0310"}},{"type":"Feature","geometry":{"type":"Point","coordinates":[-100.18984,25.73483]},"properties":{"s":3.2,"a":3.2,"t":0.0,"c":0.0,"nc":0,"k":"19006_0310"}},{"type":"Feature","geometry":{"type":"Point","coordinates":[-100.19482,25.73573]},"properties":{"s":3.1,"a":6.4,"t":0.0,"c":3.3,"nc":1,"k":"19006_0310"}},{"type":"Feature","geometry":{"type":"Point","coordinates":[-100.19183,25.73392]},"properties":{"s":3.0,"a":3.0,"t":0.0,"c":0.0,"nc":0,"k":"19006_0310"}},{"type":"Feature","geometry":{"type":"Point","coordinates":[-100.18884,25.73483]},"properties":{"s":2.8,"a":2.8,"t":0.0,"c":0.0,"nc":0,"k":"19006_0310"}},{"type":"Feature","geometry":{"type":"Point","coordinates":[-100.19383,25.73664]},"properties":{"s":2.5,"a":4.1,"t":0.0,"c":1.6,"nc":1,"k":"19006_0310"}},{"type":"Feature","geometry":{"type":"Point","coordinates":[-100.19283,25.73664]},"properties":{"s":2.5,"a":3.2,"t":0.0,"c":0.7,"nc":1,"k":"19006_0310"}},{"type":"Feature","geometry":{"type":"Point","coordinates":[-100.19582,25.73573]},"properties":{"s":2.4,"a":4.8,"t":0.0,"c":2.4,"nc":1,"k":"19006_0310"}},{"type":"Feature","geometry":{"type":"Point","coordinates":[-100.19084,25.73392]},"properties":{"s":2.4,"a":2.4,"t":0.0,"c":0.0,"nc":0,"k":"19006_0310"}},{"type":"Feature","geometry":{"type":"Point","coordinates":[-100.18884,25.73573]},"properties":{"s":2.4,"a":2.4,"t":0.0,"c":0.0,"nc":0,"k":"19006_0310"}},{"type":"Feature","geometry":{"type":"Point","coordinates":[-100.18785,25.73392]},"properties":{"s":2.3,"a":2.3,"t":0.0,"c":0.0,"nc":0,"k":"19006_0310"}},{"type":"Feature","geometry":{"type":"Point","coordinates":[-100.18884,25.73392]},"properties":{"s":2.2,"a":2.2,"t":0.0,"c":0.0,"nc":0,"k":"19006_0310"}},{"type":"Feature","geometry":{"type":"Point","coordinates":[-100.19383,25.73483]},"properties":{"s":2.0,"a":4.7,"t":0.0,"c":2.7,"nc":1,"k":"19006_0310"}},{"type":"Feature","geometry":{"type":"Point","coordinates":[-100.18984,25.73392]},"properties":{"s":2.0,"a":2.0,"t":0.0,"c":0.0,"nc":0,"k":"19006_0310"}},{"type":"Feature","geometry":{"type":"Point","coordinates":[-100.18785,25.73483]},"properties":{"s":1.8,"a":1.8,"t":0.0,"c":0.0,"nc":0,"k":"19006_0310"}},{"type":"Feature","geometry":{"type":"Point","coordinates":[-100.18884,25.73121]},"properties":{"s":0.4,"a":0.4,"t":0.0,"c":0.0,"nc":0,"k":"19006_0310"}},{"type":"Feature","geometry":{"type":"Point","coordinates":[-100.17189,25.75925]},"properties":{"s":9.1,"a":3.8,"t":4.0,"c":0.0,"nc":0,"k":"19006_0406"}},{"type":"Feature","geometry":{"type":"Point","coordinates":[-100.1689,25.75925]},"properties":{"s":8.9,"a":6.7,"t":1.0,"c":0.0,"nc":0,"k":"19006_0406"}},{"type":"Feature","geometry":{"type":"Point","coordinates":[-100.16791,25.76016]},"properties":{"s":7.9,"a":6.8,"t":0.0,"c":0.0,"nc":0,"k":"19006_0406"}},{"type":"Feature","geometry":{"type":"Point","coordinates":[-100.1699,25.75925]},"properties":{"s":6.9,"a":4.9,"t":1.0,"c":0.0,"nc":0,"k":"19006_0406"}},{"type":"Feature","geometry":{"type":"Point","coordinates":[-100.17189,25.76197]},"properties":{"s":6.3,"a":5.5,"t":0.0,"c":0.0,"nc":0,"k":"19006_0406"}},{"type":"Feature","geometry":{"type":"Point","coordinates":[-100.17189,25.76287]},"properties":{"s":6.1,"a":5.3,"t":0.0,"c":0.0,"nc":0,"k":"19006_0406"}},{"type":"Feature","geometry":{"type":"Point","coordinates":[-100.1689,25.76016]},"properties":{"s":6.1,"a":5.2,"t":0.0,"c":0.0,"nc":0,"k":"19006_0406"}},{"type":"Feature","geometry":{"type":"Point","coordinates":[-100.17289,25.76106]},"properties":{"s":5.8,"a":2.0,"t":3.0,"c":0.0,"nc":0,"k":"19006_0406"}},{"type":"Feature","geometry":{"type":"Point","coordinates":[-100.17289,25.76197]},"properties":{"s":5.6,"a":2.8,"t":2.0,"c":0.0,"nc":0,"k":"19006_0406"}},{"type":"Feature","geometry":{"type":"Point","coordinates":[-100.1709,25.76197]},"properties":{"s":5.4,"a":4.7,"t":0.0,"c":0.0,"nc":0,"k":"19006_0406"}},{"type":"Feature","geometry":{"type":"Point","coordinates":[-100.16791,25.76197]},"properties":{"s":5.4,"a":4.6,"t":0.0,"c":0.0,"nc":0,"k":"19006_0406"}},{"type":"Feature","geometry":{"type":"Point","coordinates":[-100.17189,25.76378]},"properties":{"s":5.2,"a":4.5,"t":0.0,"c":0.0,"nc":0,"k":"19006_0406"}},{"type":"Feature","geometry":{"type":"Point","coordinates":[-100.1699,25.76016]},"properties":{"s":4.8,"a":4.1,"t":0.0,"c":0.0,"nc":0,"k":"19006_0406"}},{"type":"Feature","geometry":{"type":"Point","coordinates":[-100.1689,25.76106]},"properties":{"s":4.5,"a":3.8,"t":0.0,"c":0.0,"nc":0,"k":"19006_0406"}},{"type":"Feature","geometry":{"type":"Point","coordinates":[-100.17289,25.76287]},"properties":{"s":4.4,"a":2.8,"t":1.0,"c":0.0,"nc":0,"k":"19006_0406"}},{"type":"Feature","geometry":{"type":"Point","coordinates":[-100.17189,25.76106]},"properties":{"s":4.4,"a":3.8,"t":0.0,"c":0.0,"nc":0,"k":"19006_0406"}},{"type":"Feature","geometry":{"type":"Point","coordinates":[-100.1709,25.75925]},"properties":{"s":4.4,"a":3.8,"t":0.0,"c":0.0,"nc":0,"k":"19006_0406"}},{"type":"Feature","geometry":{"type":"Point","coordinates":[-100.1709,25.76287]},"properties":{"s":4.3,"a":3.6,"t":0.0,"c":0.0,"nc":0,"k":"19006_0406"}},{"type":"Feature","geometry":{"type":"Point","coordinates":[-100.1709,25.76378]},"properties":{"s":4.3,"a":3.6,"t":0.0,"c":0.0,"nc":0,"k":"19006_0406"}},{"type":"Feature","geometry":{"type":"Point","coordinates":[-100.1709,25.76106]},"properties":{"s":4.0,"a":3.4,"t":0.0,"c":0.0,"nc":0,"k":"19006_0406"}},{"type":"Feature","geometry":{"type":"Point","coordinates":[-100.16791,25.76106]},"properties":{"s":4.0,"a":3.4,"t":0.0,"c":0.0,"nc":0,"k":"19006_0406"}},{"type":"Feature","geometry":{"type":"Point","coordinates":[-100.1699,25.75564]},"properties":{"s":3.8,"a":3.2,"t":0.0,"c":0.0,"nc":0,"k":"19006_0406"}},{"type":"Feature","geometry":{"type":"Point","coordinates":[-100.17189,25.76016]},"properties":{"s":3.5,"a":2.0,"t":1.0,"c":0.0,"nc":0,"k":"19006_0406"}},{"type":"Feature","geometry":{"type":"Point","coordinates":[-100.1699,25.76106]},"properties":{"s":3.5,"a":3.0,"t":0.0,"c":0.0,"nc":0,"k":"19006_0406"}},{"type":"Feature","geometry":{"type":"Point","coordinates":[-100.1689,25.76197]},"properties":{"s":3.5,"a":3.0,"t":0.0,"c":0.0,"nc":0,"k":"19006_0406"}},{"type":"Feature","geometry":{"type":"Point","coordinates":[-100.1709,25.75745]},"properties":{"s":3.4,"a":2.9,"t":0.0,"c":0.0,"nc":0,"k":"19006_0406"}},{"type":"Feature","geometry":{"type":"Point","coordinates":[-100.1699,25.76287]},"properties":{"s":3.3,"a":2.8,"t":0.0,"c":0.0,"nc":0,"k":"19006_0406"}},{"type":"Feature","geometry":{"type":"Point","coordinates":[-100.17289,25.76378]},"properties":{"s":2.8,"a":2.4,"t":0.0,"c":0.0,"nc":0,"k":"19006_0406"}},{"type":"Feature","geometry":{"type":"Point","coordinates":[-100.1699,25.75473]},"properties":{"s":2.8,"a":0.4,"t":2.0,"c":0.0,"nc":0,"k":"19006_0406"}},{"type":"Feature","geometry":{"type":"Point","coordinates":[-100.1689,25.76287]},"properties":{"s":2.8,"a":2.4,"t":0.0,"c":0.0,"nc":0,"k":"19006_0406"}},{"type":"Feature","geometry":{"type":"Point","coordinates":[-100.1699,25.76197]},"properties":{"s":2.6,"a":2.2,"t":0.0,"c":0.0,"nc":0,"k":"19006_0406"}},{"type":"Feature","geometry":{"type":"Point","coordinates":[-100.1699,25.76378]},"properties":{"s":2.3,"a":2.0,"t":0.0,"c":0.0,"nc":0,"k":"19006_0406"}},{"type":"Feature","geometry":{"type":"Point","coordinates":[-100.17389,25.76378]},"properties":{"s":2.1,"a":0.8,"t":1.0,"c":0.0,"nc":0,"k":"19006_0406"}},{"type":"Feature","geometry":{"type":"Point","coordinates":[-100.1709,25.76016]},"properties":{"s":1.4,"a":1.2,"t":0.0,"c":0.0,"nc":0,"k":"19006_0406"}},{"type":"Feature","geometry":{"type":"Point","coordinates":[-100.15794,25.75835]},"properties":{"s":8.5,"a":7.8,"t":1.0,"c":0.0,"nc":0,"k":"19006_0404"}},{"type":"Feature","geometry":{"type":"Point","coordinates":[-100.15893,25.75835]},"properties":{"s":7.7,"a":8.0,"t":0.0,"c":0.0,"nc":0,"k":"19006_0404"}},{"type":"Feature","geometry":{"type":"Point","coordinates":[-100.15794,25.75745]},"properties":{"s":7.3,"a":6.6,"t":1.0,"c":0.0,"nc":0,"k":"19006_0404"}},{"type":"Feature","geometry":{"type":"Point","coordinates":[-100.15694,25.75745]},"properties":{"s":6.9,"a":6.2,"t":1.0,"c":0.0,"nc":0,"k":"19006_0404"}},{"type":"Feature","geometry":{"type":"Point","coordinates":[-100.15893,25.75925]},"properties":{"s":6.5,"a":6.7,"t":0.0,"c":0.0,"nc":0,"k":"19006_0404"}},{"type":"Feature","geometry":{"type":"Point","coordinates":[-100.15694,25.75835]},"properties":{"s":6.4,"a":6.6,"t":0.0,"c":0.0,"nc":0,"k":"19006_0404"}},{"type":"Feature","geometry":{"type":"Point","coordinates":[-100.15794,25.75925]},"properties":{"s":6.0,"a":6.2,"t":0.0,"c":0.0,"nc":0,"k":"19006_0404"}},{"type":"Feature","geometry":{"type":"Point","coordinates":[-100.15594,25.75745]},"properties":{"s":5.6,"a":5.8,"t":0.0,"c":0.0,"nc":0,"k":"19006_0404"}},{"type":"Feature","geometry":{"type":"Point","coordinates":[-100.15893,25.75745]},"properties":{"s":4.4,"a":4.5,"t":0.0,"c":0.0,"nc":0,"k":"19006_0404"}},{"type":"Feature","geometry":{"type":"Point","coordinates":[-100.15594,25.75925]},"properties":{"s":4.3,"a":4.5,"t":0.0,"c":0.0,"nc":0,"k":"19006_0404"}},{"type":"Feature","geometry":{"type":"Point","coordinates":[-100.15694,25.75654]},"properties":{"s":4.1,"a":4.2,"t":0.0,"c":0.0,"nc":0,"k":"19006_0404"}},{"type":"Feature","geometry":{"type":"Point","coordinates":[-100.15594,25.75835]},"properties":{"s":4.0,"a":4.1,"t":0.0,"c":0.0,"nc":0,"k":"19006_0404"}},{"type":"Feature","geometry":{"type":"Point","coordinates":[-100.15694,25.75925]},"properties":{"s":3.9,"a":4.1,"t":0.0,"c":0.0,"nc":0,"k":"19006_0404"}},{"type":"Feature","geometry":{"type":"Point","coordinates":[-100.15594,25.76016]},"properties":{"s":3.9,"a":4.0,"t":0.0,"c":0.0,"nc":0,"k":"19006_0404"}},{"type":"Feature","geometry":{"type":"Point","coordinates":[-100.15794,25.76016]},"properties":{"s":3.5,"a":3.6,"t":0.0,"c":0.0,"nc":0,"k":"19006_0404"}},{"type":"Feature","geometry":{"type":"Point","coordinates":[-100.15694,25.76016]},"properties":{"s":3.1,"a":3.2,"t":0.0,"c":0.0,"nc":0,"k":"19006_0404"}},{"type":"Feature","geometry":{"type":"Point","coordinates":[-100.15794,25.75654]},"properties":{"s":2.8,"a":2.9,"t":0.0,"c":0.0,"nc":0,"k":"19006_0404"}},{"type":"Feature","geometry":{"type":"Point","coordinates":[-100.15594,25.75654]},"properties":{"s":2.4,"a":2.5,"t":0.0,"c":0.0,"nc":0,"k":"19006_0404"}},{"type":"Feature","geometry":{"type":"Point","coordinates":[-100.15893,25.75654]},"properties":{"s":2.3,"a":2.4,"t":0.0,"c":0.0,"nc":0,"k":"19006_0404"}},{"type":"Feature","geometry":{"type":"Point","coordinates":[-100.15993,25.75745]},"properties":{"s":0.8,"a":0.8,"t":0.0,"c":0.0,"nc":0,"k":"19006_0404"}},{"type":"Feature","geometry":{"type":"Point","coordinates":[-100.16193,25.76287]},"properties":{"s":2.0,"a":2.2,"t":0.0,"c":0.0,"nc":0,"k":"19006_0327"}},{"type":"Feature","geometry":{"type":"Point","coordinates":[-100.15395,25.76378]},"properties":{"s":2.0,"a":1.2,"t":1.0,"c":0.0,"nc":0,"k":"19006_0327"}},{"type":"Feature","geometry":{"type":"Point","coordinates":[-100.15295,25.76378]},"properties":{"s":2.0,"a":1.2,"t":1.0,"c":0.0,"nc":0,"k":"19006_0327"}},{"type":"Feature","geometry":{"type":"Point","coordinates":[-100.16591,25.7674]},"properties":{"s":1.8,"a":0.0,"t":2.0,"c":0.0,"nc":0,"k":"19006_0327"}},{"type":"Feature","geometry":{"type":"Point","coordinates":[-100.16093,25.76287]},"properties":{"s":1.8,"a":2.0,"t":0.0,"c":0.0,"nc":0,"k":"19006_0327"}},{"type":"Feature","geometry":{"type":"Point","coordinates":[-100.15993,25.76287]},"properties":{"s":1.8,"a":2.0,"t":0.0,"c":0.0,"nc":0,"k":"19006_0327"}},{"type":"Feature","geometry":{"type":"Point","coordinates":[-100.16292,25.76378]},"properties":{"s":1.5,"a":1.6,"t":0.0,"c":0.0,"nc":0,"k":"19006_0327"}},{"type":"Feature","geometry":{"type":"Point","coordinates":[-100.15495,25.7683]},"properties":{"s":0.9,"a":0.0,"t":1.0,"c":0.0,"nc":0,"k":"19006_0327"}},{"type":"Feature","geometry":{"type":"Point","coordinates":[-100.15893,25.76378]},"properties":{"s":0.7,"a":0.8,"t":0.0,"c":0.0,"nc":0,"k":"19006_0327"}},{"type":"Feature","geometry":{"type":"Point","coordinates":[-100.15096,25.76378]},"properties":{"s":0.7,"a":0.8,"t":0.0,"c":0.0,"nc":0,"k":"19006_0327"}},{"type":"Feature","geometry":{"type":"Point","coordinates":[-100.15993,25.76378]},"properties":{"s":0.4,"a":0.4,"t":0.0,"c":0.0,"nc":0,"k":"19006_0327"}},{"type":"Feature","geometry":{"type":"Point","coordinates":[-100.15794,25.76378]},"properties":{"s":0.4,"a":0.4,"t":0.0,"c":0.0,"nc":0,"k":"19006_0327"}},{"type":"Feature","geometry":{"type":"Point","coordinates":[-100.15694,25.76378]},"properties":{"s":0.4,"a":0.4,"t":0.0,"c":0.0,"nc":0,"k":"19006_0327"}},{"type":"Feature","geometry":{"type":"Point","coordinates":[-100.15295,25.76649]},"properties":{"s":0.4,"a":0.4,"t":0.0,"c":0.0,"nc":0,"k":"19006_0327"}},{"type":"Feature","geometry":{"type":"Point","coordinates":[-100.15196,25.76378]},"properties":{"s":0.4,"a":0.4,"t":0.0,"c":0.0,"nc":0,"k":"19006_0327"}},{"type":"Feature","geometry":{"type":"Point","coordinates":[-100.15196,25.76468]},"properties":{"s":0.4,"a":0.4,"t":0.0,"c":0.0,"nc":0,"k":"19006_0327"}},{"type":"Feature","geometry":{"type":"Point","coordinates":[-100.17389,25.76649]},"properties":{"s":1.7,"a":0.0,"t":2.0,"c":0.0,"nc":0,"k":"19006_0345"}},{"type":"Feature","geometry":{"type":"Point","coordinates":[-100.1709,25.76468]},"properties":{"s":1.4,"a":1.6,"t":0.0,"c":0.0,"nc":0,"k":"19006_0345"}},{"type":"Feature","geometry":{"type":"Point","coordinates":[-100.17189,25.76468]},"properties":{"s":1.0,"a":1.2,"t":0.0,"c":0.0,"nc":0,"k":"19006_0345"}},{"type":"Feature","geometry":{"type":"Point","coordinates":[-100.16691,25.7674]},"properties":{"s":0.9,"a":0.0,"t":1.0,"c":0.0,"nc":0,"k":"19006_0345"}},{"type":"Feature","geometry":{"type":"Point","coordinates":[-100.17289,25.76468]},"properties":{"s":0.7,"a":0.8,"t":0.0,"c":0.0,"nc":0,"k":"19006_0345"}},{"type":"Feature","geometry":{"type":"Point","coordinates":[-100.1699,25.76468]},"properties":{"s":0.7,"a":0.8,"t":0.0,"c":0.0,"nc":0,"k":"19006_0345"}},{"type":"Feature","geometry":{"type":"Point","coordinates":[-100.16591,25.76468]},"properties":{"s":0.7,"a":0.8,"t":0.0,"c":0.0,"nc":0,"k":"19006_0345"}},{"type":"Feature","geometry":{"type":"Point","coordinates":[-100.17389,25.76468]},"properties":{"s":0.3,"a":0.4,"t":0.0,"c":0.0,"nc":0,"k":"19006_0345"}},{"type":"Feature","geometry":{"type":"Point","coordinates":[-100.16691,25.76468]},"properties":{"s":0.3,"a":0.4,"t":0.0,"c":0.0,"nc":0,"k":"19006_0345"}},{"type":"Feature","geometry":{"type":"Point","coordinates":[-100.16691,25.76016]},"properties":{"s":12.1,"a":10.4,"t":0.0,"c":0.0,"nc":0,"k":"19006_0403"}},{"type":"Feature","geometry":{"type":"Point","coordinates":[-100.16691,25.76197]},"properties":{"s":9.4,"a":8.1,"t":0.0,"c":0.0,"nc":0,"k":"19006_0403"}},{"type":"Feature","geometry":{"type":"Point","coordinates":[-100.16492,25.76106]},"properties":{"s":9.4,"a":8.1,"t":0.0,"c":0.0,"nc":0,"k":"19006_0403"}},{"type":"Feature","geometry":{"type":"Point","coordinates":[-100.16591,25.76016]},"properties":{"s":9.2,"a":7.9,"t":0.0,"c":0.0,"nc":0,"k":"19006_0403"}},{"type":"Feature","geometry":{"type":"Point","coordinates":[-100.16591,25.76106]},"properties":{"s":8.6,"a":7.4,"t":0.0,"c":0.0,"nc":0,"k":"19006_0403"}},{"type":"Feature","geometry":{"type":"Point","coordinates":[-100.16591,25.76197]},"properties":{"s":8.5,"a":7.3,"t":0.0,"c":0.0,"nc":0,"k":"19006_0403"}},{"type":"Feature","geometry":{"type":"Point","coordinates":[-100.16691,25.76106]},"properties":{"s":8.3,"a":7.1,"t":0.0,"c":0.0,"nc":0,"k":"19006_0403"}},{"type":"Feature","geometry":{"type":"Point","coordinates":[-100.16691,25.76287]},"properties":{"s":7.1,"a":6.1,"t":0.0,"c":0.0,"nc":0,"k":"19006_0403"}},{"type":"Feature","geometry":{"type":"Point","coordinates":[-100.16591,25.76287]},"properties":{"s":6.6,"a":5.7,"t":0.0,"c":0.0,"nc":0,"k":"19006_0403"}},{"type":"Feature","geometry":{"type":"Point","coordinates":[-100.16492,25.76287]},"properties":{"s":5.7,"a":4.9,"t":0.0,"c":0.0,"nc":0,"k":"19006_0403"}},{"type":"Feature","geometry":{"type":"Point","coordinates":[-100.16492,25.76016]},"properties":{"s":5.6,"a":4.8,"t":0.0,"c":0.0,"nc":0,"k":"19006_0403"}},{"type":"Feature","geometry":{"type":"Point","coordinates":[-100.16492,25.76197]},"properties":{"s":4.7,"a":4.1,"t":0.0,"c":0.0,"nc":0,"k":"19006_0403"}},{"type":"Feature","geometry":{"type":"Point","coordinates":[-100.16791,25.76287]},"properties":{"s":3.3,"a":2.8,"t":0.0,"c":0.0,"nc":0,"k":"19006_0403"}},{"type":"Feature","geometry":{"type":"Point","coordinates":[-100.16691,25.76378]},"properties":{"s":3.3,"a":2.8,"t":0.0,"c":0.0,"nc":0,"k":"19006_0403"}},{"type":"Feature","geometry":{"type":"Point","coordinates":[-100.16791,25.76378]},"properties":{"s":2.8,"a":2.4,"t":0.0,"c":0.0,"nc":0,"k":"19006_0403"}},{"type":"Feature","geometry":{"type":"Point","coordinates":[-100.1689,25.76378]},"properties":{"s":2.3,"a":2.0,"t":0.0,"c":0.0,"nc":0,"k":"19006_0403"}},{"type":"Feature","geometry":{"type":"Point","coordinates":[-100.16591,25.76378]},"properties":{"s":2.3,"a":2.0,"t":0.0,"c":0.0,"nc":0,"k":"19006_0403"}},{"type":"Feature","geometry":{"type":"Point","coordinates":[-100.16492,25.76378]},"properties":{"s":1.4,"a":1.2,"t":0.0,"c":0.0,"nc":0,"k":"19006_0403"}},{"type":"Feature","geometry":{"type":"Point","coordinates":[-100.18585,25.7873]},"properties":{"s":4.8,"a":5.7,"t":2.0,"c":1.2,"nc":2,"k":"19006_0312"}},{"type":"Feature","geometry":{"type":"Point","coordinates":[-100.18884,25.78639]},"properties":{"s":3.6,"a":4.9,"t":0.0,"c":0.0,"nc":1,"k":"19006_0312"}},{"type":"Feature","geometry":{"type":"Point","coordinates":[-100.18685,25.7873]},"properties":{"s":2.8,"a":5.6,"t":0.0,"c":1.7,"nc":1,"k":"19006_0312"}},{"type":"Feature","geometry":{"type":"Point","coordinates":[-100.18485,25.7873]},"properties":{"s":2.8,"a":4.2,"t":1.0,"c":1.4,"nc":1,"k":"19006_0312"}},{"type":"Feature","geometry":{"type":"Point","coordinates":[-100.18585,25.7882]},"properties":{"s":2.5,"a":5.6,"t":0.0,"c":2.2,"nc":2,"k":"19006_0312"}},{"type":"Feature","geometry":{"type":"Point","coordinates":[-100.18585,25.78911]},"properties":{"s":2.2,"a":5.0,"t":0.0,"c":2.0,"nc":2,"k":"19006_0312"}},{"type":"Feature","geometry":{"type":"Point","coordinates":[-100.18984,25.78639]},"properties":{"s":2.1,"a":2.9,"t":0.0,"c":0.0,"nc":0,"k":"19006_0312"}},{"type":"Feature","geometry":{"type":"Point","coordinates":[-100.18884,25.7873]},"properties":{"s":1.5,"a":3.1,"t":0.0,"c":1.1,"nc":1,"k":"19006_0312"}},{"type":"Feature","geometry":{"type":"Point","coordinates":[-100.18984,25.7873]},"properties":{"s":1.3,"a":1.9,"t":0.0,"c":0.1,"nc":1,"k":"19006_0312"}},{"type":"Feature","geometry":{"type":"Point","coordinates":[-100.18884,25.7882]},"properties":{"s":1.2,"a":3.5,"t":0.0,"c":1.9,"nc":1,"k":"19006_0312"}},{"type":"Feature","geometry":{"type":"Point","coordinates":[-100.18485,25.78911]},"properties":{"s":1.2,"a":3.6,"t":0.0,"c":1.9,"nc":2,"k":"19006_0312"}},{"type":"Feature","geometry":{"type":"Point","coordinates":[-100.18685,25.78639]},"properties":{"s":1.1,"a":1.9,"t":0.0,"c":0.4,"nc":1,"k":"19006_0312"}},{"type":"Feature","geometry":{"type":"Point","coordinates":[-100.18785,25.7873]},"properties":{"s":1.0,"a":3.1,"t":0.0,"c":1.8,"nc":1,"k":"19006_0312"}},{"type":"Feature","geometry":{"type":"Point","coordinates":[-100.18485,25.79001]},"properties":{"s":0.7,"a":1.6,"t":0.0,"c":0.6,"nc":2,"k":"19006_0312"}},{"type":"Feature","geometry":{"type":"Point","coordinates":[-100.18386,25.79092]},"properties":{"s":0.7,"a":1.2,"t":0.0,"c":0.3,"nc":1,"k":"19006_0312"}},{"type":"Feature","geometry":{"type":"Point","coordinates":[-100.18685,25.7882]},"properties":{"s":0.6,"a":3.6,"t":0.0,"c":2.9,"nc":1,"k":"19006_0312"}},{"type":"Feature","geometry":{"type":"Point","coordinates":[-100.18485,25.79092]},"properties":{"s":0.6,"a":0.8,"t":0.0,"c":0.0,"nc":0,"k":"19006_0312"}},{"type":"Feature","geometry":{"type":"Point","coordinates":[-100.18386,25.79182]},"properties":{"s":0.5,"a":0.8,"t":0.0,"c":0.2,"nc":1,"k":"19006_0312"}},{"type":"Feature","geometry":{"type":"Point","coordinates":[-100.18386,25.79001]},"properties":{"s":0.3,"a":1.6,"t":0.0,"c":1.2,"nc":1,"k":"19006_0312"}},{"type":"Feature","geometry":{"type":"Point","coordinates":[-100.17189,25.7294]},"properties":{"s":4.9,"a":5.6,"t":2.0,"c":0.0,"nc":0,"k":"19006_0235"}},{"type":"Feature","geometry":{"type":"Point","coordinates":[-100.1709,25.73031]},"properties":{"s":2.5,"a":3.8,"t":0.0,"c":0.0,"nc":0,"k":"19006_0235"}},{"type":"Feature","geometry":{"type":"Point","coordinates":[-100.1709,25.7294]},"properties":{"s":2.1,"a":3.2,"t":0.0,"c":0.0,"nc":0,"k":"19006_0235"}},{"type":"Feature","geometry":{"type":"Point","coordinates":[-100.16791,25.72759]},"properties":{"s":1.6,"a":3.8,"t":0.0,"c":1.3,"nc":1,"k":"19006_0235"}},{"type":"Feature","geometry":{"type":"Point","coordinates":[-100.16691,25.7294]},"properties":{"s":1.6,"a":2.4,"t":0.0,"c":0.0,"nc":0,"k":"19006_0235"}},{"type":"Feature","geometry":{"type":"Point","coordinates":[-100.16791,25.7285]},"properties":{"s":1.5,"a":2.8,"t":0.0,"c":0.5,"nc":1,"k":"19006_0235"}},{"type":"Feature","geometry":{"type":"Point","coordinates":[-100.16791,25.7294]},"properties":{"s":1.3,"a":2.0,"t":0.0,"c":0.0,"nc":0,"k":"19006_0235"}},{"type":"Feature","geometry":{"type":"Point","coordinates":[-100.16691,25.72759]},"properties":{"s":1.3,"a":2.0,"t":0.0,"c":0.1,"nc":1,"k":"19006_0235"}},{"type":"Feature","geometry":{"type":"Point","coordinates":[-100.16691,25.7285]},"properties":{"s":1.3,"a":2.0,"t":0.0,"c":0.0,"nc":0,"k":"19006_0235"}},{"type":"Feature","geometry":{"type":"Point","coordinates":[-100.16691,25.73031]},"properties":{"s":1.3,"a":2.0,"t":0.0,"c":0.0,"nc":0,"k":"19006_0235"}},{"type":"Feature","geometry":{"type":"Point","coordinates":[-100.1689,25.7285]},"properties":{"s":1.1,"a":3.0,"t":0.0,"c":1.3,"nc":1,"k":"19006_0235"}},{"type":"Feature","geometry":{"type":"Point","coordinates":[-100.16492,25.7294]},"properties":{"s":1.1,"a":1.7,"t":0.0,"c":0.0,"nc":0,"k":"19006_0235"}},{"type":"Feature","geometry":{"type":"Point","coordinates":[-100.16492,25.73031]},"properties":{"s":1.1,"a":1.7,"t":0.0,"c":0.0,"nc":0,"k":"19006_0235"}},{"type":"Feature","geometry":{"type":"Point","coordinates":[-100.16392,25.73031]},"properties":{"s":1.1,"a":1.7,"t":0.0,"c":0.0,"nc":0,"k":"19006_0235"}},{"type":"Feature","geometry":{"type":"Point","coordinates":[-100.1689,25.7294]},"properties":{"s":1.0,"a":1.6,"t":0.0,"c":0.0,"nc":1,"k":"19006_0235"}},{"type":"Feature","geometry":{"type":"Point","coordinates":[-100.16791,25.73031]},"properties":{"s":1.0,"a":1.6,"t":0.0,"c":0.0,"nc":0,"k":"19006_0235"}},{"type":"Feature","geometry":{"type":"Point","coordinates":[-100.16591,25.7285]},"properties":{"s":1.0,"a":1.6,"t":0.0,"c":0.0,"nc":0,"k":"19006_0235"}},{"type":"Feature","geometry":{"type":"Point","coordinates":[-100.16591,25.7294]},"properties":{"s":1.0,"a":1.6,"t":0.0,"c":0.0,"nc":0,"k":"19006_0235"}},{"type":"Feature","geometry":{"type":"Point","coordinates":[-100.1699,25.7294]},"properties":{"s":0.9,"a":1.6,"t":0.0,"c":0.2,"nc":1,"k":"19006_0235"}},{"type":"Feature","geometry":{"type":"Point","coordinates":[-100.16492,25.72759]},"properties":{"s":0.9,"a":0.4,"t":1.0,"c":0.0,"nc":0,"k":"19006_0235"}},{"type":"Feature","geometry":{"type":"Point","coordinates":[-100.17189,25.7285]},"properties":{"s":0.8,"a":1.6,"t":0.0,"c":0.3,"nc":2,"k":"19006_0235"}},{"type":"Feature","geometry":{"type":"Point","coordinates":[-100.1699,25.73031]},"properties":{"s":0.8,"a":1.2,"t":0.0,"c":0.0,"nc":0,"k":"19006_0235"}},{"type":"Feature","geometry":{"type":"Point","coordinates":[-100.1689,25.73031]},"properties":{"s":0.8,"a":1.2,"t":0.0,"c":0.0,"nc":0,"k":"19006_0235"}},{"type":"Feature","geometry":{"type":"Point","coordinates":[-100.16591,25.72759]},"properties":{"s":0.8,"a":1.2,"t":0.0,"c":0.0,"nc":0,"k":"19006_0235"}},{"type":"Feature","geometry":{"type":"Point","coordinates":[-100.16591,25.73031]},"properties":{"s":0.8,"a":1.2,"t":0.0,"c":0.0,"nc":0,"k":"19006_0235"}},{"type":"Feature","geometry":{"type":"Point","coordinates":[-100.16392,25.7294]},"properties":{"s":0.8,"a":1.3,"t":0.0,"c":0.0,"nc":0,"k":"19006_0235"}},{"type":"Feature","geometry":{"type":"Point","coordinates":[-100.1699,25.7285]},"properties":{"s":0.6,"a":2.4,"t":0.0,"c":1.5,"nc":1,"k":"19006_0235"}},{"type":"Feature","geometry":{"type":"Point","coordinates":[-100.1689,25.72759]},"properties":{"s":0.6,"a":3.4,"t":0.0,"c":2.4,"nc":1,"k":"19006_0235"}},{"type":"Feature","geometry":{"type":"Point","coordinates":[-100.1699,25.72759]},"properties":{"s":0.4,"a":3.4,"t":0.0,"c":2.9,"nc":1,"k":"19006_0235"}},{"type":"Feature","geometry":{"type":"Point","coordinates":[-100.1709,25.7285]},"properties":{"s":0.3,"a":1.6,"t":0.0,"c":1.1,"nc":1,"k":"19006_0235"}},{"type":"Feature","geometry":{"type":"Point","coordinates":[-100.1689,25.72669]},"properties":{"s":0.3,"a":3.4,"t":0.0,"c":2.9,"nc":1,"k":"19006_0235"}},{"type":"Feature","geometry":{"type":"Point","coordinates":[-100.16492,25.7285]},"properties":{"s":0.3,"a":0.4,"t":0.0,"c":0.0,"nc":0,"k":"19006_0235"}},{"type":"Feature","geometry":{"type":"Point","coordinates":[-100.17189,25.72759]},"properties":{"s":0.0,"a":1.6,"t":0.0,"c":1.6,"nc":2,"k":"19006_0235"}},{"type":"Feature","geometry":{"type":"Point","coordinates":[-100.25663,25.76921]},"properties":{"s":1.6,"a":2.7,"t":0.0,"c":0.0,"nc":0,"k":"19006_0251"}},{"type":"Feature","geometry":{"type":"Point","coordinates":[-100.25863,25.77011]},"properties":{"s":1.4,"a":2.9,"t":0.0,"c":0.5,"nc":1,"k":"19006_0251"}},{"type":"Feature","geometry":{"type":"Point","coordinates":[-100.25962,25.7683]},"properties":{"s":1.3,"a":1.6,"t":1.0,"c":0.4,"nc":1,"k":"19006_0251"}},{"type":"Feature","geometry":{"type":"Point","coordinates":[-100.25663,25.77011]},"properties":{"s":1.3,"a":2.3,"t":0.0,"c":0.0,"nc":0,"k":"19006_0251"}},{"type":"Feature","geometry":{"type":"Point","coordinates":[-100.25763,25.76921]},"properties":{"s":1.0,"a":1.8,"t":0.0,"c":0.0,"nc":0,"k":"19006_0251"}},{"type":"Feature","geometry":{"type":"Point","coordinates":[-100.25763,25.7683]},"properties":{"s":0.8,"a":1.4,"t":0.0,"c":0.0,"nc":0,"k":"19006_0251"}},{"type":"Feature","geometry":{"type":"Point","coordinates":[-100.25962,25.77011]},"properties":{"s":0.7,"a":2.9,"t":0.0,"c":1.8,"nc":1,"k":"19006_0251"}},{"type":"Feature","geometry":{"type":"Point","coordinates":[-100.25763,25.77011]},"properties":{"s":0.7,"a":1.2,"t":0.0,"c":0.0,"nc":0,"k":"19006_0251"}},{"type":"Feature","geometry":{"type":"Point","coordinates":[-100.25863,25.7683]},"properties":{"s":0.5,"a":0.8,"t":0.0,"c":0.0,"nc":0,"k":"19006_0251"}},{"type":"Feature","geometry":{"type":"Point","coordinates":[-100.25564,25.77011]},"properties":{"s":0.5,"a":0.9,"t":0.0,"c":0.0,"nc":0,"k":"19006_0251"}},{"type":"Feature","geometry":{"type":"Point","coordinates":[-100.25863,25.76921]},"properties":{"s":0.4,"a":0.8,"t":0.0,"c":0.2,"nc":1,"k":"19006_0251"}}]}