{"type":"FeatureCollection","features":[{"type":"Feature","geometry":{"type":"Point","coordinates":[-100.19084,25.72397]},"properties":{"s":9.9,"a":3.9,"t":6.0,"c":0.0,"nc":0,"k":"19026_0072"}},{"type":"Feature","geometry":{"type":"Point","coordinates":[-100.18685,25.72488]},"properties":{"s":7.9,"a":8.0,"t":0.0,"c":0.0,"nc":0,"k":"19026_0072"}},{"type":"Feature","geometry":{"type":"Point","coordinates":[-100.18485,25.72578]},"properties":{"s":6.7,"a":6.7,"t":0.0,"c":0.0,"nc":0,"k":"19026_0072"}},{"type":"Feature","geometry":{"type":"Point","coordinates":[-100.18984,25.72397]},"properties":{"s":6.3,"a":4.3,"t":2.0,"c":0.0,"nc":0,"k":"19026_0072"}},{"type":"Feature","geometry":{"type":"Point","coordinates":[-100.18685,25.72578]},"properties":{"s":6.2,"a":6.2,"t":0.0,"c":0.0,"nc":0,"k":"19026_0072"}},{"type":"Feature","geometry":{"type":"Point","coordinates":[-100.18485,25.72488]},"properties":{"s":6.2,"a":7.1,"t":0.0,"c":0.8,"nc":1,"k":"19026_0072"}},{"type":"Feature","geometry":{"type":"Point","coordinates":[-100.18585,25.72578]},"properties":{"s":5.9,"a":5.9,"t":0.0,"c":0.0,"nc":0,"k":"19026_0072"}},{"type":"Feature","geometry":{"type":"Point","coordinates":[-100.18585,25.72488]},"properties":{"s":5.7,"a":6.3,"t":0.0,"c":0.6,"nc":1,"k":"19026_0072"}},{"type":"Feature","geometry":{"type":"Point","coordinates":[-100.18685,25.7285]},"properties":{"s":5.4,"a":5.5,"t":0.0,"c":0.0,"nc":0,"k":"19026_0072"}},{"type":"Feature","geometry":{"type":"Point","coordinates":[-100.18386,25.72578]},"properties":{"s":5.4,"a":5.4,"t":0.0,"c":0.0,"nc":0,"k":"19026_0072"}},{"type":"Feature","geometry":{"type":"Point","coordinates":[-100.18685,25.7294]},"properties":{"s":5.2,"a":5.2,"t":0.0,"c":0.0,"nc":0,"k":"19026_0072"}},{"type":"Feature","geometry":{"type":"Point","coordinates":[-100.18087,25.72759]},"properties":{"s":5.2,"a":5.2,"t":0.0,"c":0.0,"nc":0,"k":"19026_0072"}},{"type":"Feature","geometry":{"type":"Point","coordinates":[-100.18785,25.72397]},"properties":{"s":5.1,"a":5.2,"t":0.0,"c":0.0,"nc":0,"k":"19026_0072"}},{"type":"Feature","geometry":{"type":"Point","coordinates":[-100.18186,25.72307]},"properties":{"s":5.1,"a":5.2,"t":0.0,"c":0.0,"nc":0,"k":"19026_0072"}},{"type":"Feature","geometry":{"type":"Point","coordinates":[-100.18186,25.72397]},"properties":{"s":5.1,"a":5.2,"t":0.0,"c":0.0,"nc":0,"k":"19026_0072"}},{"type":"Feature","geometry":{"type":"Point","coordinates":[-100.18785,25.72488]},"properties":{"s":5.0,"a":5.0,"t":0.0,"c":0.0,"nc":0,"k":"19026_0072"}},{"type":"Feature","geometry":{"type":"Point","coordinates":[-100.18286,25.72759]},"properties":{"s":5.0,"a":5.1,"t":0.0,"c":0.0,"nc":0,"k":"19026_0072"}},{"type":"Feature","geometry":{"type":"Point","coordinates":[-100.18785,25.72759]},"properties":{"s":4.8,"a":4.9,"t":0.0,"c":0.0,"nc":0,"k":"19026_0072"}},{"type":"Feature","geometry":{"type":"Point","coordinates":[-100.18186,25.72126]},"properties":{"s":4.7,"a":4.7,"t":0.0,"c":0.0,"nc":0,"k":"19026_0072"}},{"type":"Feature","geometry":{"type":"Point","coordinates":[-100.18186,25.72216]},"properties":{"s":4.7,"a":4.8,"t":0.0,"c":0.0,"nc":0,"k":"19026_0072"}},{"type":"Feature","geometry":{"type":"Point","coordinates":[-100.18186,25.7294]},"properties":{"s":4.6,"a":4.7,"t":0.0,"c":0.0,"nc":1,"k":"19026_0072"}},{"type":"Feature","geometry":{"type":"Point","coordinates":[-100.18087,25.7285]},"properties":{"s":4.6,"a":5.2,"t":0.0,"c":0.6,"nc":1,"k":"19026_0072"}},{"type":"Feature","geometry":{"type":"Point","coordinates":[-100.18984,25.72669]},"properties":{"s":4.5,"a":3.5,"t":1.0,"c":0.0,"nc":0,"k":"19026_0072"}},{"type":"Feature","geometry":{"type":"Point","coordinates":[-100.18186,25.72488]},"properties":{"s":4.4,"a":4.5,"t":0.0,"c":0.0,"nc":0,"k":"19026_0072"}},{"type":"Feature","geometry":{"type":"Point","coordinates":[-100.18785,25.72669]},"properties":{"s":4.3,"a":4.3,"t":0.0,"c":0.0,"nc":0,"k":"19026_0072"}},{"type":"Feature","geometry":{"type":"Point","coordinates":[-100.18585,25.72397]},"properties":{"s":4.3,"a":6.2,"t":0.0,"c":1.8,"nc":1,"k":"19026_0072"}},{"type":"Feature","geometry":{"type":"Point","coordinates":[-100.18286,25.72126]},"properties":{"s":4.3,"a":4.7,"t":0.0,"c":0.4,"nc":1,"k":"19026_0072"}},{"type":"Feature","geometry":{"type":"Point","coordinates":[-100.18884,25.72578]},"properties":{"s":4.2,"a":4.2,"t":0.0,"c":0.0,"nc":0,"k":"19026_0072"}},{"type":"Feature","geometry":{"type":"Point","coordinates":[-100.18785,25.72578]},"properties":{"s":4.2,"a":4.2,"t":0.0,"c":0.0,"nc":0,"k":"19026_0072"}},{"type":"Feature","geometry":{"type":"Point","coordinates":[-100.18685,25.72759]},"properties":{"s":4.2,"a":4.2,"t":0.0,"c":0.0,"nc":0,"k":"19026_0072"}},{"type":"Feature","geometry":{"type":"Point","coordinates":[-100.18186,25.7285]},"properties":{"s":4.2,"a":4.2,"t":0.0,"c":0.0,"nc":0,"k":"19026_0072"}},{"type":"Feature","geometry":{"type":"Point","coordinates":[-100.18386,25.72488]},"properties":{"s":4.1,"a":4.7,"t":0.0,"c":0.5,"nc":1,"k":"19026_0072"}},{"type":"Feature","geometry":{"type":"Point","coordinates":[-100.18685,25.72669]},"properties":{"s":3.9,"a":3.9,"t":0.0,"c":0.0,"nc":0,"k":"19026_0072"}},{"type":"Feature","geometry":{"type":"Point","coordinates":[-100.18685,25.72397]},"properties":{"s":3.8,"a":4.8,"t":0.0,"c":0.9,"nc":1,"k":"19026_0072"}},{"type":"Feature","geometry":{"type":"Point","coordinates":[-100.18485,25.72669]},"properties":{"s":3.8,"a":3.8,"t":0.0,"c":0.0,"nc":0,"k":"19026_0072"}},{"type":"Feature","geometry":{"type":"Point","coordinates":[-100.18485,25.72759]},"properties":{"s":3.8,"a":3.9,"t":0.0,"c":0.0,"nc":0,"k":"19026_0072"}},{"type":"Feature","geometry":{"type":"Point","coordinates":[-100.18485,25.7285]},"properties":{"s":3.8,"a":3.8,"t":0.0,"c":0.0,"nc":0,"k":"19026_0072"}},{"type":"Feature","geometry":{"type":"Point","coordinates":[-100.18286,25.7285]},"properties":{"s":3.8,"a":3.8,"t":0.0,"c":0.0,"nc":0,"k":"19026_0072"}},{"type":"Feature","geometry":{"type":"Point","coordinates":[-100.18087,25.72488]},"properties":{"s":3.8,"a":3.8,"t":0.0,"c":0.0,"nc":0,"k":"19026_0072"}},{"type":"Feature","geometry":{"type":"Point","coordinates":[-100.18984,25.72578]},"properties":{"s":3.7,"a":2.7,"t":1.0,"c":0.0,"nc":0,"k":"19026_0072"}},{"type":"Feature","geometry":{"type":"Point","coordinates":[-100.18785,25.7285]},"properties":{"s":3.6,"a":3.6,"t":0.0,"c":0.0,"nc":0,"k":"19026_0072"}},{"type":"Feature","geometry":{"type":"Point","coordinates":[-100.18386,25.72759]},"properties":{"s":3.6,"a":3.6,"t":0.0,"c":0.0,"nc":0,"k":"19026_0072"}},{"type":"Feature","geometry":{"type":"Point","coordinates":[-100.18286,25.72488]},"properties":{"s":3.6,"a":3.6,"t":0.0,"c":0.0,"nc":0,"k":"19026_0072"}},{"type":"Feature","geometry":{"type":"Point","coordinates":[-100.18286,25.72578]},"properties":{"s":3.6,"a":3.6,"t":0.0,"c":0.0,"nc":0,"k":"19026_0072"}},{"type":"Feature","geometry":{"type":"Point","coordinates":[-100.18186,25.72759]},"properties":{"s":3.4,"a":3.4,"t":0.0,"c":0.0,"nc":0,"k":"19026_0072"}},{"type":"Feature","geometry":{"type":"Point","coordinates":[-100.18884,25.72759]},"properties":{"s":3.2,"a":3.2,"t":0.0,"c":0.0,"nc":0,"k":"19026_0072"}},{"type":"Feature","geometry":{"type":"Point","coordinates":[-100.18386,25.72397]},"properties":{"s":3.2,"a":4.9,"t":0.0,"c":1.6,"nc":1,"k":"19026_0072"}},{"type":"Feature","geometry":{"type":"Point","coordinates":[-100.18386,25.72669]},"properties":{"s":3.2,"a":3.2,"t":0.0,"c":0.0,"nc":0,"k":"19026_0072"}},{"type":"Feature","geometry":{"type":"Point","coordinates":[-100.18286,25.72669]},"properties":{"s":3.2,"a":3.2,"t":0.0,"c":0.0,"nc":0,"k":"19026_0072"}},{"type":"Feature","geometry":{"type":"Point","coordinates":[-100.18186,25.72578]},"properties":{"s":3.2,"a":3.2,"t":0.0,"c":0.0,"nc":0,"k":"19026_0072"}},{"type":"Feature","geometry":{"type":"Point","coordinates":[-100.18087,25.72578]},"properties":{"s":3.2,"a":3.2,"t":0.0,"c":0.0,"nc":0,"k":"19026_0072"}},{"type":"Feature","geometry":{"type":"Point","coordinates":[-100.18087,25.72669]},"properties":{"s":3.2,"a":3.2,"t":0.0,"c":0.0,"nc":0,"k":"19026_0072"}},{"type":"Feature","geometry":{"type":"Point","coordinates":[-100.18884,25.72488]},"properties":{"s":3.1,"a":3.1,"t":0.0,"c":0.0,"nc":0,"k":"19026_0072"}},{"type":"Feature","geometry":{"type":"Point","coordinates":[-100.18485,25.72397]},"properties":{"s":3.1,"a":5.3,"t":0.0,"c":2.2,"nc":1,"k":"19026_0072"}},{"type":"Feature","geometry":{"type":"Point","coordinates":[-100.18286,25.7294]},"properties":{"s":3.1,"a":3.1,"t":0.0,"c":0.0,"nc":0,"k":"19026_0072"}},{"type":"Feature","geometry":{"type":"Point","coordinates":[-100.18585,25.72669]},"properties":{"s":3.0,"a":3.0,"t":0.0,"c":0.0,"nc":0,"k":"19026_0072"}},{"type":"Feature","geometry":{"type":"Point","coordinates":[-100.18585,25.72759]},"properties":{"s":3.0,"a":3.0,"t":0.0,"c":0.0,"nc":0,"k":"19026_0072"}},{"type":"Feature","geometry":{"type":"Point","coordinates":[-100.18585,25.7285]},"properties":{"s":3.0,"a":3.0,"t":0.0,"c":0.0,"nc":0,"k":"19026_0072"}},{"type":"Feature","geometry":{"type":"Point","coordinates":[-100.18087,25.7294]},"properties":{"s":3.0,"a":4.3,"t":0.0,"c":1.3,"nc":1,"k":"19026_0072"}},{"type":"Feature","geometry":{"type":"Point","coordinates":[-100.18386,25.72126]},"properties":{"s":2.9,"a":4.2,"t":0.0,"c":1.4,"nc":1,"k":"19026_0072"}},{"type":"Feature","geometry":{"type":"Point","coordinates":[-100.18186,25.72669]},"properties":{"s":2.8,"a":2.8,"t":0.0,"c":0.0,"nc":0,"k":"19026_0072"}},{"type":"Feature","geometry":{"type":"Point","coordinates":[-100.18286,25.72397]},"properties":{"s":2.6,"a":3.2,"t":0.0,"c":0.6,"nc":1,"k":"19026_0072"}},{"type":"Feature","geometry":{"type":"Point","coordinates":[-100.18984,25.72488]},"properties":{"s":2.4,"a":2.4,"t":0.0,"c":0.0,"nc":0,"k":"19026_0072"}},{"type":"Feature","geometry":{"type":"Point","coordinates":[-100.18884,25.72397]},"properties":{"s":2.4,"a":2.4,"t":0.0,"c":0.0,"nc":0,"k":"19026_0072"}},{"type":"Feature","geometry":{"type":"Point","coordinates":[-100.18386,25.7285]},"properties":{"s":2.4,"a":2.4,"t":0.0,"c":0.0,"nc":0,"k":"19026_0072"}},{"type":"Feature","geometry":{"type":"Point","coordinates":[-100.18386,25.7294]},"properties":{"s":2.4,"a":2.4,"t":0.0,"c":0.0,"nc":0,"k":"19026_0072"}},{"type":"Feature","geometry":{"type":"Point","coordinates":[-100.18884,25.72307]},"properties":{"s":2.0,"a":2.0,"t":0.0,"c":0.0,"nc":0,"k":"19026_0072"}},{"type":"Feature","geometry":{"type":"Point","coordinates":[-100.18884,25.72669]},"properties":{"s":2.0,"a":2.0,"t":0.0,"c":0.0,"nc":0,"k":"19026_0072"}},{"type":"Feature","geometry":{"type":"Point","coordinates":[-100.18585,25.7294]},"properties":{"s":2.0,"a":2.0,"t":0.0,"c":0.0,"nc":0,"k":"19026_0072"}},{"type":"Feature","geometry":{"type":"Point","coordinates":[-100.18585,25.72307]},"properties":{"s":1.7,"a":4.5,"t":0.0,"c":2.8,"nc":1,"k":"19026_0072"}},{"type":"Feature","geometry":{"type":"Point","coordinates":[-100.18485,25.7294]},"properties":{"s":1.6,"a":1.6,"t":0.0,"c":0.0,"nc":0,"k":"19026_0072"}},{"type":"Feature","geometry":{"type":"Point","coordinates":[-100.18485,25.72216]},"properties":{"s":1.5,"a":4.7,"t":0.0,"c":3.1,"nc":1,"k":"19026_0072"}},{"type":"Feature","geometry":{"type":"Point","coordinates":[-100.18785,25.72307]},"properties":{"s":1.4,"a":1.6,"t":0.0,"c":0.2,"nc":1,"k":"19026_0072"}},{"type":"Feature","geometry":{"type":"Point","coordinates":[-100.18685,25.72307]},"properties":{"s":1.4,"a":2.9,"t":0.0,"c":1.5,"nc":1,"k":"19026_0072"}},{"type":"Feature","geometry":{"type":"Point","coordinates":[-100.18386,25.72216]},"properties":{"s":1.4,"a":3.6,"t":0.0,"c":2.3,"nc":1,"k":"19026_0072"}},{"type":"Feature","geometry":{"type":"Point","coordinates":[-100.18286,25.72307]},"properties":{"s":0.9,"a":2.0,"t":0.0,"c":1.1,"nc":1,"k":"19026_0072"}},{"type":"Feature","geometry":{"type":"Point","coordinates":[-100.17987,25.7294]},"properties":{"s":0.5,"a":2.0,"t":1.0,"c":2.5,"nc":1,"k":"19026_0072"}},{"type":"Feature","geometry":{"type":"Point","coordinates":[-100.18585,25.72216]},"properties":{"s":0.2,"a":2.8,"t":0.0,"c":2.6,"nc":1,"k":"19026_0072"}},{"type":"Feature","geometry":{"type":"Point","coordinates":[-100.21676,25.64889]},"properties":{"s":4.4,"a":4.4,"t":0.0,"c":0.0,"nc":0,"k":"19026_0310"}},{"type":"Feature","geometry":{"type":"Point","coordinates":[-100.21476,25.64708]},"properties":{"s":4.4,"a":4.4,"t":0.0,"c":0.0,"nc":0,"k":"19026_0310"}},{"type":"Feature","geometry":{"type":"Point","coordinates":[-100.21775,25.64889]},"properties":{"s":4.0,"a":4.0,"t":0.0,"c":0.0,"nc":0,"k":"19026_0310"}},{"type":"Feature","geometry":{"type":"Point","coordinates":[-100.21775,25.64979]},"properties":{"s":4.0,"a":4.0,"t":0.0,"c":0.0,"nc":0,"k":"19026_0310"}},{"type":"Feature","geometry":{"type":"Point","coordinates":[-100.21676,25.64798]},"properties":{"s":4.0,"a":4.0,"t":0.0,"c":0.0,"nc":0,"k":"19026_0310"}},{"type":"Feature","geometry":{"type":"Point","coordinates":[-100.21576,25.64617]},"properties":{"s":4.0,"a":4.0,"t":0.0,"c":0.0,"nc":0,"k":"19026_0310"}},{"type":"Feature","geometry":{"type":"Point","coordinates":[-100.21476,25.64798]},"properties":{"s":4.0,"a":4.0,"t":0.0,"c":0.0,"nc":0,"k":"19026_0310"}},{"type":"Feature","geometry":{"type":"Point","coordinates":[-100.21377,25.64708]},"properties":{"s":4.0,"a":4.0,"t":0.0,"c":0.0,"nc":0,"k":"19026_0310"}},{"type":"Feature","geometry":{"type":"Point","coordinates":[-100.21775,25.64798]},"properties":{"s":3.6,"a":3.6,"t":0.0,"c":0.0,"nc":0,"k":"19026_0310"}},{"type":"Feature","geometry":{"type":"Point","coordinates":[-100.21676,25.64979]},"properties":{"s":3.6,"a":3.6,"t":0.0,"c":0.0,"nc":0,"k":"19026_0310"}},{"type":"Feature","geometry":{"type":"Point","coordinates":[-100.21576,25.64798]},"properties":{"s":3.2,"a":3.2,"t":0.0,"c":0.0,"nc":0,"k":"19026_0310"}},{"type":"Feature","geometry":{"type":"Point","coordinates":[-100.21576,25.64889]},"properties":{"s":3.2,"a":3.2,"t":0.0,"c":0.0,"nc":0,"k":"19026_0310"}},{"type":"Feature","geometry":{"type":"Point","coordinates":[-100.21377,25.64798]},"properties":{"s":3.2,"a":3.2,"t":0.0,"c":0.0,"nc":0,"k":"19026_0310"}},{"type":"Feature","geometry":{"type":"Point","coordinates":[-100.21875,25.64889]},"properties":{"s":2.8,"a":2.8,"t":0.0,"c":0.0,"nc":0,"k":"19026_0310"}},{"type":"Feature","geometry":{"type":"Point","coordinates":[-100.21676,25.64708]},"properties":{"s":2.8,"a":2.8,"t":0.0,"c":0.0,"nc":0,"k":"19026_0310"}},{"type":"Feature","geometry":{"type":"Point","coordinates":[-100.21676,25.6507]},"properties":{"s":2.8,"a":2.8,"t":0.0,"c":0.0,"nc":0,"k":"19026_0310"}},{"type":"Feature","geometry":{"type":"Point","coordinates":[-100.21576,25.64708]},"properties":{"s":2.8,"a":2.8,"t":0.0,"c":0.0,"nc":0,"k":"19026_0310"}},{"type":"Feature","geometry":{"type":"Point","coordinates":[-100.21476,25.64617]},"properties":{"s":2.8,"a":2.8,"t":0.0,"c":0.0,"nc":0,"k":"19026_0310"}},{"type":"Feature","geometry":{"type":"Point","coordinates":[-100.21875,25.64798]},"properties":{"s":2.4,"a":2.4,"t":0.0,"c":0.0,"nc":0,"k":"19026_0310"}},{"type":"Feature","geometry":{"type":"Point","coordinates":[-100.21775,25.6507]},"properties":{"s":2.4,"a":2.4,"t":0.0,"c":0.0,"nc":0,"k":"19026_0310"}},{"type":"Feature","geometry":{"type":"Point","coordinates":[-100.21576,25.64979]},"properties":{"s":2.4,"a":2.4,"t":0.0,"c":0.0,"nc":0,"k":"19026_0310"}},{"type":"Feature","geometry":{"type":"Point","coordinates":[-100.21775,25.64708]},"properties":{"s":2.0,"a":2.0,"t":0.0,"c":0.0,"nc":0,"k":"19026_0310"}},{"type":"Feature","geometry":{"type":"Point","coordinates":[-100.21676,25.6516]},"properties":{"s":2.0,"a":2.0,"t":0.0,"c":0.0,"nc":0,"k":"19026_0310"}},{"type":"Feature","geometry":{"type":"Point","coordinates":[-100.21476,25.64889]},"properties":{"s":2.0,"a":2.0,"t":0.0,"c":0.0,"nc":0,"k":"19026_0310"}},{"type":"Feature","geometry":{"type":"Point","coordinates":[-100.21476,25.6507]},"properties":{"s":2.0,"a":2.0,"t":0.0,"c":0.0,"nc":0,"k":"19026_0310"}},{"type":"Feature","geometry":{"type":"Point","coordinates":[-100.21377,25.64889]},"properties":{"s":2.0,"a":2.0,"t":0.0,"c":0.0,"nc":0,"k":"19026_0310"}},{"type":"Feature","geometry":{"type":"Point","coordinates":[-100.21875,25.64708]},"properties":{"s":1.6,"a":1.6,"t":0.0,"c":0.0,"nc":0,"k":"19026_0310"}},{"type":"Feature","geometry":{"type":"Point","coordinates":[-100.21775,25.6516]},"properties":{"s":1.6,"a":1.6,"t":0.0,"c":0.0,"nc":0,"k":"19026_0310"}},{"type":"Feature","geometry":{"type":"Point","coordinates":[-100.21476,25.64979]},"properties":{"s":1.6,"a":1.6,"t":0.0,"c":0.0,"nc":0,"k":"19026_0310"}},{"type":"Feature","geometry":{"type":"Point","coordinates":[-100.21875,25.64436]},"properties":{"s":1.2,"a":1.2,"t":0.0,"c":0.0,"nc":0,"k":"19026_0310"}},{"type":"Feature","geometry":{"type":"Point","coordinates":[-100.21576,25.6507]},"properties":{"s":1.2,"a":1.2,"t":0.0,"c":0.0,"nc":0,"k":"19026_0310"}},{"type":"Feature","geometry":{"type":"Point","coordinates":[-100.21476,25.6516]},"properties":{"s":1.2,"a":1.2,"t":0.0,"c":0.0,"nc":0,"k":"19026_0310"}},{"type":"Feature","geometry":{"type":"Point","coordinates":[-100.21875,25.64527]},"properties":{"s":0.8,"a":0.8,"t":0.0,"c":0.0,"nc":0,"k":"19026_0310"}},{"type":"Feature","geometry":{"type":"Point","coordinates":[-100.21875,25.64617]},"properties":{"s":0.8,"a":0.8,"t":0.0,"c":0.0,"nc":0,"k":"19026_0310"}},{"type":"Feature","geometry":{"type":"Point","coordinates":[-100.21576,25.6516]},"properties":{"s":0.8,"a":0.8,"t":0.0,"c":0.0,"nc":0,"k":"19026_0310"}},{"type":"Feature","geometry":{"type":"Point","coordinates":[-100.21476,25.64436]},"properties":{"s":5.7,"a":5.3,"t":0.0,"c":0.0,"nc":0,"k":"19026_0432"}},{"type":"Feature","geometry":{"type":"Point","coordinates":[-100.21476,25.64527]},"properties":{"s":5.7,"a":5.3,"t":0.0,"c":0.0,"nc":0,"k":"19026_0432"}},{"type":"Feature","geometry":{"type":"Point","coordinates":[-100.21377,25.64527]},"properties":{"s":5.3,"a":4.9,"t":0.0,"c":0.0,"nc":0,"k":"19026_0432"}},{"type":"Feature","geometry":{"type":"Point","coordinates":[-100.21676,25.64436]},"properties":{"s":5.2,"a":4.8,"t":0.0,"c":0.0,"nc":0,"k":"19026_0432"}},{"type":"Feature","geometry":{"type":"Point","coordinates":[-100.21676,25.64527]},"properties":{"s":5.2,"a":4.8,"t":0.0,"c":0.0,"nc":0,"k":"19026_0432"}},{"type":"Feature","geometry":{"type":"Point","coordinates":[-100.21377,25.64436]},"properties":{"s":4.9,"a":4.5,"t":0.0,"c":0.0,"nc":0,"k":"19026_0432"}},{"type":"Feature","geometry":{"type":"Point","coordinates":[-100.21676,25.64346]},"properties":{"s":4.4,"a":4.0,"t":0.0,"c":0.0,"nc":0,"k":"19026_0432"}},{"type":"Feature","geometry":{"type":"Point","coordinates":[-100.21576,25.64436]},"properties":{"s":4.4,"a":4.0,"t":0.0,"c":0.0,"nc":0,"k":"19026_0432"}},{"type":"Feature","geometry":{"type":"Point","coordinates":[-100.21576,25.64527]},"properties":{"s":4.4,"a":4.0,"t":0.0,"c":0.0,"nc":0,"k":"19026_0432"}},{"type":"Feature","geometry":{"type":"Point","coordinates":[-100.21377,25.64617]},"properties":{"s":4.4,"a":4.0,"t":0.0,"c":0.0,"nc":0,"k":"19026_0432"}},{"type":"Feature","geometry":{"type":"Point","coordinates":[-100.21277,25.64436]},"properties":{"s":4.4,"a":4.1,"t":0.0,"c":0.0,"nc":0,"k":"19026_0432"}},{"type":"Feature","geometry":{"type":"Point","coordinates":[-100.21576,25.64346]},"properties":{"s":3.5,"a":3.2,"t":0.0,"c":0.0,"nc":0,"k":"19026_0432"}},{"type":"Feature","geometry":{"type":"Point","coordinates":[-100.21277,25.64527]},"properties":{"s":3.5,"a":3.2,"t":0.0,"c":0.0,"nc":0,"k":"19026_0432"}},{"type":"Feature","geometry":{"type":"Point","coordinates":[-100.21775,25.64436]},"properties":{"s":3.1,"a":2.8,"t":0.0,"c":0.0,"nc":0,"k":"19026_0432"}},{"type":"Feature","geometry":{"type":"Point","coordinates":[-100.21676,25.64617]},"properties":{"s":3.1,"a":2.8,"t":0.0,"c":0.0,"nc":0,"k":"19026_0432"}},{"type":"Feature","geometry":{"type":"Point","coordinates":[-100.21476,25.64346]},"properties":{"s":3.1,"a":2.8,"t":0.0,"c":0.0,"nc":0,"k":"19026_0432"}},{"type":"Feature","geometry":{"type":"Point","coordinates":[-100.21277,25.64346]},"properties":{"s":3.1,"a":2.8,"t":0.0,"c":0.0,"nc":0,"k":"19026_0432"}},{"type":"Feature","geometry":{"type":"Point","coordinates":[-100.21277,25.64708]},"properties":{"s":3.1,"a":2.8,"t":0.0,"c":0.0,"nc":0,"k":"19026_0432"}},{"type":"Feature","geometry":{"type":"Point","coordinates":[-100.21775,25.64346]},"properties":{"s":2.6,"a":2.4,"t":0.0,"c":0.0,"nc":0,"k":"19026_0432"}},{"type":"Feature","geometry":{"type":"Point","coordinates":[-100.21775,25.64527]},"properties":{"s":2.6,"a":2.4,"t":0.0,"c":0.0,"nc":0,"k":"19026_0432"}},{"type":"Feature","geometry":{"type":"Point","coordinates":[-100.21775,25.64617]},"properties":{"s":2.2,"a":2.0,"t":0.0,"c":0.0,"nc":0,"k":"19026_0432"}},{"type":"Feature","geometry":{"type":"Point","coordinates":[-100.21277,25.64617]},"properties":{"s":1.7,"a":1.6,"t":0.0,"c":0.0,"nc":0,"k":"19026_0432"}},{"type":"Feature","geometry":{"type":"Point","coordinates":[-100.21177,25.64255]},"properties":{"s":1.3,"a":1.2,"t":0.0,"c":0.0,"nc":0,"k":"19026_0432"}},{"type":"Feature","geometry":{"type":"Point","coordinates":[-100.21177,25.64527]},"properties":{"s":1.3,"a":1.2,"t":0.0,"c":0.0,"nc":0,"k":"19026_0432"}},{"type":"Feature","geometry":{"type":"Point","coordinates":[-100.21277,25.64165]},"properties":{"s":0.9,"a":0.8,"t":0.0,"c":0.0,"nc":0,"k":"19026_0432"}},{"type":"Feature","geometry":{"type":"Point","coordinates":[-100.21177,25.64708]},"properties":{"s":0.4,"a":0.4,"t":0.0,"c":0.0,"nc":0,"k":"19026_0432"}},{"type":"Feature","geometry":{"type":"Point","coordinates":[-100.20479,25.69322]},"properties":{"s":5.5,"a":6.5,"t":0.0,"c":0.1,"nc":1,"k":"19026_0316"}},{"type":"Feature","geometry":{"type":"Point","coordinates":[-100.20679,25.69502]},"properties":{"s":5.3,"a":6.1,"t":0.0,"c":0.0,"nc":0,"k":"19026_0316"}},{"type":"Feature","geometry":{"type":"Point","coordinates":[-100.20579,25.69593]},"properties":{"s":5.3,"a":6.1,"t":0.0,"c":0.0,"nc":0,"k":"19026_0316"}},{"type":"Feature","geometry":{"type":"Point","coordinates":[-100.20479,25.69231]},"properties":{"s":4.8,"a":5.5,"t":0.0,"c":0.0,"nc":0,"k":"19026_0316"}},{"type":"Feature","geometry":{"type":"Point","coordinates":[-100.2038,25.69141]},"properties":{"s":4.8,"a":5.5,"t":0.0,"c":0.0,"nc":0,"k":"19026_0316"}},{"type":"Feature","geometry":{"type":"Point","coordinates":[-100.2038,25.69231]},"properties":{"s":4.8,"a":5.5,"t":0.0,"c":0.0,"nc":0,"k":"19026_0316"}},{"type":"Feature","geometry":{"type":"Point","coordinates":[-100.20679,25.69593]},"properties":{"s":4.6,"a":5.3,"t":0.0,"c":0.0,"nc":0,"k":"19026_0316"}},{"type":"Feature","geometry":{"type":"Point","coordinates":[-100.20878,25.69593]},"properties":{"s":4.4,"a":5.1,"t":0.0,"c":0.0,"nc":0,"k":"19026_0316"}},{"type":"Feature","geometry":{"type":"Point","coordinates":[-100.20479,25.69141]},"properties":{"s":4.4,"a":5.1,"t":0.0,"c":0.0,"nc":0,"k":"19026_0316"}},{"type":"Feature","geometry":{"type":"Point","coordinates":[-100.20579,25.69412]},"properties":{"s":4.2,"a":4.9,"t":0.0,"c":0.0,"nc":0,"k":"19026_0316"}},{"type":"Feature","geometry":{"type":"Point","coordinates":[-100.20479,25.69593]},"properties":{"s":4.2,"a":5.3,"t":0.0,"c":0.5,"nc":1,"k":"19026_0316"}},{"type":"Feature","geometry":{"type":"Point","coordinates":[-100.20479,25.69412]},"properties":{"s":4.1,"a":5.5,"t":0.0,"c":0.8,"nc":1,"k":"19026_0316"}},{"type":"Feature","geometry":{"type":"Point","coordinates":[-100.20579,25.69502]},"properties":{"s":3.9,"a":4.5,"t":0.0,"c":0.0,"nc":0,"k":"19026_0316"}},{"type":"Feature","geometry":{"type":"Point","coordinates":[-100.20579,25.69322]},"properties":{"s":3.5,"a":4.0,"t":0.0,"c":0.0,"nc":0,"k":"19026_0316"}},{"type":"Feature","geometry":{"type":"Point","coordinates":[-100.20978,25.69502]},"properties":{"s":3.4,"a":3.8,"t":0.0,"c":0.0,"nc":0,"k":"19026_0316"}},{"type":"Feature","geometry":{"type":"Point","coordinates":[-100.20579,25.69231]},"properties":{"s":3.3,"a":3.8,"t":0.0,"c":0.0,"nc":0,"k":"19026_0316"}},{"type":"Feature","geometry":{"type":"Point","coordinates":[-100.20679,25.69322]},"properties":{"s":3.2,"a":3.6,"t":0.0,"c":0.0,"nc":0,"k":"19026_0316"}},{"type":"Feature","geometry":{"type":"Point","coordinates":[-100.2038,25.69322]},"properties":{"s":3.1,"a":4.7,"t":0.0,"c":1.1,"nc":1,"k":"19026_0316"}},{"type":"Feature","geometry":{"type":"Point","coordinates":[-100.20978,25.69593]},"properties":{"s":3.0,"a":3.4,"t":0.0,"c":0.0,"nc":0,"k":"19026_0316"}},{"type":"Feature","geometry":{"type":"Point","coordinates":[-100.20479,25.69502]},"properties":{"s":2.9,"a":4.2,"t":0.0,"c":0.9,"nc":1,"k":"19026_0316"}},{"type":"Feature","geometry":{"type":"Point","coordinates":[-100.20778,25.69593]},"properties":{"s":2.8,"a":3.2,"t":0.0,"c":0.0,"nc":0,"k":"19026_0316"}},{"type":"Feature","geometry":{"type":"Point","coordinates":[-100.20878,25.69502]},"properties":{"s":2.6,"a":3.0,"t":0.0,"c":0.0,"nc":0,"k":"19026_0316"}},{"type":"Feature","geometry":{"type":"Point","coordinates":[-100.20579,25.69141]},"properties":{"s":2.6,"a":3.0,"t":0.0,"c":0.0,"nc":0,"k":"19026_0316"}},{"type":"Feature","geometry":{"type":"Point","coordinates":[-100.2028,25.69231]},"properties":{"s":2.6,"a":3.2,"t":0.0,"c":0.3,"nc":1,"k":"19026_0316"}},{"type":"Feature","geometry":{"type":"Point","coordinates":[-100.20778,25.69502]},"properties":{"s":2.5,"a":2.8,"t":0.0,"c":0.0,"nc":0,"k":"19026_0316"}},{"type":"Feature","geometry":{"type":"Point","coordinates":[-100.20778,25.69412]},"properties":{"s":2.1,"a":2.4,"t":0.0,"c":0.0,"nc":0,"k":"19026_0316"}},{"type":"Feature","geometry":{"type":"Point","coordinates":[-100.20679,25.69412]},"properties":{"s":2.1,"a":2.4,"t":0.0,"c":0.0,"nc":0,"k":"19026_0316"}},{"type":"Feature","geometry":{"type":"Point","coordinates":[-100.20479,25.6905]},"properties":{"s":2.1,"a":2.4,"t":0.0,"c":0.0,"nc":0,"k":"19026_0316"}},{"type":"Feature","geometry":{"type":"Point","coordinates":[-100.2038,25.6905]},"properties":{"s":2.1,"a":2.4,"t":0.0,"c":0.0,"nc":0,"k":"19026_0316"}},{"type":"Feature","geometry":{"type":"Point","coordinates":[-100.20679,25.69231]},"properties":{"s":1.8,"a":2.0,"t":0.0,"c":0.0,"nc":0,"k":"19026_0316"}},{"type":"Feature","geometry":{"type":"Point","coordinates":[-100.2028,25.69141]},"properties":{"s":1.8,"a":2.0,"t":0.0,"c":0.0,"nc":0,"k":"19026_0316"}},{"type":"Feature","geometry":{"type":"Point","coordinates":[-100.20978,25.69412]},"properties":{"s":1.6,"a":1.8,"t":0.0,"c":0.0,"nc":0,"k":"19026_0316"}},{"type":"Feature","geometry":{"type":"Point","coordinates":[-100.2028,25.69322]},"properties":{"s":1.6,"a":3.4,"t":0.0,"c":1.6,"nc":1,"k":"19026_0316"}},{"type":"Feature","geometry":{"type":"Point","coordinates":[-100.20878,25.69412]},"properties":{"s":1.4,"a":1.6,"t":0.0,"c":0.0,"nc":0,"k":"19026_0316"}},{"type":"Feature","geometry":{"type":"Point","coordinates":[-100.20778,25.69231]},"properties":{"s":1.4,"a":1.6,"t":0.0,"c":0.0,"nc":0,"k":"19026_0316"}},{"type":"Feature","geometry":{"type":"Point","coordinates":[-100.20778,25.69322]},"properties":{"s":1.4,"a":1.6,"t":0.0,"c":0.0,"nc":0,"k":"19026_0316"}},{"type":"Feature","geometry":{"type":"Point","coordinates":[-100.20679,25.69141]},"properties":{"s":1.4,"a":1.6,"t":0.0,"c":0.0,"nc":0,"k":"19026_0316"}},{"type":"Feature","geometry":{"type":"Point","coordinates":[-100.2038,25.6896]},"properties":{"s":1.4,"a":1.6,"t":0.0,"c":0.0,"nc":0,"k":"19026_0316"}},{"type":"Feature","geometry":{"type":"Point","coordinates":[-100.2038,25.69502]},"properties":{"s":1.4,"a":3.8,"t":0.0,"c":2.2,"nc":1,"k":"19026_0316"}},{"type":"Feature","geometry":{"type":"Point","coordinates":[-100.20579,25.6905]},"properties":{"s":1.1,"a":1.2,"t":0.0,"c":0.0,"nc":0,"k":"19026_0316"}},{"type":"Feature","geometry":{"type":"Point","coordinates":[-100.2028,25.6905]},"properties":{"s":1.1,"a":1.2,"t":0.0,"c":0.0,"nc":0,"k":"19026_0316"}},{"type":"Feature","geometry":{"type":"Point","coordinates":[-100.2038,25.69412]},"properties":{"s":0.9,"a":3.0,"t":0.0,"c":2.0,"nc":1,"k":"19026_0316"}},{"type":"Feature","geometry":{"type":"Point","coordinates":[-100.2028,25.69412]},"properties":{"s":0.8,"a":3.8,"t":0.0,"c":2.9,"nc":1,"k":"19026_0316"}},{"type":"Feature","geometry":{"type":"Point","coordinates":[-100.2018,25.69502]},"properties":{"s":0.8,"a":2.9,"t":1.0,"c":3.0,"nc":1,"k":"19026_0316"}},{"type":"Feature","geometry":{"type":"Point","coordinates":[-100.20878,25.69322]},"properties":{"s":0.7,"a":0.8,"t":0.0,"c":0.0,"nc":0,"k":"19026_0316"}},{"type":"Feature","geometry":{"type":"Point","coordinates":[-100.20479,25.6896]},"properties":{"s":0.7,"a":0.8,"t":0.0,"c":0.0,"nc":0,"k":"19026_0316"}},{"type":"Feature","geometry":{"type":"Point","coordinates":[-100.2028,25.6896]},"properties":{"s":0.7,"a":0.8,"t":0.0,"c":0.0,"nc":0,"k":"19026_0316"}},{"type":"Feature","geometry":{"type":"Point","coordinates":[-100.2018,25.69231]},"properties":{"s":0.5,"a":0.8,"t":0.0,"c":0.2,"nc":1,"k":"19026_0316"}},{"type":"Feature","geometry":{"type":"Point","coordinates":[-100.2038,25.68869]},"properties":{"s":0.4,"a":0.4,"t":0.0,"c":0.0,"nc":0,"k":"19026_0316"}},{"type":"Feature","geometry":{"type":"Point","coordinates":[-100.2018,25.6905]},"properties":{"s":0.4,"a":0.4,"t":0.0,"c":0.0,"nc":0,"k":"19026_0316"}},{"type":"Feature","geometry":{"type":"Point","coordinates":[-100.2018,25.69141]},"properties":{"s":0.4,"a":0.4,"t":0.0,"c":0.0,"nc":0,"k":"19026_0316"}},{"type":"Feature","geometry":{"type":"Point","coordinates":[-100.16591,25.70407]},"properties":{"s":6.2,"a":8.4,"t":0.0,"c":0.2,"nc":1,"k":"19026_0448"}},{"type":"Feature","geometry":{"type":"Point","coordinates":[-100.16691,25.70226]},"properties":{"s":5.8,"a":7.8,"t":0.0,"c":0.2,"nc":1,"k":"19026_0448"}},{"type":"Feature","geometry":{"type":"Point","coordinates":[-100.16591,25.70498]},"properties":{"s":5.8,"a":5.8,"t":3.0,"c":1.1,"nc":1,"k":"19026_0448"}},{"type":"Feature","geometry":{"type":"Point","coordinates":[-100.16691,25.70407]},"properties":{"s":5.3,"a":8.2,"t":0.0,"c":1.2,"nc":2,"k":"19026_0448"}},{"type":"Feature","geometry":{"type":"Point","coordinates":[-100.16691,25.70498]},"properties":{"s":5.3,"a":5.8,"t":4.0,"c":2.8,"nc":2,"k":"19026_0448"}},{"type":"Feature","geometry":{"type":"Point","coordinates":[-100.16691,25.70317]},"properties":{"s":4.8,"a":6.3,"t":0.0,"c":0.0,"nc":0,"k":"19026_0448"}},{"type":"Feature","geometry":{"type":"Point","coordinates":[-100.16492,25.70407]},"properties":{"s":4.8,"a":5.2,"t":1.0,"c":0.0,"nc":0,"k":"19026_0448"}},{"type":"Feature","geometry":{"type":"Point","coordinates":[-100.16591,25.70226]},"properties":{"s":4.4,"a":5.9,"t":0.0,"c":0.1,"nc":1,"k":"19026_0448"}},{"type":"Feature","geometry":{"type":"Point","coordinates":[-100.16492,25.70498]},"properties":{"s":4.4,"a":4.8,"t":1.0,"c":0.0,"nc":0,"k":"19026_0448"}},{"type":"Feature","geometry":{"type":"Point","coordinates":[-100.16492,25.69774]},"properties":{"s":4.2,"a":6.0,"t":0.0,"c":0.4,"nc":1,"k":"19026_0448"}},{"type":"Feature","geometry":{"type":"Point","coordinates":[-100.16791,25.70226]},"properties":{"s":3.9,"a":5.2,"t":0.0,"c":0.0,"nc":0,"k":"19026_0448"}},{"type":"Feature","geometry":{"type":"Point","coordinates":[-100.16492,25.69864]},"properties":{"s":3.8,"a":6.4,"t":0.0,"c":1.4,"nc":1,"k":"19026_0448"}},{"type":"Feature","geometry":{"type":"Point","coordinates":[-100.16492,25.70226]},"properties":{"s":3.8,"a":5.1,"t":0.0,"c":0.0,"nc":0,"k":"19026_0448"}},{"type":"Feature","geometry":{"type":"Point","coordinates":[-100.16591,25.69864]},"properties":{"s":3.7,"a":7.2,"t":0.0,"c":2.3,"nc":1,"k":"19026_0448"}},{"type":"Feature","geometry":{"type":"Point","coordinates":[-100.16591,25.70317]},"properties":{"s":3.7,"a":4.8,"t":0.0,"c":0.0,"nc":0,"k":"19026_0448"}},{"type":"Feature","geometry":{"type":"Point","coordinates":[-100.16791,25.70317]},"properties":{"s":3.5,"a":4.8,"t":0.0,"c":0.2,"nc":1,"k":"19026_0448"}},{"type":"Feature","geometry":{"type":"Point","coordinates":[-100.16492,25.69955]},"properties":{"s":3.5,"a":6.5,"t":0.0,"c":1.8,"nc":1,"k":"19026_0448"}},{"type":"Feature","geometry":{"type":"Point","coordinates":[-100.16591,25.69774]},"properties":{"s":3.4,"a":5.6,"t":0.0,"c":1.0,"nc":1,"k":"19026_0448"}},{"type":"Feature","geometry":{"type":"Point","coordinates":[-100.16492,25.70136]},"properties":{"s":3.2,"a":5.0,"t":0.0,"c":0.7,"nc":1,"k":"19026_0448"}},{"type":"Feature","geometry":{"type":"Point","coordinates":[-100.16591,25.70136]},"properties":{"s":2.9,"a":5.3,"t":0.0,"c":1.4,"nc":1,"k":"19026_0448"}},{"type":"Feature","geometry":{"type":"Point","coordinates":[-100.16392,25.70498]},"properties":{"s":2.9,"a":0.8,"t":3.0,"c":0.0,"nc":0,"k":"19026_0448"}},{"type":"Feature","geometry":{"type":"Point","coordinates":[-100.16591,25.69955]},"properties":{"s":2.7,"a":6.8,"t":0.0,"c":3.1,"nc":1,"k":"19026_0448"}},{"type":"Feature","geometry":{"type":"Point","coordinates":[-100.16492,25.70317]},"properties":{"s":2.7,"a":3.6,"t":0.0,"c":0.0,"nc":0,"k":"19026_0448"}},{"type":"Feature","geometry":{"type":"Point","coordinates":[-100.16292,25.70498]},"properties":{"s":2.6,"a":0.4,"t":3.0,"c":0.0,"nc":0,"k":"19026_0448"}},{"type":"Feature","geometry":{"type":"Point","coordinates":[-100.16691,25.70136]},"properties":{"s":2.3,"a":4.5,"t":0.0,"c":1.5,"nc":1,"k":"19026_0448"}},{"type":"Feature","geometry":{"type":"Point","coordinates":[-100.16392,25.70407]},"properties":{"s":2.3,"a":2.0,"t":1.0,"c":0.0,"nc":0,"k":"19026_0448"}},{"type":"Feature","geometry":{"type":"Point","coordinates":[-100.1689,25.70317]},"properties":{"s":2.2,"a":3.5,"t":0.0,"c":0.7,"nc":1,"k":"19026_0448"}},{"type":"Feature","geometry":{"type":"Point","coordinates":[-100.16591,25.70045]},"properties":{"s":2.1,"a":5.4,"t":0.0,"c":2.6,"nc":1,"k":"19026_0448"}},{"type":"Feature","geometry":{"type":"Point","coordinates":[-100.16492,25.70045]},"properties":{"s":1.9,"a":4.1,"t":0.0,"c":1.5,"nc":1,"k":"19026_0448"}},{"type":"Feature","geometry":{"type":"Point","coordinates":[-100.1689,25.70045]},"properties":{"s":1.7,"a":2.9,"t":0.0,"c":0.6,"nc":1,"k":"19026_0448"}},{"type":"Feature","geometry":{"type":"Point","coordinates":[-100.1689,25.70226]},"properties":{"s":1.5,"a":2.0,"t":0.0,"c":0.0,"nc":0,"k":"19026_0448"}},{"type":"Feature","geometry":{"type":"Point","coordinates":[-100.16492,25.69683]},"properties":{"s":1.5,"a":2.0,"t":0.0,"c":0.0,"nc":0,"k":"19026_0448"}},{"type":"Feature","geometry":{"type":"Point","coordinates":[-100.16791,25.70045]},"properties":{"s":1.1,"a":3.3,"t":0.0,"c":1.8,"nc":1,"k":"19026_0448"}},{"type":"Feature","geometry":{"type":"Point","coordinates":[-100.16791,25.70136]},"properties":{"s":1.1,"a":2.4,"t":0.0,"c":0.9,"nc":1,"k":"19026_0448"}},{"type":"Feature","geometry":{"type":"Point","coordinates":[-100.16791,25.70407]},"properties":{"s":1.1,"a":3.9,"t":0.0,"c":2.5,"nc":2,"k":"19026_0448"}},{"type":"Feature","geometry":{"type":"Point","coordinates":[-100.16691,25.69864]},"properties":{"s":1.1,"a":3.9,"t":0.0,"c":2.4,"nc":1,"k":"19026_0448"}},{"type":"Feature","geometry":{"type":"Point","coordinates":[-100.1689,25.70136]},"properties":{"s":0.9,"a":1.2,"t":0.0,"c":0.0,"nc":0,"k":"19026_0448"}},{"type":"Feature","geometry":{"type":"Point","coordinates":[-100.16392,25.70317]},"properties":{"s":0.9,"a":1.2,"t":0.0,"c":0.0,"nc":0,"k":"19026_0448"}},{"type":"Feature","geometry":{"type":"Point","coordinates":[-100.1689,25.69955]},"properties":{"s":0.7,"a":1.7,"t":0.0,"c":0.8,"nc":1,"k":"19026_0448"}},{"type":"Feature","geometry":{"type":"Point","coordinates":[-100.16691,25.69774]},"properties":{"s":0.7,"a":2.0,"t":0.0,"c":1.1,"nc":1,"k":"19026_0448"}},{"type":"Feature","geometry":{"type":"Point","coordinates":[-100.1699,25.70226]},"properties":{"s":0.6,"a":0.8,"t":0.0,"c":0.0,"nc":0,"k":"19026_0448"}},{"type":"Feature","geometry":{"type":"Point","coordinates":[-100.16791,25.69955]},"properties":{"s":0.6,"a":2.9,"t":0.0,"c":2.2,"nc":1,"k":"19026_0448"}},{"type":"Feature","geometry":{"type":"Point","coordinates":[-100.1699,25.70317]},"properties":{"s":0.4,"a":1.2,"t":0.0,"c":0.6,"nc":1,"k":"19026_0448"}},{"type":"Feature","geometry":{"type":"Point","coordinates":[-100.16791,25.69864]},"properties":{"s":0.4,"a":2.1,"t":0.0,"c":1.6,"nc":1,"k":"19026_0448"}},{"type":"Feature","geometry":{"type":"Point","coordinates":[-100.1699,25.69955]},"properties":{"s":0.3,"a":0.4,"t":0.0,"c":0.0,"nc":0,"k":"19026_0448"}},{"type":"Feature","geometry":{"type":"Point","coordinates":[-100.1689,25.69864]},"properties":{"s":0.3,"a":0.9,"t":0.0,"c":0.5,"nc":1,"k":"19026_0448"}},{"type":"Feature","geometry":{"type":"Point","coordinates":[-100.16292,25.70317]},"properties":{"s":0.3,"a":0.4,"t":0.0,"c":0.0,"nc":0,"k":"19026_0448"}},{"type":"Feature","geometry":{"type":"Point","coordinates":[-100.1709,25.70317]},"properties":{"s":0.2,"a":0.4,"t":0.0,"c":0.1,"nc":1,"k":"19026_0448"}},{"type":"Feature","geometry":{"type":"Point","coordinates":[-100.16691,25.69955]},"properties":{"s":0.2,"a":3.7,"t":0.0,"c":3.5,"nc":1,"k":"19026_0448"}},{"type":"Feature","geometry":{"type":"Point","coordinates":[-100.16691,25.70045]},"properties":{"s":0.0,"a":2.8,"t":0.0,"c":2.7,"nc":1,"k":"19026_0448"}},{"type":"Feature","geometry":{"type":"Point","coordinates":[-100.27159,25.65612]},"properties":{"s":4.9,"a":5.1,"t":0.0,"c":0.0,"nc":0,"k":"19026_0049"}},{"type":"Feature","geometry":{"type":"Point","coordinates":[-100.27159,25.65703]},"properties":{"s":3.9,"a":4.1,"t":0.0,"c":0.0,"nc":0,"k":"19026_0049"}},{"type":"Feature","geometry":{"type":"Point","coordinates":[-100.27159,25.65522]},"properties":{"s":3.3,"a":3.4,"t":0.0,"c":0.0,"nc":0,"k":"19026_0049"}},{"type":"Feature","geometry":{"type":"Point","coordinates":[-100.27059,25.65884]},"properties":{"s":3.2,"a":3.3,"t":0.0,"c":0.0,"nc":0,"k":"19026_0049"}},{"type":"Feature","geometry":{"type":"Point","coordinates":[-100.27159,25.65432]},"properties":{"s":2.9,"a":3.0,"t":0.0,"c":0.0,"nc":0,"k":"19026_0049"}},{"type":"Feature","geometry":{"type":"Point","coordinates":[-100.27159,25.65793]},"properties":{"s":2.9,"a":3.0,"t":0.0,"c":0.0,"nc":0,"k":"19026_0049"}},{"type":"Feature","geometry":{"type":"Point","coordinates":[-100.2686,25.65884]},"properties":{"s":2.6,"a":2.7,"t":0.0,"c":0.0,"nc":0,"k":"19026_0049"}},{"type":"Feature","geometry":{"type":"Point","coordinates":[-100.27258,25.65432]},"properties":{"s":2.5,"a":2.6,"t":0.0,"c":0.0,"nc":0,"k":"19026_0049"}},{"type":"Feature","geometry":{"type":"Point","coordinates":[-100.26959,25.65884]},"properties":{"s":2.2,"a":2.3,"t":0.0,"c":0.0,"nc":0,"k":"19026_0049"}},{"type":"Feature","geometry":{"type":"Point","coordinates":[-100.27258,25.65522]},"properties":{"s":2.1,"a":2.2,"t":0.0,"c":0.0,"nc":0,"k":"19026_0049"}},{"type":"Feature","geometry":{"type":"Point","coordinates":[-100.27258,25.65612]},"properties":{"s":1.7,"a":1.8,"t":0.0,"c":0.0,"nc":0,"k":"19026_0049"}},{"type":"Feature","geometry":{"type":"Point","coordinates":[-100.27258,25.65703]},"properties":{"s":1.5,"a":1.6,"t":0.0,"c":0.0,"nc":0,"k":"19026_0049"}},{"type":"Feature","geometry":{"type":"Point","coordinates":[-100.27059,25.65432]},"properties":{"s":7.5,"a":7.1,"t":0.0,"c":0.0,"nc":0,"k":"19026_0017"}},{"type":"Feature","geometry":{"type":"Point","coordinates":[-100.27059,25.65522]},"properties":{"s":7.5,"a":7.1,"t":0.0,"c":0.0,"nc":0,"k":"19026_0017"}},{"type":"Feature","geometry":{"type":"Point","coordinates":[-100.2686,25.65703]},"properties":{"s":7.4,"a":6.0,"t":1.0,"c":0.0,"nc":0,"k":"19026_0017"}},{"type":"Feature","geometry":{"type":"Point","coordinates":[-100.26959,25.65432]},"properties":{"s":6.2,"a":5.9,"t":0.0,"c":0.0,"nc":0,"k":"19026_0017"}},{"type":"Feature","geometry":{"type":"Point","coordinates":[-100.26959,25.65522]},"properties":{"s":6.2,"a":5.9,"t":0.0,"c":0.0,"nc":0,"k":"19026_0017"}},{"type":"Feature","geometry":{"type":"Point","coordinates":[-100.27059,25.65612]},"properties":{"s":5.8,"a":5.5,"t":0.0,"c":0.0,"nc":0,"k":"19026_0017"}},{"type":"Feature","geometry":{"type":"Point","coordinates":[-100.2686,25.65432]},"properties":{"s":5.4,"a":5.1,"t":0.0,"c":0.0,"nc":0,"k":"19026_0017"}},{"type":"Feature","geometry":{"type":"Point","coordinates":[-100.27059,25.65703]},"properties":{"s":5.1,"a":4.9,"t":0.0,"c":0.0,"nc":0,"k":"19026_0017"}},{"type":"Feature","geometry":{"type":"Point","coordinates":[-100.2686,25.65793]},"properties":{"s":4.9,"a":4.6,"t":0.0,"c":0.0,"nc":0,"k":"19026_0017"}},{"type":"Feature","geometry":{"type":"Point","coordinates":[-100.2676,25.65793]},"properties":{"s":4.9,"a":4.6,"t":0.0,"c":0.0,"nc":0,"k":"19026_0017"}},{"type":"Feature","geometry":{"type":"Point","coordinates":[-100.2676,25.65884]},"properties":{"s":4.9,"a":4.6,"t":0.0,"c":0.0,"nc":0,"k":"19026_0017"}},{"type":"Feature","geometry":{"type":"Point","coordinates":[-100.26959,25.65703]},"properties":{"s":4.5,"a":4.2,"t":0.0,"c":0.0,"nc":0,"k":"19026_0017"}},{"type":"Feature","geometry":{"type":"Point","coordinates":[-100.26959,25.65612]},"properties":{"s":4.1,"a":3.8,"t":0.0,"c":0.0,"nc":0,"k":"19026_0017"}},{"type":"Feature","geometry":{"type":"Point","coordinates":[-100.2676,25.65703]},"properties":{"s":3.9,"a":3.7,"t":0.0,"c":0.0,"nc":0,"k":"19026_0017"}},{"type":"Feature","geometry":{"type":"Point","coordinates":[-100.2686,25.65522]},"properties":{"s":3.8,"a":3.5,"t":0.0,"c":0.0,"nc":0,"k":"19026_0017"}},{"type":"Feature","geometry":{"type":"Point","coordinates":[-100.26959,25.65793]},"properties":{"s":3.3,"a":3.1,"t":0.0,"c":0.0,"nc":0,"k":"19026_0017"}},{"type":"Feature","geometry":{"type":"Point","coordinates":[-100.2686,25.65612]},"properties":{"s":3.0,"a":1.8,"t":1.0,"c":0.0,"nc":0,"k":"19026_0017"}},{"type":"Feature","geometry":{"type":"Point","coordinates":[-100.27059,25.65341]},"properties":{"s":2.4,"a":2.3,"t":0.0,"c":0.0,"nc":0,"k":"19026_0017"}},{"type":"Feature","geometry":{"type":"Point","coordinates":[-100.2666,25.65884]},"properties":{"s":2.0,"a":1.9,"t":0.0,"c":0.0,"nc":0,"k":"19026_0017"}},{"type":"Feature","geometry":{"type":"Point","coordinates":[-100.27059,25.65793]},"properties":{"s":1.7,"a":1.6,"t":0.0,"c":0.0,"nc":0,"k":"19026_0017"}},{"type":"Feature","geometry":{"type":"Point","coordinates":[-100.2676,25.65522]},"properties":{"s":1.5,"a":1.4,"t":0.0,"c":0.0,"nc":0,"k":"19026_0017"}},{"type":"Feature","geometry":{"type":"Point","coordinates":[-100.2676,25.65612]},"properties":{"s":1.5,"a":1.4,"t":0.0,"c":0.0,"nc":0,"k":"19026_0017"}},{"type":"Feature","geometry":{"type":"Point","coordinates":[-100.21377,25.64346]},"properties":{"s":3.6,"a":4.5,"t":0.0,"c":0.0,"nc":0,"k":"19026_0460"}},{"type":"Feature","geometry":{"type":"Point","coordinates":[-100.23271,25.66969]},"properties":{"s":2.8,"a":2.4,"t":1.0,"c":0.0,"nc":0,"k":"19026_0460"}},{"type":"Feature","geometry":{"type":"Point","coordinates":[-100.21377,25.64255]},"properties":{"s":2.6,"a":3.2,"t":0.0,"c":0.0,"nc":0,"k":"19026_0460"}},{"type":"Feature","geometry":{"type":"Point","coordinates":[-100.21576,25.64255]},"properties":{"s":2.3,"a":2.8,"t":0.0,"c":0.0,"nc":0,"k":"19026_0460"}},{"type":"Feature","geometry":{"type":"Point","coordinates":[-100.21476,25.64255]},"properties":{"s":2.3,"a":2.8,"t":0.0,"c":0.0,"nc":0,"k":"19026_0460"}},{"type":"Feature","geometry":{"type":"Point","coordinates":[-100.2337,25.66969]},"properties":{"s":2.2,"a":2.9,"t":0.0,"c":0.1,"nc":1,"k":"19026_0460"}},{"type":"Feature","geometry":{"type":"Point","coordinates":[-100.21576,25.64165]},"properties":{"s":1.6,"a":2.0,"t":0.0,"c":0.0,"nc":0,"k":"19026_0460"}},{"type":"Feature","geometry":{"type":"Point","coordinates":[-100.21277,25.64255]},"properties":{"s":1.6,"a":2.0,"t":0.0,"c":0.0,"nc":0,"k":"19026_0460"}},{"type":"Feature","geometry":{"type":"Point","coordinates":[-100.21377,25.64165]},"properties":{"s":1.3,"a":1.6,"t":0.0,"c":0.0,"nc":0,"k":"19026_0460"}},{"type":"Feature","geometry":{"type":"Point","coordinates":[-100.23271,25.6706]},"properties":{"s":1.1,"a":1.4,"t":0.0,"c":0.0,"nc":0,"k":"19026_0460"}},{"type":"Feature","geometry":{"type":"Point","coordinates":[-100.23271,25.67241]},"properties":{"s":1.1,"a":0.4,"t":1.0,"c":0.0,"nc":0,"k":"19026_0460"}},{"type":"Feature","geometry":{"type":"Point","coordinates":[-100.21476,25.64165]},"properties":{"s":1.0,"a":1.2,"t":0.0,"c":0.0,"nc":0,"k":"19026_0460"}},{"type":"Feature","geometry":{"type":"Point","coordinates":[-100.23271,25.6715]},"properties":{"s":0.7,"a":0.8,"t":0.0,"c":0.0,"nc":0,"k":"19026_0460"}},{"type":"Feature","geometry":{"type":"Point","coordinates":[-100.21576,25.64075]},"properties":{"s":0.7,"a":0.8,"t":0.0,"c":0.0,"nc":0,"k":"19026_0460"}},{"type":"Feature","geometry":{"type":"Point","coordinates":[-100.21676,25.64075]},"properties":{"s":0.3,"a":0.4,"t":0.0,"c":0.0,"nc":0,"k":"19026_0460"}},{"type":"Feature","geometry":{"type":"Point","coordinates":[-100.21476,25.64075]},"properties":{"s":0.3,"a":0.4,"t":0.0,"c":0.0,"nc":0,"k":"19026_0460"}},{"type":"Feature","geometry":{"type":"Point","coordinates":[-100.21277,25.63984]},"properties":{"s":0.3,"a":0.4,"t":0.0,"c":0.0,"nc":0,"k":"19026_0460"}},{"type":"Feature","geometry":{"type":"Point","coordinates":[-100.2028,25.64889]},"properties":{"s":3.5,"a":2.8,"t":1.0,"c":0.0,"nc":0,"k":"19026_0070"}},{"type":"Feature","geometry":{"type":"Point","coordinates":[-100.2018,25.6516]},"properties":{"s":3.2,"a":3.4,"t":0.0,"c":0.0,"nc":0,"k":"19026_0070"}},{"type":"Feature","geometry":{"type":"Point","coordinates":[-100.20081,25.6516]},"properties":{"s":3.0,"a":2.2,"t":1.0,"c":0.0,"nc":0,"k":"19026_0070"}},{"type":"Feature","geometry":{"type":"Point","coordinates":[-100.2028,25.64798]},"properties":{"s":2.6,"a":2.8,"t":0.0,"c":0.0,"nc":0,"k":"19026_0070"}},{"type":"Feature","geometry":{"type":"Point","coordinates":[-100.20579,25.64165]},"properties":{"s":2.4,"a":2.6,"t":0.0,"c":0.0,"nc":0,"k":"19026_0070"}},{"type":"Feature","geometry":{"type":"Point","coordinates":[-100.2018,25.64889]},"properties":{"s":2.4,"a":1.6,"t":1.0,"c":0.0,"nc":0,"k":"19026_0070"}},{"type":"Feature","geometry":{"type":"Point","coordinates":[-100.20479,25.64255]},"properties":{"s":2.1,"a":3.0,"t":0.0,"c":0.7,"nc":1,"k":"19026_0070"}},{"type":"Feature","geometry":{"type":"Point","coordinates":[-100.2018,25.64979]},"properties":{"s":2.0,"a":1.2,"t":1.0,"c":0.0,"nc":0,"k":"19026_0070"}},{"type":"Feature","geometry":{"type":"Point","coordinates":[-100.20679,25.64075]},"properties":{"s":1.9,"a":2.0,"t":0.0,"c":0.0,"nc":0,"k":"19026_0070"}},{"type":"Feature","geometry":{"type":"Point","coordinates":[-100.2018,25.6507]},"properties":{"s":1.9,"a":2.0,"t":0.0,"c":0.0,"nc":0,"k":"19026_0070"}},{"type":"Feature","geometry":{"type":"Point","coordinates":[-100.20778,25.63984]},"properties":{"s":1.5,"a":1.6,"t":0.0,"c":0.0,"nc":0,"k":"19026_0070"}},{"type":"Feature","geometry":{"type":"Point","coordinates":[-100.2018,25.64798]},"properties":{"s":1.5,"a":1.6,"t":0.0,"c":0.0,"nc":0,"k":"19026_0070"}},{"type":"Feature","geometry":{"type":"Point","coordinates":[-100.20081,25.6507]},"properties":{"s":1.5,"a":1.6,"t":0.0,"c":0.0,"nc":0,"k":"19026_0070"}},{"type":"Feature","geometry":{"type":"Point","coordinates":[-100.20679,25.63984]},"properties":{"s":1.1,"a":1.2,"t":0.0,"c":0.0,"nc":0,"k":"19026_0070"}},{"type":"Feature","geometry":{"type":"Point","coordinates":[-100.20579,25.64075]},"properties":{"s":1.1,"a":1.2,"t":0.0,"c":0.0,"nc":0,"k":"19026_0070"}},{"type":"Feature","geometry":{"type":"Point","coordinates":[-100.2028,25.64708]},"properties":{"s":1.1,"a":1.2,"t":0.0,"c":0.0,"nc":1,"k":"19026_0070"}},{"type":"Feature","geometry":{"type":"Point","coordinates":[-100.2038,25.64708]},"properties":{"s":1.0,"a":1.6,"t":0.0,"c":0.5,"nc":1,"k":"19026_0070"}},{"type":"Feature","geometry":{"type":"Point","coordinates":[-100.20479,25.64346]},"properties":{"s":0.9,"a":3.0,"t":0.0,"c":2.0,"nc":1,"k":"19026_0070"}},{"type":"Feature","geometry":{"type":"Point","coordinates":[-100.19283,25.69502]},"properties":{"s":5.4,"a":6.7,"t":0.0,"c":0.0,"nc":0,"k":"19026_0381"}},{"type":"Feature","geometry":{"type":"Point","coordinates":[-100.19084,25.69502]},"properties":{"s":5.3,"a":6.5,"t":0.0,"c":0.0,"nc":0,"k":"19026_0381"}},{"type":"Feature","geometry":{"type":"Point","coordinates":[-100.19183,25.69502]},"properties":{"s":5.1,"a":6.2,"t":0.0,"c":0.0,"nc":0,"k":"19026_0381"}},{"type":"Feature","geometry":{"type":"Point","coordinates":[-100.19084,25.69593]},"properties":{"s":4.7,"a":5.8,"t":0.0,"c":0.0,"nc":0,"k":"19026_0381"}},{"type":"Feature","geometry":{"type":"Point","coordinates":[-100.19283,25.69322]},"properties":{"s":4.2,"a":5.2,"t":0.0,"c":0.0,"nc":0,"k":"19026_0381"}},{"type":"Feature","geometry":{"type":"Point","coordinates":[-100.19283,25.69593]},"properties":{"s":4.1,"a":5.0,"t":0.0,"c":0.0,"nc":0,"k":"19026_0381"}},{"type":"Feature","geometry":{"type":"Point","coordinates":[-100.19183,25.69412]},"properties":{"s":4.1,"a":5.1,"t":0.0,"c":0.0,"nc":0,"k":"19026_0381"}},{"type":"Feature","geometry":{"type":"Point","coordinates":[-100.19383,25.69412]},"properties":{"s":3.8,"a":4.8,"t":0.0,"c":0.0,"nc":0,"k":"19026_0381"}},{"type":"Feature","geometry":{"type":"Point","coordinates":[-100.19283,25.69412]},"properties":{"s":3.8,"a":4.8,"t":0.0,"c":0.0,"nc":0,"k":"19026_0381"}},{"type":"Feature","geometry":{"type":"Point","coordinates":[-100.19183,25.69593]},"properties":{"s":3.7,"a":4.6,"t":0.0,"c":0.0,"nc":0,"k":"19026_0381"}},{"type":"Feature","geometry":{"type":"Point","coordinates":[-100.19183,25.69322]},"properties":{"s":3.6,"a":4.5,"t":0.0,"c":0.0,"nc":0,"k":"19026_0381"}},{"type":"Feature","geometry":{"type":"Point","coordinates":[-100.19383,25.69322]},"properties":{"s":2.5,"a":3.1,"t":0.0,"c":0.0,"nc":0,"k":"19026_0381"}},{"type":"Feature","geometry":{"type":"Point","coordinates":[-100.19383,25.69502]},"properties":{"s":2.5,"a":3.1,"t":0.0,"c":0.0,"nc":0,"k":"19026_0381"}},{"type":"Feature","geometry":{"type":"Point","coordinates":[-100.19084,25.69412]},"properties":{"s":2.3,"a":2.8,"t":0.0,"c":0.0,"nc":0,"k":"19026_0381"}},{"type":"Feature","geometry":{"type":"Point","coordinates":[-100.19084,25.69322]},"properties":{"s":2.0,"a":2.4,"t":0.0,"c":0.0,"nc":0,"k":"19026_0381"}},{"type":"Feature","geometry":{"type":"Point","coordinates":[-100.19482,25.69322]},"properties":{"s":1.5,"a":1.9,"t":0.0,"c":0.0,"nc":0,"k":"19026_0381"}},{"type":"Feature","geometry":{"type":"Point","coordinates":[-100.19482,25.69412]},"properties":{"s":1.5,"a":1.9,"t":0.0,"c":0.0,"nc":0,"k":"19026_0381"}},{"type":"Feature","geometry":{"type":"Point","coordinates":[-100.19383,25.69593]},"properties":{"s":1.3,"a":1.6,"t":0.0,"c":0.0,"nc":0,"k":"19026_0381"}},{"type":"Feature","geometry":{"type":"Point","coordinates":[-100.19283,25.69231]},"properties":{"s":1.0,"a":1.2,"t":0.0,"c":0.0,"nc":0,"k":"19026_0381"}},{"type":"Feature","geometry":{"type":"Point","coordinates":[-100.19383,25.69231]},"properties":{"s":0.6,"a":0.8,"t":0.0,"c":0.0,"nc":0,"k":"19026_0381"}},{"type":"Feature","geometry":{"type":"Point","coordinates":[-100.19383,25.69683]},"properties":{"s":0.6,"a":0.8,"t":0.0,"c":0.0,"nc":0,"k":"19026_0381"}},{"type":"Feature","geometry":{"type":"Point","coordinates":[-100.19183,25.69231]},"properties":{"s":0.6,"a":0.8,"t":0.0,"c":0.0,"nc":0,"k":"19026_0381"}},{"type":"Feature","geometry":{"type":"Point","coordinates":[-100.20081,25.69141]},"properties":{"s":0.3,"a":0.4,"t":0.0,"c":0.0,"nc":0,"k":"19026_0381"}},{"type":"Feature","geometry":{"type":"Point","coordinates":[-100.20081,25.69231]},"properties":{"s":0.3,"a":0.4,"t":0.0,"c":0.0,"nc":0,"k":"19026_0381"}},{"type":"Feature","geometry":{"type":"Point","coordinates":[-100.19482,25.69231]},"properties":{"s":0.3,"a":0.4,"t":0.0,"c":0.0,"nc":0,"k":"19026_0381"}},{"type":"Feature","geometry":{"type":"Point","coordinates":[-100.19283,25.69141]},"properties":{"s":0.3,"a":0.4,"t":0.0,"c":0.0,"nc":0,"k":"19026_0381"}},{"type":"Feature","geometry":{"type":"Point","coordinates":[-100.19183,25.69141]},"properties":{"s":0.3,"a":0.4,"t":0.0,"c":0.0,"nc":0,"k":"19026_0381"}},{"type":"Feature","geometry":{"type":"Point","coordinates":[-100.19084,25.69231]},"properties":{"s":0.3,"a":0.4,"t":0.0,"c":0.0,"nc":0,"k":"19026_0381"}},{"type":"Feature","geometry":{"type":"Point","coordinates":[-100.20579,25.65612]},"properties":{"s":6.1,"a":5.3,"t":0.0,"c":0.0,"nc":0,"k":"19026_0236"}},{"type":"Feature","geometry":{"type":"Point","coordinates":[-100.20479,25.65612]},"properties":{"s":5.9,"a":5.2,"t":0.0,"c":0.0,"nc":0,"k":"19026_0236"}},{"type":"Feature","geometry":{"type":"Point","coordinates":[-100.20479,25.65793]},"properties":{"s":5.5,"a":4.8,"t":0.0,"c":0.0,"nc":0,"k":"19026_0236"}},{"type":"Feature","geometry":{"type":"Point","coordinates":[-100.2038,25.65974]},"properties":{"s":4.2,"a":3.6,"t":0.0,"c":0.0,"nc":0,"k":"19026_0236"}},{"type":"Feature","geometry":{"type":"Point","coordinates":[-100.20778,25.65612]},"properties":{"s":3.9,"a":3.4,"t":0.0,"c":0.0,"nc":0,"k":"19026_0236"}},{"type":"Feature","geometry":{"type":"Point","coordinates":[-100.20679,25.65703]},"properties":{"s":3.8,"a":3.3,"t":0.0,"c":0.0,"nc":0,"k":"19026_0236"}},{"type":"Feature","geometry":{"type":"Point","coordinates":[-100.20579,25.65703]},"properties":{"s":3.8,"a":3.3,"t":0.0,"c":0.0,"nc":0,"k":"19026_0236"}},{"type":"Feature","geometry":{"type":"Point","coordinates":[-100.20479,25.65884]},"properties":{"s":3.7,"a":3.2,"t":0.0,"c":0.0,"nc":0,"k":"19026_0236"}},{"type":"Feature","geometry":{"type":"Point","coordinates":[-100.20479,25.65974]},"properties":{"s":3.7,"a":3.2,"t":0.0,"c":0.0,"nc":0,"k":"19026_0236"}},{"type":"Feature","geometry":{"type":"Point","coordinates":[-100.20479,25.65703]},"properties":{"s":3.6,"a":3.1,"t":0.0,"c":0.0,"nc":0,"k":"19026_0236"}},{"type":"Feature","geometry":{"type":"Point","coordinates":[-100.2038,25.66065]},"properties":{"s":3.3,"a":2.8,"t":0.0,"c":0.0,"nc":0,"k":"19026_0236"}},{"type":"Feature","geometry":{"type":"Point","coordinates":[-100.20679,25.65612]},"properties":{"s":3.2,"a":2.8,"t":0.0,"c":0.0,"nc":0,"k":"19026_0236"}},{"type":"Feature","geometry":{"type":"Point","coordinates":[-100.20778,25.65703]},"properties":{"s":2.8,"a":2.4,"t":0.0,"c":0.0,"nc":0,"k":"19026_0236"}},{"type":"Feature","geometry":{"type":"Point","coordinates":[-100.20579,25.65793]},"properties":{"s":2.6,"a":2.3,"t":0.0,"c":0.0,"nc":0,"k":"19026_0236"}},{"type":"Feature","geometry":{"type":"Point","coordinates":[-100.20679,25.64617]},"properties":{"s":4.5,"a":5.3,"t":0.0,"c":0.0,"nc":1,"k":"19026_0160"}},{"type":"Feature","geometry":{"type":"Point","coordinates":[-100.20679,25.64436]},"properties":{"s":3.7,"a":4.9,"t":0.0,"c":0.6,"nc":1,"k":"19026_0160"}},{"type":"Feature","geometry":{"type":"Point","coordinates":[-100.20479,25.64889]},"properties":{"s":3.4,"a":3.9,"t":0.0,"c":0.0,"nc":0,"k":"19026_0160"}},{"type":"Feature","geometry":{"type":"Point","coordinates":[-100.2038,25.6516]},"properties":{"s":3.4,"a":4.5,"t":0.0,"c":0.6,"nc":1,"k":"19026_0160"}},{"type":"Feature","geometry":{"type":"Point","coordinates":[-100.20479,25.64979]},"properties":{"s":3.1,"a":4.1,"t":0.0,"c":0.5,"nc":1,"k":"19026_0160"}},{"type":"Feature","geometry":{"type":"Point","coordinates":[-100.20679,25.64527]},"properties":{"s":2.7,"a":3.6,"t":0.0,"c":0.5,"nc":1,"k":"19026_0160"}},{"type":"Feature","geometry":{"type":"Point","coordinates":[-100.20479,25.65251]},"properties":{"s":2.7,"a":3.7,"t":1.0,"c":1.6,"nc":1,"k":"19026_0160"}},{"type":"Feature","geometry":{"type":"Point","coordinates":[-100.2038,25.65251]},"properties":{"s":2.7,"a":3.5,"t":0.0,"c":0.4,"nc":1,"k":"19026_0160"}},{"type":"Feature","geometry":{"type":"Point","coordinates":[-100.2038,25.6507]},"properties":{"s":2.4,"a":3.0,"t":0.0,"c":0.3,"nc":1,"k":"19026_0160"}},{"type":"Feature","geometry":{"type":"Point","coordinates":[-100.20579,25.64889]},"properties":{"s":2.3,"a":2.7,"t":0.0,"c":0.0,"nc":0,"k":"19026_0160"}},{"type":"Feature","geometry":{"type":"Point","coordinates":[-100.20579,25.64798]},"properties":{"s":2.2,"a":2.6,"t":0.0,"c":0.0,"nc":0,"k":"19026_0160"}},{"type":"Feature","geometry":{"type":"Point","coordinates":[-100.20579,25.64617]},"properties":{"s":2.0,"a":3.4,"t":0.0,"c":1.1,"nc":1,"k":"19026_0160"}},{"type":"Feature","geometry":{"type":"Point","coordinates":[-100.20579,25.64527]},"properties":{"s":1.9,"a":4.1,"t":0.0,"c":1.8,"nc":1,"k":"19026_0160"}},{"type":"Feature","geometry":{"type":"Point","coordinates":[-100.20579,25.64708]},"properties":{"s":1.9,"a":2.2,"t":0.0,"c":0.0,"nc":0,"k":"19026_0160"}},{"type":"Feature","geometry":{"type":"Point","coordinates":[-100.20479,25.64798]},"properties":{"s":1.7,"a":2.0,"t":0.0,"c":0.0,"nc":0,"k":"19026_0160"}},{"type":"Feature","geometry":{"type":"Point","coordinates":[-100.20479,25.64708]},"properties":{"s":1.5,"a":2.2,"t":0.0,"c":0.5,"nc":1,"k":"19026_0160"}},{"type":"Feature","geometry":{"type":"Point","coordinates":[-100.20479,25.6516]},"properties":{"s":1.3,"a":3.4,"t":0.0,"c":1.9,"nc":1,"k":"19026_0160"}},{"type":"Feature","geometry":{"type":"Point","coordinates":[-100.20579,25.64436]},"properties":{"s":1.2,"a":3.2,"t":0.0,"c":1.9,"nc":1,"k":"19026_0160"}},{"type":"Feature","geometry":{"type":"Point","coordinates":[-100.20479,25.6507]},"properties":{"s":0.3,"a":1.8,"t":0.0,"c":1.5,"nc":1,"k":"19026_0160"}},{"type":"Feature","geometry":{"type":"Point","coordinates":[-100.18685,25.63894]},"properties":{"s":5.1,"a":5.3,"t":1.0,"c":0.0,"nc":0,"k":"19026_0426"}},{"type":"Feature","geometry":{"type":"Point","coordinates":[-100.18785,25.64075]},"properties":{"s":4.9,"a":6.1,"t":0.0,"c":0.0,"nc":0,"k":"19026_0426"}},{"type":"Feature","geometry":{"type":"Point","coordinates":[-100.18685,25.63984]},"properties":{"s":4.8,"a":4.9,"t":1.0,"c":0.0,"nc":0,"k":"19026_0426"}},{"type":"Feature","geometry":{"type":"Point","coordinates":[-100.18785,25.63984]},"properties":{"s":4.5,"a":5.6,"t":0.0,"c":0.0,"nc":0,"k":"19026_0426"}},{"type":"Feature","geometry":{"type":"Point","coordinates":[-100.18984,25.63984]},"properties":{"s":3.8,"a":4.7,"t":0.0,"c":0.0,"nc":0,"k":"19026_0426"}},{"type":"Feature","geometry":{"type":"Point","coordinates":[-100.18685,25.64075]},"properties":{"s":3.7,"a":4.6,"t":0.0,"c":0.0,"nc":0,"k":"19026_0426"}},{"type":"Feature","geometry":{"type":"Point","coordinates":[-100.18785,25.63803]},"properties":{"s":3.4,"a":5.1,"t":0.0,"c":0.9,"nc":1,"k":"19026_0426"}},{"type":"Feature","geometry":{"type":"Point","coordinates":[-100.19183,25.63803]},"properties":{"s":3.3,"a":4.1,"t":0.0,"c":0.0,"nc":0,"k":"19026_0426"}},{"type":"Feature","geometry":{"type":"Point","coordinates":[-100.18884,25.63894]},"properties":{"s":3.2,"a":3.9,"t":0.0,"c":0.0,"nc":0,"k":"19026_0426"}},{"type":"Feature","geometry":{"type":"Point","coordinates":[-100.18685,25.64165]},"properties":{"s":3.2,"a":4.0,"t":0.0,"c":0.0,"nc":0,"k":"19026_0426"}},{"type":"Feature","geometry":{"type":"Point","coordinates":[-100.19183,25.63894]},"properties":{"s":3.0,"a":3.6,"t":0.0,"c":0.0,"nc":0,"k":"19026_0426"}},{"type":"Feature","geometry":{"type":"Point","coordinates":[-100.19084,25.63894]},"properties":{"s":3.0,"a":3.6,"t":0.0,"c":0.0,"nc":0,"k":"19026_0426"}},{"type":"Feature","geometry":{"type":"Point","coordinates":[-100.19084,25.63984]},"properties":{"s":3.0,"a":3.6,"t":0.0,"c":0.0,"nc":0,"k":"19026_0426"}},{"type":"Feature","geometry":{"type":"Point","coordinates":[-100.19383,25.63622]},"properties":{"s":2.8,"a":3.5,"t":0.0,"c":0.0,"nc":0,"k":"19026_0426"}},{"type":"Feature","geometry":{"type":"Point","coordinates":[-100.19283,25.63622]},"properties":{"s":2.7,"a":4.3,"t":0.0,"c":1.0,"nc":1,"k":"19026_0426"}},{"type":"Feature","geometry":{"type":"Point","coordinates":[-100.18785,25.63713]},"properties":{"s":2.7,"a":5.5,"t":0.0,"c":2.1,"nc":1,"k":"19026_0426"}},{"type":"Feature","geometry":{"type":"Point","coordinates":[-100.18984,25.63894]},"properties":{"s":2.6,"a":3.2,"t":0.0,"c":0.0,"nc":0,"k":"19026_0426"}},{"type":"Feature","geometry":{"type":"Point","coordinates":[-100.18984,25.64075]},"properties":{"s":2.5,"a":3.1,"t":0.0,"c":0.0,"nc":0,"k":"19026_0426"}},{"type":"Feature","geometry":{"type":"Point","coordinates":[-100.18884,25.63984]},"properties":{"s":2.5,"a":3.1,"t":0.0,"c":0.0,"nc":0,"k":"19026_0426"}},{"type":"Feature","geometry":{"type":"Point","coordinates":[-100.19383,25.63713]},"properties":{"s":2.2,"a":2.7,"t":0.0,"c":0.0,"nc":0,"k":"19026_0426"}},{"type":"Feature","geometry":{"type":"Point","coordinates":[-100.19183,25.63713]},"properties":{"s":2.0,"a":3.2,"t":0.0,"c":0.8,"nc":1,"k":"19026_0426"}},{"type":"Feature","geometry":{"type":"Point","coordinates":[-100.19084,25.63803]},"properties":{"s":2.0,"a":2.4,"t":0.0,"c":0.0,"nc":0,"k":"19026_0426"}},{"type":"Feature","geometry":{"type":"Point","coordinates":[-100.19084,25.64075]},"properties":{"s":1.9,"a":2.4,"t":0.0,"c":0.0,"nc":0,"k":"19026_0426"}},{"type":"Feature","geometry":{"type":"Point","coordinates":[-100.18984,25.63803]},"properties":{"s":1.9,"a":2.4,"t":0.0,"c":0.0,"nc":0,"k":"19026_0426"}},{"type":"Feature","geometry":{"type":"Point","coordinates":[-100.18984,25.63713]},"properties":{"s":1.7,"a":2.8,"t":0.0,"c":0.8,"nc":2,"k":"19026_0426"}},{"type":"Feature","geometry":{"type":"Point","coordinates":[-100.18984,25.64165]},"properties":{"s":1.6,"a":2.0,"t":0.0,"c":0.0,"nc":0,"k":"19026_0426"}},{"type":"Feature","geometry":{"type":"Point","coordinates":[-100.19283,25.63713]},"properties":{"s":1.5,"a":2.0,"t":0.0,"c":0.1,"nc":1,"k":"19026_0426"}},{"type":"Feature","geometry":{"type":"Point","coordinates":[-100.18884,25.64075]},"properties":{"s":1.5,"a":1.9,"t":0.0,"c":0.0,"nc":0,"k":"19026_0426"}},{"type":"Feature","geometry":{"type":"Point","coordinates":[-100.18884,25.63803]},"properties":{"s":1.4,"a":2.0,"t":0.0,"c":0.3,"nc":1,"k":"19026_0426"}},{"type":"Feature","geometry":{"type":"Point","coordinates":[-100.18785,25.63894]},"properties":{"s":1.4,"a":1.7,"t":0.0,"c":0.0,"nc":0,"k":"19026_0426"}},{"type":"Feature","geometry":{"type":"Point","coordinates":[-100.18785,25.64165]},"properties":{"s":1.4,"a":1.7,"t":0.0,"c":0.0,"nc":0,"k":"19026_0426"}},{"type":"Feature","geometry":{"type":"Point","coordinates":[-100.18884,25.64165]},"properties":{"s":1.0,"a":1.2,"t":0.0,"c":0.0,"nc":0,"k":"19026_0426"}},{"type":"Feature","geometry":{"type":"Point","coordinates":[-100.19084,25.63713]},"properties":{"s":0.8,"a":2.0,"t":0.0,"c":1.0,"nc":1,"k":"19026_0426"}},{"type":"Feature","geometry":{"type":"Point","coordinates":[-100.19183,25.63622]},"properties":{"s":0.7,"a":2.9,"t":0.0,"c":2.0,"nc":1,"k":"19026_0426"}},{"type":"Feature","geometry":{"type":"Point","coordinates":[-100.19283,25.63803]},"properties":{"s":0.6,"a":0.8,"t":0.0,"c":0.0,"nc":0,"k":"19026_0426"}},{"type":"Feature","geometry":{"type":"Point","coordinates":[-100.18884,25.63713]},"properties":{"s":0.3,"a":1.6,"t":0.0,"c":1.3,"nc":1,"k":"19026_0426"}},{"type":"Feature","geometry":{"type":"Point","coordinates":[-100.21476,25.65612]},"properties":{"s":5.9,"a":5.6,"t":1.0,"c":0.0,"nc":0,"k":"19026_0013"}},{"type":"Feature","geometry":{"type":"Point","coordinates":[-100.21277,25.65612]},"properties":{"s":5.9,"a":6.7,"t":0.0,"c":0.0,"nc":0,"k":"19026_0013"}},{"type":"Feature","geometry":{"type":"Point","coordinates":[-100.21277,25.65793]},"properties":{"s":4.8,"a":5.5,"t":0.0,"c":0.0,"nc":0,"k":"19026_0013"}},{"type":"Feature","geometry":{"type":"Point","coordinates":[-100.21377,25.65612]},"properties":{"s":4.6,"a":5.2,"t":0.0,"c":0.0,"nc":0,"k":"19026_0013"}},{"type":"Feature","geometry":{"type":"Point","coordinates":[-100.21576,25.65612]},"properties":{"s":4.5,"a":2.0,"t":3.0,"c":0.0,"nc":0,"k":"19026_0013"}},{"type":"Feature","geometry":{"type":"Point","coordinates":[-100.21177,25.65793]},"properties":{"s":4.3,"a":4.8,"t":0.0,"c":0.0,"nc":0,"k":"19026_0013"}},{"type":"Feature","geometry":{"type":"Point","coordinates":[-100.21177,25.65703]},"properties":{"s":4.1,"a":4.7,"t":0.0,"c":0.0,"nc":0,"k":"19026_0013"}},{"type":"Feature","geometry":{"type":"Point","coordinates":[-100.21277,25.65703]},"properties":{"s":3.8,"a":4.2,"t":0.0,"c":0.0,"nc":0,"k":"19026_0013"}},{"type":"Feature","geometry":{"type":"Point","coordinates":[-100.21077,25.65703]},"properties":{"s":3.8,"a":4.2,"t":0.0,"c":0.0,"nc":0,"k":"19026_0013"}},{"type":"Feature","geometry":{"type":"Point","coordinates":[-100.21377,25.65703]},"properties":{"s":3.6,"a":4.1,"t":0.0,"c":0.0,"nc":0,"k":"19026_0013"}},{"type":"Feature","geometry":{"type":"Point","coordinates":[-100.21277,25.65884]},"properties":{"s":3.6,"a":4.1,"t":0.0,"c":0.0,"nc":0,"k":"19026_0013"}},{"type":"Feature","geometry":{"type":"Point","coordinates":[-100.21077,25.65884]},"properties":{"s":3.4,"a":3.8,"t":0.0,"c":0.0,"nc":0,"k":"19026_0013"}},{"type":"Feature","geometry":{"type":"Point","coordinates":[-100.21277,25.65974]},"properties":{"s":3.2,"a":3.6,"t":0.0,"c":0.0,"nc":0,"k":"19026_0013"}},{"type":"Feature","geometry":{"type":"Point","coordinates":[-100.20978,25.65612]},"properties":{"s":3.2,"a":3.6,"t":0.0,"c":0.0,"nc":0,"k":"19026_0013"}},{"type":"Feature","geometry":{"type":"Point","coordinates":[-100.20978,25.65703]},"properties":{"s":3.2,"a":3.6,"t":0.0,"c":0.0,"nc":0,"k":"19026_0013"}},{"type":"Feature","geometry":{"type":"Point","coordinates":[-100.21177,25.65612]},"properties":{"s":3.0,"a":3.4,"t":0.0,"c":0.0,"nc":0,"k":"19026_0013"}},{"type":"Feature","geometry":{"type":"Point","coordinates":[-100.21377,25.65884]},"properties":{"s":2.9,"a":3.2,"t":0.0,"c":0.0,"nc":0,"k":"19026_0013"}},{"type":"Feature","geometry":{"type":"Point","coordinates":[-100.21377,25.65974]},"properties":{"s":2.9,"a":3.2,"t":0.0,"c":0.0,"nc":0,"k":"19026_0013"}},{"type":"Feature","geometry":{"type":"Point","coordinates":[-100.21177,25.65884]},"properties":{"s":2.7,"a":3.0,"t":0.0,"c":0.0,"nc":0,"k":"19026_0013"}},{"type":"Feature","geometry":{"type":"Point","coordinates":[-100.21077,25.65612]},"properties":{"s":2.7,"a":3.0,"t":0.0,"c":0.0,"nc":0,"k":"19026_0013"}},{"type":"Feature","geometry":{"type":"Point","coordinates":[-100.20878,25.65522]},"properties":{"s":2.6,"a":2.2,"t":1.0,"c":0.2,"nc":1,"k":"19026_0013"}},{"type":"Feature","geometry":{"type":"Point","coordinates":[-100.20878,25.65703]},"properties":{"s":2.5,"a":2.8,"t":0.0,"c":0.0,"nc":0,"k":"19026_0013"}},{"type":"Feature","geometry":{"type":"Point","coordinates":[-100.21377,25.65793]},"properties":{"s":2.3,"a":2.6,"t":0.0,"c":0.0,"nc":0,"k":"19026_0013"}},{"type":"Feature","geometry":{"type":"Point","coordinates":[-100.21177,25.65974]},"properties":{"s":2.3,"a":2.6,"t":0.0,"c":0.0,"nc":0,"k":"19026_0013"}},{"type":"Feature","geometry":{"type":"Point","coordinates":[-100.21177,25.65522]},"properties":{"s":2.2,"a":2.5,"t":0.0,"c":0.0,"nc":0,"k":"19026_0013"}},{"type":"Feature","geometry":{"type":"Point","coordinates":[-100.20878,25.65612]},"properties":{"s":2.1,"a":2.4,"t":0.0,"c":0.0,"nc":0,"k":"19026_0013"}},{"type":"Feature","geometry":{"type":"Point","coordinates":[-100.21476,25.65703]},"properties":{"s":2.0,"a":2.3,"t":0.0,"c":0.0,"nc":0,"k":"19026_0013"}},{"type":"Feature","geometry":{"type":"Point","coordinates":[-100.20978,25.65522]},"properties":{"s":1.9,"a":2.2,"t":0.0,"c":0.0,"nc":1,"k":"19026_0013"}},{"type":"Feature","geometry":{"type":"Point","coordinates":[-100.21077,25.65974]},"properties":{"s":1.2,"a":1.4,"t":0.0,"c":0.0,"nc":0,"k":"19026_0013"}},{"type":"Feature","geometry":{"type":"Point","coordinates":[-100.21476,25.65793]},"properties":{"s":1.1,"a":1.2,"t":0.0,"c":0.0,"nc":0,"k":"19026_0013"}},{"type":"Feature","geometry":{"type":"Point","coordinates":[-100.21077,25.65522]},"properties":{"s":1.1,"a":1.2,"t":0.0,"c":0.0,"nc":0,"k":"19026_0013"}},{"type":"Feature","geometry":{"type":"Point","coordinates":[-100.21476,25.65884]},"properties":{"s":0.7,"a":0.8,"t":0.0,"c":0.0,"nc":0,"k":"19026_0013"}},{"type":"Feature","geometry":{"type":"Point","coordinates":[-100.21476,25.65974]},"properties":{"s":0.4,"a":0.4,"t":0.0,"c":0.0,"nc":0,"k":"19026_0013"}},{"type":"Feature","geometry":{"type":"Point","coordinates":[-100.20679,25.66517]},"properties":{"s":9.9,"a":4.9,"t":4.0,"c":0.0,"nc":0,"k":"19026_0291"}},{"type":"Feature","geometry":{"type":"Point","coordinates":[-100.20679,25.66427]},"properties":{"s":8.5,"a":3.6,"t":4.0,"c":0.0,"nc":0,"k":"19026_0291"}},{"type":"Feature","geometry":{"type":"Point","coordinates":[-100.20778,25.66517]},"properties":{"s":7.9,"a":6.1,"t":1.0,"c":0.0,"nc":0,"k":"19026_0291"}},{"type":"Feature","geometry":{"type":"Point","coordinates":[-100.20878,25.65974]},"properties":{"s":6.7,"a":5.9,"t":0.0,"c":0.0,"nc":0,"k":"19026_0291"}},{"type":"Feature","geometry":{"type":"Point","coordinates":[-100.20878,25.66065]},"properties":{"s":6.2,"a":5.5,"t":0.0,"c":0.0,"nc":0,"k":"19026_0291"}},{"type":"Feature","geometry":{"type":"Point","coordinates":[-100.20778,25.66427]},"properties":{"s":6.1,"a":4.5,"t":1.0,"c":0.0,"nc":0,"k":"19026_0291"}},{"type":"Feature","geometry":{"type":"Point","coordinates":[-100.20778,25.66065]},"properties":{"s":5.7,"a":5.1,"t":0.0,"c":0.0,"nc":0,"k":"19026_0291"}},{"type":"Feature","geometry":{"type":"Point","coordinates":[-100.20778,25.66155]},"properties":{"s":5.4,"a":4.8,"t":0.0,"c":0.0,"nc":0,"k":"19026_0291"}},{"type":"Feature","geometry":{"type":"Point","coordinates":[-100.20878,25.66155]},"properties":{"s":5.3,"a":4.7,"t":0.0,"c":0.0,"nc":0,"k":"19026_0291"}},{"type":"Feature","geometry":{"type":"Point","coordinates":[-100.20778,25.66608]},"properties":{"s":5.2,"a":3.6,"t":1.0,"c":0.0,"nc":0,"k":"19026_0291"}},{"type":"Feature","geometry":{"type":"Point","coordinates":[-100.20878,25.65884]},"properties":{"s":5.0,"a":4.4,"t":0.0,"c":0.0,"nc":0,"k":"19026_0291"}},{"type":"Feature","geometry":{"type":"Point","coordinates":[-100.20778,25.66246]},"properties":{"s":5.0,"a":4.5,"t":0.0,"c":0.0,"nc":0,"k":"19026_0291"}},{"type":"Feature","geometry":{"type":"Point","coordinates":[-100.20778,25.66336]},"properties":{"s":5.0,"a":4.5,"t":0.0,"c":0.0,"nc":0,"k":"19026_0291"}},{"type":"Feature","geometry":{"type":"Point","coordinates":[-100.20778,25.65974]},"properties":{"s":4.8,"a":4.3,"t":0.0,"c":0.0,"nc":0,"k":"19026_0291"}},{"type":"Feature","geometry":{"type":"Point","coordinates":[-100.20679,25.66155]},"properties":{"s":4.5,"a":4.1,"t":0.0,"c":0.0,"nc":0,"k":"19026_0291"}},{"type":"Feature","geometry":{"type":"Point","coordinates":[-100.20679,25.66608]},"properties":{"s":4.5,"a":4.1,"t":0.0,"c":0.0,"nc":0,"k":"19026_0291"}},{"type":"Feature","geometry":{"type":"Point","coordinates":[-100.20878,25.65793]},"properties":{"s":3.9,"a":3.4,"t":0.0,"c":0.0,"nc":0,"k":"19026_0291"}},{"type":"Feature","geometry":{"type":"Point","coordinates":[-100.20579,25.66155]},"properties":{"s":2.2,"a":2.0,"t":0.0,"c":0.0,"nc":0,"k":"19026_0291"}},{"type":"Feature","geometry":{"type":"Point","coordinates":[-100.20479,25.66155]},"properties":{"s":1.8,"a":1.6,"t":0.0,"c":0.0,"nc":0,"k":"19026_0291"}},{"type":"Feature","geometry":{"type":"Point","coordinates":[-100.20479,25.66065]},"properties":{"s":1.3,"a":1.2,"t":0.0,"c":0.0,"nc":0,"k":"19026_0291"}},{"type":"Feature","geometry":{"type":"Point","coordinates":[-100.20679,25.66065]},"properties":{"s":0.9,"a":0.8,"t":0.0,"c":0.0,"nc":0,"k":"19026_0291"}},{"type":"Feature","geometry":{"type":"Point","coordinates":[-100.20579,25.66065]},"properties":{"s":0.9,"a":0.8,"t":0.0,"c":0.0,"nc":0,"k":"19026_0291"}},{"type":"Feature","geometry":{"type":"Point","coordinates":[-100.137,25.66698]},"properties":{"s":5.0,"a":4.7,"t":1.0,"c":0.0,"nc":0,"k":"19026_0021"}},{"type":"Feature","geometry":{"type":"Point","coordinates":[-100.137,25.66608]},"properties":{"s":4.3,"a":3.9,"t":1.0,"c":0.0,"nc":0,"k":"19026_0021"}},{"type":"Feature","geometry":{"type":"Point","coordinates":[-100.14099,25.66698]},"properties":{"s":4.0,"a":2.4,"t":2.0,"c":0.0,"nc":0,"k":"19026_0021"}},{"type":"Feature","geometry":{"type":"Point","coordinates":[-100.136,25.66698]},"properties":{"s":3.8,"a":3.2,"t":1.0,"c":0.0,"nc":0,"k":"19026_0021"}},{"type":"Feature","geometry":{"type":"Point","coordinates":[-100.13999,25.66698]},"properties":{"s":3.6,"a":2.0,"t":2.0,"c":0.0,"nc":0,"k":"19026_0021"}},{"type":"Feature","geometry":{"type":"Point","coordinates":[-100.136,25.66788]},"properties":{"s":3.6,"a":4.1,"t":0.0,"c":0.0,"nc":0,"k":"19026_0021"}},{"type":"Feature","geometry":{"type":"Point","coordinates":[-100.139,25.66788]},"properties":{"s":3.4,"a":2.8,"t":1.0,"c":0.0,"nc":0,"k":"19026_0021"}},{"type":"Feature","geometry":{"type":"Point","coordinates":[-100.138,25.66879]},"properties":{"s":3.4,"a":3.8,"t":0.0,"c":0.0,"nc":0,"k":"19026_0021"}},{"type":"Feature","geometry":{"type":"Point","coordinates":[-100.13999,25.66879]},"properties":{"s":3.2,"a":3.5,"t":0.0,"c":0.0,"nc":0,"k":"19026_0021"}},{"type":"Feature","geometry":{"type":"Point","coordinates":[-100.138,25.66788]},"properties":{"s":3.2,"a":2.6,"t":1.0,"c":0.0,"nc":0,"k":"19026_0021"}},{"type":"Feature","geometry":{"type":"Point","coordinates":[-100.139,25.66698]},"properties":{"s":3.1,"a":3.4,"t":0.0,"c":0.0,"nc":0,"k":"19026_0021"}},{"type":"Feature","geometry":{"type":"Point","coordinates":[-100.138,25.66969]},"properties":{"s":3.0,"a":3.4,"t":0.0,"c":0.0,"nc":0,"k":"19026_0021"}},{"type":"Feature","geometry":{"type":"Point","coordinates":[-100.138,25.66698]},"properties":{"s":2.5,"a":1.8,"t":1.0,"c":0.0,"nc":0,"k":"19026_0021"}},{"type":"Feature","geometry":{"type":"Point","coordinates":[-100.137,25.66879]},"properties":{"s":2.4,"a":2.7,"t":0.0,"c":0.0,"nc":0,"k":"19026_0021"}},{"type":"Feature","geometry":{"type":"Point","coordinates":[-100.14099,25.66788]},"properties":{"s":2.2,"a":2.4,"t":0.0,"c":0.0,"nc":0,"k":"19026_0021"}},{"type":"Feature","geometry":{"type":"Point","coordinates":[-100.13999,25.66969]},"properties":{"s":2.1,"a":2.3,"t":0.0,"c":0.0,"nc":0,"k":"19026_0021"}},{"type":"Feature","geometry":{"type":"Point","coordinates":[-100.139,25.66879]},"properties":{"s":2.1,"a":2.3,"t":0.0,"c":0.0,"nc":0,"k":"19026_0021"}},{"type":"Feature","geometry":{"type":"Point","coordinates":[-100.139,25.6706]},"properties":{"s":2.1,"a":2.3,"t":0.0,"c":0.0,"nc":0,"k":"19026_0021"}},{"type":"Feature","geometry":{"type":"Point","coordinates":[-100.13501,25.66788]},"properties":{"s":2.1,"a":2.8,"t":0.0,"c":0.5,"nc":1,"k":"19026_0021"}},{"type":"Feature","geometry":{"type":"Point","coordinates":[-100.14199,25.66879]},"properties":{"s":1.8,"a":2.0,"t":0.0,"c":0.0,"nc":0,"k":"19026_0021"}},{"type":"Feature","geometry":{"type":"Point","coordinates":[-100.14199,25.66969]},"properties":{"s":1.8,"a":2.0,"t":0.0,"c":0.0,"nc":0,"k":"19026_0021"}},{"type":"Feature","geometry":{"type":"Point","coordinates":[-100.13999,25.66788]},"properties":{"s":1.8,"a":2.0,"t":0.0,"c":0.0,"nc":0,"k":"19026_0021"}},{"type":"Feature","geometry":{"type":"Point","coordinates":[-100.139,25.66969]},"properties":{"s":1.7,"a":1.9,"t":0.0,"c":0.0,"nc":0,"k":"19026_0021"}},{"type":"Feature","geometry":{"type":"Point","coordinates":[-100.137,25.66969]},"properties":{"s":1.7,"a":1.9,"t":0.0,"c":0.0,"nc":0,"k":"19026_0021"}},{"type":"Feature","geometry":{"type":"Point","coordinates":[-100.14199,25.66788]},"properties":{"s":1.4,"a":1.6,"t":0.0,"c":0.0,"nc":0,"k":"19026_0021"}},{"type":"Feature","geometry":{"type":"Point","coordinates":[-100.14099,25.66969]},"properties":{"s":1.4,"a":1.6,"t":0.0,"c":0.0,"nc":0,"k":"19026_0021"}},{"type":"Feature","geometry":{"type":"Point","coordinates":[-100.137,25.66788]},"properties":{"s":1.4,"a":1.6,"t":0.0,"c":0.0,"nc":0,"k":"19026_0021"}},{"type":"Feature","geometry":{"type":"Point","coordinates":[-100.13501,25.66879]},"properties":{"s":1.4,"a":1.6,"t":0.0,"c":0.0,"nc":0,"k":"19026_0021"}},{"type":"Feature","geometry":{"type":"Point","coordinates":[-100.13401,25.66969]},"properties":{"s":1.4,"a":1.6,"t":0.0,"c":0.0,"nc":0,"k":"19026_0021"}},{"type":"Feature","geometry":{"type":"Point","coordinates":[-100.138,25.6706]},"properties":{"s":1.1,"a":1.2,"t":0.0,"c":0.0,"nc":0,"k":"19026_0021"}},{"type":"Feature","geometry":{"type":"Point","coordinates":[-100.138,25.6715]},"properties":{"s":1.1,"a":1.2,"t":0.0,"c":0.0,"nc":0,"k":"19026_0021"}},{"type":"Feature","geometry":{"type":"Point","coordinates":[-100.136,25.66879]},"properties":{"s":1.1,"a":1.2,"t":0.0,"c":0.0,"nc":0,"k":"19026_0021"}},{"type":"Feature","geometry":{"type":"Point","coordinates":[-100.136,25.66969]},"properties":{"s":1.1,"a":1.2,"t":0.0,"c":0.0,"nc":0,"k":"19026_0021"}},{"type":"Feature","geometry":{"type":"Point","coordinates":[-100.13501,25.66969]},"properties":{"s":1.1,"a":1.2,"t":0.0,"c":0.0,"nc":0,"k":"19026_0021"}},{"type":"Feature","geometry":{"type":"Point","coordinates":[-100.14099,25.66879]},"properties":{"s":0.7,"a":0.8,"t":0.0,"c":0.0,"nc":0,"k":"19026_0021"}},{"type":"Feature","geometry":{"type":"Point","coordinates":[-100.137,25.6706]},"properties":{"s":0.7,"a":0.8,"t":0.0,"c":0.0,"nc":0,"k":"19026_0021"}},{"type":"Feature","geometry":{"type":"Point","coordinates":[-100.13401,25.6706]},"properties":{"s":0.7,"a":0.8,"t":0.0,"c":0.0,"nc":0,"k":"19026_0021"}},{"type":"Feature","geometry":{"type":"Point","coordinates":[-100.13301,25.6706]},"properties":{"s":0.7,"a":0.8,"t":0.0,"c":0.0,"nc":0,"k":"19026_0021"}},{"type":"Feature","geometry":{"type":"Point","coordinates":[-100.13102,25.6706]},"properties":{"s":0.4,"a":0.4,"t":0.0,"c":0.0,"nc":0,"k":"19026_0021"}},{"type":"Feature","geometry":{"type":"Point","coordinates":[-100.13002,25.6706]},"properties":{"s":0.4,"a":0.4,"t":0.0,"c":0.0,"nc":0,"k":"19026_0021"}},{"type":"Feature","geometry":{"type":"Point","coordinates":[-100.16691,25.65341]},"properties":{"s":7.5,"a":9.0,"t":0.0,"c":0.0,"nc":0,"k":"19026_0457"}},{"type":"Feature","geometry":{"type":"Point","coordinates":[-100.16691,25.65251]},"properties":{"s":6.9,"a":8.2,"t":0.0,"c":0.0,"nc":0,"k":"19026_0457"}},{"type":"Feature","geometry":{"type":"Point","coordinates":[-100.16691,25.65432]},"properties":{"s":6.7,"a":8.4,"t":0.0,"c":0.3,"nc":1,"k":"19026_0457"}},{"type":"Feature","geometry":{"type":"Point","coordinates":[-100.16591,25.65703]},"properties":{"s":6.7,"a":8.6,"t":0.0,"c":0.7,"nc":1,"k":"19026_0457"}},{"type":"Feature","geometry":{"type":"Point","coordinates":[-100.16691,25.65612]},"properties":{"s":6.5,"a":9.3,"t":0.0,"c":1.5,"nc":1,"k":"19026_0457"}},{"type":"Feature","geometry":{"type":"Point","coordinates":[-100.16591,25.65341]},"properties":{"s":5.9,"a":7.0,"t":0.0,"c":0.0,"nc":0,"k":"19026_0457"}},{"type":"Feature","geometry":{"type":"Point","coordinates":[-100.16691,25.6516]},"properties":{"s":5.8,"a":7.0,"t":0.0,"c":0.0,"nc":0,"k":"19026_0457"}},{"type":"Feature","geometry":{"type":"Point","coordinates":[-100.16691,25.65522]},"properties":{"s":5.6,"a":7.8,"t":0.0,"c":1.1,"nc":1,"k":"19026_0457"}},{"type":"Feature","geometry":{"type":"Point","coordinates":[-100.16691,25.64979]},"properties":{"s":5.3,"a":2.3,"t":4.0,"c":0.0,"nc":0,"k":"19026_0457"}},{"type":"Feature","geometry":{"type":"Point","coordinates":[-100.16791,25.65341]},"properties":{"s":5.1,"a":6.1,"t":0.0,"c":0.0,"nc":0,"k":"19026_0457"}},{"type":"Feature","geometry":{"type":"Point","coordinates":[-100.16691,25.6507]},"properties":{"s":4.8,"a":4.8,"t":1.0,"c":0.0,"nc":0,"k":"19026_0457"}},{"type":"Feature","geometry":{"type":"Point","coordinates":[-100.16591,25.65432]},"properties":{"s":4.6,"a":5.5,"t":0.0,"c":0.0,"nc":0,"k":"19026_0457"}},{"type":"Feature","geometry":{"type":"Point","coordinates":[-100.16691,25.65703]},"properties":{"s":4.5,"a":6.8,"t":0.0,"c":1.5,"nc":2,"k":"19026_0457"}},{"type":"Feature","geometry":{"type":"Point","coordinates":[-100.16591,25.65612]},"properties":{"s":4.4,"a":5.4,"t":0.0,"c":0.2,"nc":1,"k":"19026_0457"}},{"type":"Feature","geometry":{"type":"Point","coordinates":[-100.16791,25.65612]},"properties":{"s":3.8,"a":7.4,"t":0.0,"c":2.8,"nc":1,"k":"19026_0457"}},{"type":"Feature","geometry":{"type":"Point","coordinates":[-100.16791,25.65703]},"properties":{"s":3.8,"a":6.8,"t":0.0,"c":2.3,"nc":1,"k":"19026_0457"}},{"type":"Feature","geometry":{"type":"Point","coordinates":[-100.16591,25.65522]},"properties":{"s":3.8,"a":4.5,"t":0.0,"c":0.0,"nc":0,"k":"19026_0457"}},{"type":"Feature","geometry":{"type":"Point","coordinates":[-100.16791,25.65432]},"properties":{"s":3.7,"a":5.5,"t":0.0,"c":1.0,"nc":1,"k":"19026_0457"}},{"type":"Feature","geometry":{"type":"Point","coordinates":[-100.16791,25.6507]},"properties":{"s":3.4,"a":4.0,"t":0.0,"c":0.0,"nc":0,"k":"19026_0457"}},{"type":"Feature","geometry":{"type":"Point","coordinates":[-100.16791,25.65522]},"properties":{"s":3.4,"a":6.3,"t":0.0,"c":2.2,"nc":1,"k":"19026_0457"}},{"type":"Feature","geometry":{"type":"Point","coordinates":[-100.1689,25.6507]},"properties":{"s":3.0,"a":3.6,"t":0.0,"c":0.0,"nc":0,"k":"19026_0457"}},{"type":"Feature","geometry":{"type":"Point","coordinates":[-100.16791,25.6516]},"properties":{"s":3.0,"a":3.6,"t":0.0,"c":0.0,"nc":0,"k":"19026_0457"}},{"type":"Feature","geometry":{"type":"Point","coordinates":[-100.16691,25.65793]},"properties":{"s":2.9,"a":5.2,"t":0.0,"c":1.8,"nc":2,"k":"19026_0457"}},{"type":"Feature","geometry":{"type":"Point","coordinates":[-100.16791,25.65251]},"properties":{"s":2.7,"a":3.2,"t":0.0,"c":0.0,"nc":0,"k":"19026_0457"}},{"type":"Feature","geometry":{"type":"Point","coordinates":[-100.1689,25.6516]},"properties":{"s":2.0,"a":2.4,"t":0.0,"c":0.0,"nc":0,"k":"19026_0457"}},{"type":"Feature","geometry":{"type":"Point","coordinates":[-100.1689,25.65251]},"properties":{"s":2.0,"a":2.4,"t":0.0,"c":0.0,"nc":0,"k":"19026_0457"}},{"type":"Feature","geometry":{"type":"Point","coordinates":[-100.16591,25.65884]},"properties":{"s":1.7,"a":3.2,"t":2.0,"c":3.2,"nc":1,"k":"19026_0457"}},{"type":"Feature","geometry":{"type":"Point","coordinates":[-100.16691,25.65974]},"properties":{"s":1.5,"a":2.8,"t":1.0,"c":2.1,"nc":1,"k":"19026_0457"}},{"type":"Feature","geometry":{"type":"Point","coordinates":[-100.16691,25.65884]},"properties":{"s":1.3,"a":3.6,"t":0.0,"c":2.1,"nc":1,"k":"19026_0457"}},{"type":"Feature","geometry":{"type":"Point","coordinates":[-100.16591,25.65793]},"properties":{"s":1.2,"a":3.4,"t":0.0,"c":2.0,"nc":1,"k":"19026_0457"}},{"type":"Feature","geometry":{"type":"Point","coordinates":[-100.16791,25.65793]},"properties":{"s":1.1,"a":2.8,"t":0.0,"c":1.5,"nc":2,"k":"19026_0457"}},{"type":"Feature","geometry":{"type":"Point","coordinates":[-100.16791,25.65884]},"properties":{"s":0.3,"a":1.2,"t":0.0,"c":0.8,"nc":1,"k":"19026_0457"}},{"type":"Feature","geometry":{"type":"Point","coordinates":[-100.16791,25.65974]},"properties":{"s":0.2,"a":1.6,"t":0.0,"c":1.4,"nc":2,"k":"19026_0457"}},{"type":"Feature","geometry":{"type":"Point","coordinates":[-100.16791,25.66065]},"properties":{"s":0.1,"a":1.6,"t":0.0,"c":1.4,"nc":2,"k":"19026_0457"}},{"type":"Feature","geometry":{"type":"Point","coordinates":[-100.22972,25.6896]},"properties":{"s":4.7,"a":3.7,"t":1.0,"c":0.0,"nc":0,"k":"19026_0461"}},{"type":"Feature","geometry":{"type":"Point","coordinates":[-100.22673,25.6896]},"properties":{"s":4.3,"a":4.2,"t":0.0,"c":0.0,"nc":0,"k":"19026_0461"}},{"type":"Feature","geometry":{"type":"Point","coordinates":[-100.22772,25.68869]},"properties":{"s":4.1,"a":4.0,"t":0.0,"c":0.0,"nc":0,"k":"19026_0461"}},{"type":"Feature","geometry":{"type":"Point","coordinates":[-100.22673,25.68869]},"properties":{"s":3.9,"a":3.8,"t":0.0,"c":0.0,"nc":0,"k":"19026_0461"}},{"type":"Feature","geometry":{"type":"Point","coordinates":[-100.22573,25.6896]},"properties":{"s":3.9,"a":3.8,"t":0.0,"c":0.0,"nc":0,"k":"19026_0461"}},{"type":"Feature","geometry":{"type":"Point","coordinates":[-100.22673,25.6905]},"properties":{"s":3.5,"a":3.4,"t":0.0,"c":0.0,"nc":0,"k":"19026_0461"}},{"type":"Feature","geometry":{"type":"Point","coordinates":[-100.22673,25.69141]},"properties":{"s":3.5,"a":3.4,"t":0.0,"c":0.0,"nc":0,"k":"19026_0461"}},{"type":"Feature","geometry":{"type":"Point","coordinates":[-100.22573,25.69141]},"properties":{"s":3.5,"a":3.4,"t":0.0,"c":0.0,"nc":0,"k":"19026_0461"}},{"type":"Feature","geometry":{"type":"Point","coordinates":[-100.22573,25.6905]},"properties":{"s":3.0,"a":3.0,"t":0.0,"c":0.0,"nc":0,"k":"19026_0461"}},{"type":"Feature","geometry":{"type":"Point","coordinates":[-100.22573,25.68869]},"properties":{"s":2.9,"a":2.8,"t":0.0,"c":0.0,"nc":0,"k":"19026_0461"}},{"type":"Feature","geometry":{"type":"Point","coordinates":[-100.22473,25.68869]},"properties":{"s":2.9,"a":2.8,"t":0.0,"c":0.0,"nc":0,"k":"19026_0461"}},{"type":"Feature","geometry":{"type":"Point","coordinates":[-100.22373,25.68869]},"properties":{"s":2.9,"a":2.8,"t":0.0,"c":0.0,"nc":0,"k":"19026_0461"}},{"type":"Feature","geometry":{"type":"Point","coordinates":[-100.22473,25.69231]},"properties":{"s":2.7,"a":2.6,"t":0.0,"c":0.0,"nc":0,"k":"19026_0461"}},{"type":"Feature","geometry":{"type":"Point","coordinates":[-100.22872,25.6896]},"properties":{"s":2.6,"a":2.5,"t":0.0,"c":0.0,"nc":0,"k":"19026_0461"}},{"type":"Feature","geometry":{"type":"Point","coordinates":[-100.22872,25.6905]},"properties":{"s":2.5,"a":2.4,"t":0.0,"c":0.0,"nc":0,"k":"19026_0461"}},{"type":"Feature","geometry":{"type":"Point","coordinates":[-100.22772,25.6896]},"properties":{"s":2.1,"a":2.0,"t":0.0,"c":0.0,"nc":0,"k":"19026_0461"}},{"type":"Feature","geometry":{"type":"Point","coordinates":[-100.22673,25.69231]},"properties":{"s":2.1,"a":2.0,"t":0.0,"c":0.0,"nc":0,"k":"19026_0461"}},{"type":"Feature","geometry":{"type":"Point","coordinates":[-100.22573,25.69231]},"properties":{"s":2.1,"a":2.0,"t":0.0,"c":0.0,"nc":0,"k":"19026_0461"}},{"type":"Feature","geometry":{"type":"Point","coordinates":[-100.22772,25.6905]},"properties":{"s":1.7,"a":1.6,"t":0.0,"c":0.0,"nc":0,"k":"19026_0461"}},{"type":"Feature","geometry":{"type":"Point","coordinates":[-100.22972,25.6905]},"properties":{"s":1.6,"a":1.6,"t":0.0,"c":0.0,"nc":0,"k":"19026_0461"}},{"type":"Feature","geometry":{"type":"Point","coordinates":[-100.22772,25.69141]},"properties":{"s":1.6,"a":1.6,"t":0.0,"c":0.0,"nc":0,"k":"19026_0461"}},{"type":"Feature","geometry":{"type":"Point","coordinates":[-100.22473,25.69141]},"properties":{"s":1.4,"a":1.4,"t":0.0,"c":0.0,"nc":0,"k":"19026_0461"}},{"type":"Feature","geometry":{"type":"Point","coordinates":[-100.22373,25.69141]},"properties":{"s":1.4,"a":1.4,"t":0.0,"c":0.0,"nc":0,"k":"19026_0461"}},{"type":"Feature","geometry":{"type":"Point","coordinates":[-100.22274,25.69141]},"properties":{"s":1.4,"a":1.4,"t":0.0,"c":0.0,"nc":0,"k":"19026_0461"}},{"type":"Feature","geometry":{"type":"Point","coordinates":[-100.22673,25.69322]},"properties":{"s":1.3,"a":1.2,"t":0.0,"c":0.0,"nc":0,"k":"19026_0461"}},{"type":"Feature","geometry":{"type":"Point","coordinates":[-100.22573,25.69322]},"properties":{"s":1.3,"a":1.2,"t":0.0,"c":0.0,"nc":0,"k":"19026_0461"}},{"type":"Feature","geometry":{"type":"Point","coordinates":[-100.22373,25.69231]},"properties":{"s":1.0,"a":1.0,"t":0.0,"c":0.0,"nc":0,"k":"19026_0461"}},{"type":"Feature","geometry":{"type":"Point","coordinates":[-100.22872,25.69141]},"properties":{"s":0.8,"a":0.8,"t":0.0,"c":0.0,"nc":0,"k":"19026_0461"}},{"type":"Feature","geometry":{"type":"Point","coordinates":[-100.22872,25.69231]},"properties":{"s":0.8,"a":0.8,"t":0.0,"c":0.0,"nc":0,"k":"19026_0461"}},{"type":"Feature","geometry":{"type":"Point","coordinates":[-100.22772,25.69231]},"properties":{"s":0.4,"a":0.4,"t":0.0,"c":0.0,"nc":0,"k":"19026_0461"}},{"type":"Feature","geometry":{"type":"Point","coordinates":[-100.18087,25.72307]},"properties":{"s":5.6,"a":6.2,"t":0.0,"c":0.0,"nc":0,"k":"19026_0220"}},{"type":"Feature","geometry":{"type":"Point","coordinates":[-100.18186,25.72035]},"properties":{"s":5.4,"a":5.9,"t":0.0,"c":0.0,"nc":0,"k":"19026_0220"}},{"type":"Feature","geometry":{"type":"Point","coordinates":[-100.18087,25.72035]},"properties":{"s":5.2,"a":5.7,"t":0.0,"c":0.0,"nc":0,"k":"19026_0220"}},{"type":"Feature","geometry":{"type":"Point","coordinates":[-100.18087,25.72216]},"properties":{"s":4.7,"a":5.2,"t":0.0,"c":0.0,"nc":0,"k":"19026_0220"}},{"type":"Feature","geometry":{"type":"Point","coordinates":[-100.18087,25.72397]},"properties":{"s":4.5,"a":4.9,"t":0.0,"c":0.0,"nc":0,"k":"19026_0220"}},{"type":"Feature","geometry":{"type":"Point","coordinates":[-100.17987,25.72307]},"properties":{"s":3.8,"a":4.1,"t":0.0,"c":0.0,"nc":0,"k":"19026_0220"}},{"type":"Feature","geometry":{"type":"Point","coordinates":[-100.17987,25.72669]},"properties":{"s":3.5,"a":3.8,"t":0.0,"c":0.0,"nc":0,"k":"19026_0220"}},{"type":"Feature","geometry":{"type":"Point","coordinates":[-100.17987,25.72759]},"properties":{"s":3.3,"a":3.8,"t":0.0,"c":0.2,"nc":1,"k":"19026_0220"}},{"type":"Feature","geometry":{"type":"Point","coordinates":[-100.17987,25.72488]},"properties":{"s":3.1,"a":3.4,"t":0.0,"c":0.0,"nc":0,"k":"19026_0220"}},{"type":"Feature","geometry":{"type":"Point","coordinates":[-100.18087,25.72126]},"properties":{"s":2.6,"a":2.9,"t":0.0,"c":0.0,"nc":0,"k":"19026_0220"}},{"type":"Feature","geometry":{"type":"Point","coordinates":[-100.17987,25.72397]},"properties":{"s":2.4,"a":2.6,"t":0.0,"c":0.0,"nc":0,"k":"19026_0220"}},{"type":"Feature","geometry":{"type":"Point","coordinates":[-100.17887,25.72759]},"properties":{"s":2.4,"a":3.0,"t":0.0,"c":0.3,"nc":1,"k":"19026_0220"}},{"type":"Feature","geometry":{"type":"Point","coordinates":[-100.17987,25.7285]},"properties":{"s":2.2,"a":3.8,"t":0.0,"c":1.4,"nc":1,"k":"19026_0220"}},{"type":"Feature","geometry":{"type":"Point","coordinates":[-100.17987,25.72216]},"properties":{"s":1.5,"a":1.6,"t":0.0,"c":0.0,"nc":0,"k":"19026_0220"}},{"type":"Feature","geometry":{"type":"Point","coordinates":[-100.17987,25.72578]},"properties":{"s":1.5,"a":1.6,"t":0.0,"c":0.0,"nc":0,"k":"19026_0220"}},{"type":"Feature","geometry":{"type":"Point","coordinates":[-100.17887,25.72669]},"properties":{"s":1.1,"a":1.2,"t":0.0,"c":0.0,"nc":0,"k":"19026_0220"}},{"type":"Feature","geometry":{"type":"Point","coordinates":[-100.17887,25.7285]},"properties":{"s":1.0,"a":2.8,"t":0.0,"c":1.7,"nc":1,"k":"19026_0220"}},{"type":"Feature","geometry":{"type":"Point","coordinates":[-100.17887,25.7294]},"properties":{"s":1.0,"a":3.0,"t":1.0,"c":3.0,"nc":1,"k":"19026_0220"}},{"type":"Feature","geometry":{"type":"Point","coordinates":[-100.19981,25.68598]},"properties":{"s":5.9,"a":3.4,"t":2.0,"c":0.0,"nc":0,"k":"19026_0434"}},{"type":"Feature","geometry":{"type":"Point","coordinates":[-100.19881,25.68598]},"properties":{"s":5.3,"a":3.9,"t":1.0,"c":0.0,"nc":0,"k":"19026_0434"}},{"type":"Feature","geometry":{"type":"Point","coordinates":[-100.2038,25.68598]},"properties":{"s":5.1,"a":4.7,"t":0.0,"c":0.0,"nc":0,"k":"19026_0434"}},{"type":"Feature","geometry":{"type":"Point","coordinates":[-100.20081,25.68598]},"properties":{"s":4.2,"a":2.8,"t":1.0,"c":0.0,"nc":0,"k":"19026_0434"}},{"type":"Feature","geometry":{"type":"Point","coordinates":[-100.19981,25.68779]},"properties":{"s":3.9,"a":3.6,"t":0.0,"c":0.0,"nc":0,"k":"19026_0434"}},{"type":"Feature","geometry":{"type":"Point","coordinates":[-100.19981,25.68688]},"properties":{"s":3.8,"a":3.4,"t":0.0,"c":0.0,"nc":0,"k":"19026_0434"}},{"type":"Feature","geometry":{"type":"Point","coordinates":[-100.2038,25.68507]},"properties":{"s":3.7,"a":3.4,"t":0.0,"c":0.0,"nc":0,"k":"19026_0434"}},{"type":"Feature","geometry":{"type":"Point","coordinates":[-100.20479,25.68598]},"properties":{"s":3.5,"a":3.2,"t":0.0,"c":0.0,"nc":0,"k":"19026_0434"}},{"type":"Feature","geometry":{"type":"Point","coordinates":[-100.2038,25.68688]},"properties":{"s":3.3,"a":3.0,"t":0.0,"c":0.0,"nc":0,"k":"19026_0434"}},{"type":"Feature","geometry":{"type":"Point","coordinates":[-100.2028,25.68598]},"properties":{"s":3.3,"a":3.0,"t":0.0,"c":0.0,"nc":0,"k":"19026_0434"}},{"type":"Feature","geometry":{"type":"Point","coordinates":[-100.19881,25.68688]},"properties":{"s":3.3,"a":3.0,"t":0.0,"c":0.0,"nc":0,"k":"19026_0434"}},{"type":"Feature","geometry":{"type":"Point","coordinates":[-100.20479,25.68507]},"properties":{"s":3.1,"a":2.8,"t":0.0,"c":0.0,"nc":0,"k":"19026_0434"}},{"type":"Feature","geometry":{"type":"Point","coordinates":[-100.2018,25.68688]},"properties":{"s":2.8,"a":2.6,"t":0.0,"c":0.0,"nc":0,"k":"19026_0434"}},{"type":"Feature","geometry":{"type":"Point","coordinates":[-100.20579,25.68507]},"properties":{"s":2.7,"a":2.4,"t":0.0,"c":0.0,"nc":0,"k":"19026_0434"}},{"type":"Feature","geometry":{"type":"Point","coordinates":[-100.2018,25.68598]},"properties":{"s":2.4,"a":2.2,"t":0.0,"c":0.0,"nc":0,"k":"19026_0434"}},{"type":"Feature","geometry":{"type":"Point","coordinates":[-100.2018,25.68779]},"properties":{"s":2.4,"a":2.2,"t":0.0,"c":0.0,"nc":0,"k":"19026_0434"}},{"type":"Feature","geometry":{"type":"Point","coordinates":[-100.20579,25.68688]},"properties":{"s":2.2,"a":2.0,"t":0.0,"c":0.0,"nc":0,"k":"19026_0434"}},{"type":"Feature","geometry":{"type":"Point","coordinates":[-100.20479,25.68688]},"properties":{"s":2.2,"a":2.0,"t":0.0,"c":0.0,"nc":0,"k":"19026_0434"}},{"type":"Feature","geometry":{"type":"Point","coordinates":[-100.2028,25.68688]},"properties":{"s":2.0,"a":1.8,"t":0.0,"c":0.0,"nc":0,"k":"19026_0434"}},{"type":"Feature","geometry":{"type":"Point","coordinates":[-100.20479,25.68779]},"properties":{"s":1.8,"a":1.6,"t":0.0,"c":0.0,"nc":0,"k":"19026_0434"}},{"type":"Feature","geometry":{"type":"Point","coordinates":[-100.2038,25.68779]},"properties":{"s":1.8,"a":1.6,"t":0.0,"c":0.0,"nc":0,"k":"19026_0434"}},{"type":"Feature","geometry":{"type":"Point","coordinates":[-100.20081,25.68688]},"properties":{"s":1.7,"a":1.6,"t":0.0,"c":0.0,"nc":0,"k":"19026_0434"}},{"type":"Feature","geometry":{"type":"Point","coordinates":[-100.20081,25.68779]},"properties":{"s":1.7,"a":1.6,"t":0.0,"c":0.0,"nc":0,"k":"19026_0434"}},{"type":"Feature","geometry":{"type":"Point","coordinates":[-100.2028,25.68779]},"properties":{"s":1.5,"a":1.4,"t":0.0,"c":0.0,"nc":0,"k":"19026_0434"}},{"type":"Feature","geometry":{"type":"Point","coordinates":[-100.20579,25.68598]},"properties":{"s":1.3,"a":1.2,"t":0.0,"c":0.0,"nc":0,"k":"19026_0434"}},{"type":"Feature","geometry":{"type":"Point","coordinates":[-100.20579,25.68779]},"properties":{"s":0.4,"a":0.4,"t":0.0,"c":0.0,"nc":0,"k":"19026_0434"}},{"type":"Feature","geometry":{"type":"Point","coordinates":[-100.20579,25.6896]},"properties":{"s":0.4,"a":0.4,"t":0.0,"c":0.0,"nc":0,"k":"19026_0434"}},{"type":"Feature","geometry":{"type":"Point","coordinates":[-100.20479,25.68869]},"properties":{"s":0.4,"a":0.4,"t":0.0,"c":0.0,"nc":0,"k":"19026_0434"}},{"type":"Feature","geometry":{"type":"Point","coordinates":[-100.2018,25.68869]},"properties":{"s":0.4,"a":0.4,"t":0.0,"c":0.0,"nc":0,"k":"19026_0434"}},{"type":"Feature","geometry":{"type":"Point","coordinates":[-100.23071,25.68598]},"properties":{"s":5.0,"a":6.0,"t":0.0,"c":0.0,"nc":0,"k":"19026_0183"}},{"type":"Feature","geometry":{"type":"Point","coordinates":[-100.23071,25.68507]},"properties":{"s":4.7,"a":5.6,"t":0.0,"c":0.0,"nc":0,"k":"19026_0183"}},{"type":"Feature","geometry":{"type":"Point","coordinates":[-100.22972,25.68598]},"properties":{"s":4.0,"a":4.8,"t":0.0,"c":0.0,"nc":0,"k":"19026_0183"}},{"type":"Feature","geometry":{"type":"Point","coordinates":[-100.23071,25.68326]},"properties":{"s":3.9,"a":2.7,"t":2.0,"c":0.0,"nc":0,"k":"19026_0183"}},{"type":"Feature","geometry":{"type":"Point","coordinates":[-100.22872,25.68869]},"properties":{"s":3.9,"a":4.7,"t":0.0,"c":0.0,"nc":0,"k":"19026_0183"}},{"type":"Feature","geometry":{"type":"Point","coordinates":[-100.23071,25.68688]},"properties":{"s":3.6,"a":4.3,"t":0.0,"c":0.0,"nc":0,"k":"19026_0183"}},{"type":"Feature","geometry":{"type":"Point","coordinates":[-100.22972,25.68688]},"properties":{"s":3.6,"a":4.3,"t":0.0,"c":0.0,"nc":0,"k":"19026_0183"}},{"type":"Feature","geometry":{"type":"Point","coordinates":[-100.22972,25.68869]},"properties":{"s":3.6,"a":3.3,"t":1.0,"c":0.0,"nc":0,"k":"19026_0183"}},{"type":"Feature","geometry":{"type":"Point","coordinates":[-100.22972,25.68507]},"properties":{"s":3.3,"a":3.9,"t":0.0,"c":0.0,"nc":0,"k":"19026_0183"}},{"type":"Feature","geometry":{"type":"Point","coordinates":[-100.23071,25.68779]},"properties":{"s":3.1,"a":3.7,"t":0.0,"c":0.0,"nc":0,"k":"19026_0183"}},{"type":"Feature","geometry":{"type":"Point","coordinates":[-100.22972,25.68779]},"properties":{"s":3.1,"a":3.7,"t":0.0,"c":0.0,"nc":0,"k":"19026_0183"}},{"type":"Feature","geometry":{"type":"Point","coordinates":[-100.23171,25.68326]},"properties":{"s":2.9,"a":3.5,"t":0.0,"c":0.0,"nc":0,"k":"19026_0183"}},{"type":"Feature","geometry":{"type":"Point","coordinates":[-100.22872,25.68779]},"properties":{"s":2.8,"a":3.3,"t":0.0,"c":0.0,"nc":0,"k":"19026_0183"}},{"type":"Feature","geometry":{"type":"Point","coordinates":[-100.22872,25.68688]},"properties":{"s":2.7,"a":3.2,"t":0.0,"c":0.0,"nc":0,"k":"19026_0183"}},{"type":"Feature","geometry":{"type":"Point","coordinates":[-100.22673,25.68779]},"properties":{"s":2.7,"a":3.2,"t":0.0,"c":0.0,"nc":0,"k":"19026_0183"}},{"type":"Feature","geometry":{"type":"Point","coordinates":[-100.22972,25.68326]},"properties":{"s":2.5,"a":0.0,"t":3.0,"c":0.0,"nc":0,"k":"19026_0183"}},{"type":"Feature","geometry":{"type":"Point","coordinates":[-100.22772,25.68688]},"properties":{"s":2.3,"a":2.8,"t":0.0,"c":0.0,"nc":0,"k":"19026_0183"}},{"type":"Feature","geometry":{"type":"Point","coordinates":[-100.22772,25.68779]},"properties":{"s":2.3,"a":2.8,"t":0.0,"c":0.0,"nc":0,"k":"19026_0183"}},{"type":"Feature","geometry":{"type":"Point","coordinates":[-100.22872,25.68598]},"properties":{"s":2.2,"a":2.6,"t":0.0,"c":0.0,"nc":0,"k":"19026_0183"}},{"type":"Feature","geometry":{"type":"Point","coordinates":[-100.22673,25.68688]},"properties":{"s":1.8,"a":2.2,"t":0.0,"c":0.0,"nc":0,"k":"19026_0183"}},{"type":"Feature","geometry":{"type":"Point","coordinates":[-100.23171,25.68417]},"properties":{"s":1.7,"a":2.0,"t":0.0,"c":0.0,"nc":0,"k":"19026_0183"}},{"type":"Feature","geometry":{"type":"Point","coordinates":[-100.22573,25.68779]},"properties":{"s":1.7,"a":2.0,"t":0.0,"c":0.0,"nc":0,"k":"19026_0183"}},{"type":"Feature","geometry":{"type":"Point","coordinates":[-100.22473,25.68779]},"properties":{"s":1.4,"a":1.6,"t":0.0,"c":0.0,"nc":0,"k":"19026_0183"}},{"type":"Feature","geometry":{"type":"Point","coordinates":[-100.22373,25.68779]},"properties":{"s":1.4,"a":1.6,"t":0.0,"c":0.0,"nc":0,"k":"19026_0183"}},{"type":"Feature","geometry":{"type":"Point","coordinates":[-100.22274,25.68779]},"properties":{"s":1.3,"a":1.6,"t":0.0,"c":0.0,"nc":0,"k":"19026_0183"}},{"type":"Feature","geometry":{"type":"Point","coordinates":[-100.22174,25.68779]},"properties":{"s":1.0,"a":1.2,"t":0.0,"c":0.0,"nc":0,"k":"19026_0183"}},{"type":"Feature","geometry":{"type":"Point","coordinates":[-100.22274,25.68688]},"properties":{"s":0.7,"a":0.8,"t":0.0,"c":0.0,"nc":0,"k":"19026_0183"}},{"type":"Feature","geometry":{"type":"Point","coordinates":[-100.22573,25.68688]},"properties":{"s":0.6,"a":0.8,"t":0.0,"c":0.0,"nc":1,"k":"19026_0183"}},{"type":"Feature","geometry":{"type":"Point","coordinates":[-100.22872,25.68507]},"properties":{"s":0.5,"a":0.8,"t":0.0,"c":0.2,"nc":1,"k":"19026_0183"}},{"type":"Feature","geometry":{"type":"Point","coordinates":[-100.22972,25.68417]},"properties":{"s":0.3,"a":0.4,"t":0.0,"c":0.0,"nc":0,"k":"19026_0183"}},{"type":"Feature","geometry":{"type":"Point","coordinates":[-100.22174,25.68688]},"properties":{"s":0.3,"a":0.4,"t":0.0,"c":0.0,"nc":0,"k":"19026_0183"}},{"type":"Feature","geometry":{"type":"Point","coordinates":[-100.22772,25.68598]},"properties":{"s":0.2,"a":0.8,"t":0.0,"c":0.5,"nc":1,"k":"19026_0183"}}]}