{"type":"FeatureCollection","features":[{"type":"Feature","geometry":{"type":"Point","coordinates":[-100.32243,25.76378]},"properties":{"s":8.3,"a":4.5,"t":5.0,"c":0.0,"nc":0,"k":"19046_0081"}},{"type":"Feature","geometry":{"type":"Point","coordinates":[-100.32243,25.76287]},"properties":{"s":5.3,"a":4.1,"t":2.0,"c":0.0,"nc":0,"k":"19046_0081"}},{"type":"Feature","geometry":{"type":"Point","coordinates":[-100.32044,25.76016]},"properties":{"s":4.1,"a":4.7,"t":0.0,"c":0.0,"nc":0,"k":"19046_0081"}},{"type":"Feature","geometry":{"type":"Point","coordinates":[-100.32143,25.76378]},"properties":{"s":3.8,"a":3.3,"t":1.0,"c":0.0,"nc":0,"k":"19046_0081"}},{"type":"Feature","geometry":{"type":"Point","coordinates":[-100.32044,25.76197]},"properties":{"s":3.4,"a":3.8,"t":0.0,"c":0.0,"nc":0,"k":"19046_0081"}},{"type":"Feature","geometry":{"type":"Point","coordinates":[-100.31944,25.76106]},"properties":{"s":3.4,"a":3.8,"t":0.0,"c":0.0,"nc":0,"k":"19046_0081"}},{"type":"Feature","geometry":{"type":"Point","coordinates":[-100.32143,25.76287]},"properties":{"s":3.2,"a":3.7,"t":0.0,"c":0.0,"nc":0,"k":"19046_0081"}},{"type":"Feature","geometry":{"type":"Point","coordinates":[-100.32143,25.76197]},"properties":{"s":3.0,"a":3.4,"t":0.0,"c":0.0,"nc":0,"k":"19046_0081"}},{"type":"Feature","geometry":{"type":"Point","coordinates":[-100.31944,25.75925]},"properties":{"s":3.0,"a":3.4,"t":0.0,"c":0.0,"nc":0,"k":"19046_0081"}},{"type":"Feature","geometry":{"type":"Point","coordinates":[-100.32243,25.75835]},"properties":{"s":2.8,"a":3.2,"t":0.0,"c":0.0,"nc":0,"k":"19046_0081"}},{"type":"Feature","geometry":{"type":"Point","coordinates":[-100.32044,25.75835]},"properties":{"s":2.8,"a":3.2,"t":0.0,"c":0.0,"nc":0,"k":"19046_0081"}},{"type":"Feature","geometry":{"type":"Point","coordinates":[-100.32044,25.76106]},"properties":{"s":2.8,"a":3.2,"t":0.0,"c":0.0,"nc":0,"k":"19046_0081"}},{"type":"Feature","geometry":{"type":"Point","coordinates":[-100.32044,25.76378]},"properties":{"s":2.8,"a":3.2,"t":0.0,"c":0.0,"nc":1,"k":"19046_0081"}},{"type":"Feature","geometry":{"type":"Point","coordinates":[-100.31944,25.75835]},"properties":{"s":2.8,"a":3.2,"t":0.0,"c":0.0,"nc":0,"k":"19046_0081"}},{"type":"Feature","geometry":{"type":"Point","coordinates":[-100.31844,25.75835]},"properties":{"s":2.8,"a":3.2,"t":0.0,"c":0.0,"nc":0,"k":"19046_0081"}},{"type":"Feature","geometry":{"type":"Point","coordinates":[-100.32442,25.76106]},"properties":{"s":2.5,"a":2.8,"t":0.0,"c":0.0,"nc":0,"k":"19046_0081"}},{"type":"Feature","geometry":{"type":"Point","coordinates":[-100.32442,25.76197]},"properties":{"s":2.5,"a":2.8,"t":0.0,"c":0.0,"nc":0,"k":"19046_0081"}},{"type":"Feature","geometry":{"type":"Point","coordinates":[-100.32343,25.76197]},"properties":{"s":2.5,"a":2.8,"t":0.0,"c":0.0,"nc":0,"k":"19046_0081"}},{"type":"Feature","geometry":{"type":"Point","coordinates":[-100.32343,25.76287]},"properties":{"s":2.5,"a":2.8,"t":0.0,"c":0.0,"nc":0,"k":"19046_0081"}},{"type":"Feature","geometry":{"type":"Point","coordinates":[-100.32143,25.75835]},"properties":{"s":2.5,"a":2.8,"t":0.0,"c":0.0,"nc":0,"k":"19046_0081"}},{"type":"Feature","geometry":{"type":"Point","coordinates":[-100.31944,25.76016]},"properties":{"s":2.3,"a":2.6,"t":0.0,"c":0.0,"nc":0,"k":"19046_0081"}},{"type":"Feature","geometry":{"type":"Point","coordinates":[-100.31844,25.75925]},"properties":{"s":2.3,"a":2.6,"t":0.0,"c":0.0,"nc":0,"k":"19046_0081"}},{"type":"Feature","geometry":{"type":"Point","coordinates":[-100.32542,25.76197]},"properties":{"s":2.1,"a":2.4,"t":0.0,"c":0.0,"nc":0,"k":"19046_0081"}},{"type":"Feature","geometry":{"type":"Point","coordinates":[-100.32343,25.75835]},"properties":{"s":2.1,"a":2.4,"t":0.0,"c":0.0,"nc":0,"k":"19046_0081"}},{"type":"Feature","geometry":{"type":"Point","coordinates":[-100.32143,25.76016]},"properties":{"s":2.1,"a":2.4,"t":0.0,"c":0.0,"nc":0,"k":"19046_0081"}},{"type":"Feature","geometry":{"type":"Point","coordinates":[-100.32044,25.75745]},"properties":{"s":2.1,"a":2.5,"t":0.0,"c":0.0,"nc":0,"k":"19046_0081"}},{"type":"Feature","geometry":{"type":"Point","coordinates":[-100.32044,25.76287]},"properties":{"s":2.1,"a":2.4,"t":0.0,"c":0.0,"nc":0,"k":"19046_0081"}},{"type":"Feature","geometry":{"type":"Point","coordinates":[-100.31844,25.75745]},"properties":{"s":2.1,"a":2.4,"t":0.0,"c":0.0,"nc":0,"k":"19046_0081"}},{"type":"Feature","geometry":{"type":"Point","coordinates":[-100.31844,25.76016]},"properties":{"s":1.9,"a":2.2,"t":0.0,"c":0.0,"nc":0,"k":"19046_0081"}},{"type":"Feature","geometry":{"type":"Point","coordinates":[-100.32442,25.76016]},"properties":{"s":1.8,"a":2.0,"t":0.0,"c":0.0,"nc":0,"k":"19046_0081"}},{"type":"Feature","geometry":{"type":"Point","coordinates":[-100.32343,25.76016]},"properties":{"s":1.8,"a":2.0,"t":0.0,"c":0.0,"nc":0,"k":"19046_0081"}},{"type":"Feature","geometry":{"type":"Point","coordinates":[-100.32343,25.76106]},"properties":{"s":1.8,"a":2.0,"t":0.0,"c":0.0,"nc":0,"k":"19046_0081"}},{"type":"Feature","geometry":{"type":"Point","coordinates":[-100.32243,25.75745]},"properties":{"s":1.8,"a":2.0,"t":0.0,"c":0.0,"nc":0,"k":"19046_0081"}},{"type":"Feature","geometry":{"type":"Point","coordinates":[-100.32143,25.75745]},"properties":{"s":1.8,"a":2.0,"t":0.0,"c":0.0,"nc":0,"k":"19046_0081"}},{"type":"Feature","geometry":{"type":"Point","coordinates":[-100.32044,25.75564]},"properties":{"s":1.8,"a":0.0,"t":2.0,"c":0.0,"nc":0,"k":"19046_0081"}},{"type":"Feature","geometry":{"type":"Point","coordinates":[-100.31944,25.75745]},"properties":{"s":1.8,"a":2.0,"t":0.0,"c":0.0,"nc":0,"k":"19046_0081"}},{"type":"Feature","geometry":{"type":"Point","coordinates":[-100.32642,25.76197]},"properties":{"s":1.4,"a":1.6,"t":0.0,"c":0.0,"nc":0,"k":"19046_0081"}},{"type":"Feature","geometry":{"type":"Point","coordinates":[-100.32542,25.75925]},"properties":{"s":1.4,"a":1.6,"t":0.0,"c":0.0,"nc":0,"k":"19046_0081"}},{"type":"Feature","geometry":{"type":"Point","coordinates":[-100.32442,25.75925]},"properties":{"s":1.4,"a":1.6,"t":0.0,"c":0.0,"nc":0,"k":"19046_0081"}},{"type":"Feature","geometry":{"type":"Point","coordinates":[-100.32243,25.75925]},"properties":{"s":1.4,"a":1.6,"t":0.0,"c":0.0,"nc":0,"k":"19046_0081"}},{"type":"Feature","geometry":{"type":"Point","coordinates":[-100.32143,25.75925]},"properties":{"s":1.4,"a":1.6,"t":0.0,"c":0.0,"nc":0,"k":"19046_0081"}},{"type":"Feature","geometry":{"type":"Point","coordinates":[-100.32143,25.76106]},"properties":{"s":1.4,"a":1.6,"t":0.0,"c":0.0,"nc":0,"k":"19046_0081"}},{"type":"Feature","geometry":{"type":"Point","coordinates":[-100.32044,25.75925]},"properties":{"s":1.4,"a":1.6,"t":0.0,"c":0.0,"nc":0,"k":"19046_0081"}},{"type":"Feature","geometry":{"type":"Point","coordinates":[-100.31944,25.75654]},"properties":{"s":1.4,"a":1.6,"t":0.0,"c":0.0,"nc":0,"k":"19046_0081"}},{"type":"Feature","geometry":{"type":"Point","coordinates":[-100.32642,25.75925]},"properties":{"s":1.1,"a":1.2,"t":0.0,"c":0.0,"nc":0,"k":"19046_0081"}},{"type":"Feature","geometry":{"type":"Point","coordinates":[-100.32642,25.76016]},"properties":{"s":1.1,"a":1.2,"t":0.0,"c":0.0,"nc":0,"k":"19046_0081"}},{"type":"Feature","geometry":{"type":"Point","coordinates":[-100.32642,25.76106]},"properties":{"s":1.1,"a":1.2,"t":0.0,"c":0.0,"nc":0,"k":"19046_0081"}},{"type":"Feature","geometry":{"type":"Point","coordinates":[-100.32542,25.75835]},"properties":{"s":1.1,"a":1.2,"t":0.0,"c":0.0,"nc":0,"k":"19046_0081"}},{"type":"Feature","geometry":{"type":"Point","coordinates":[-100.32542,25.76016]},"properties":{"s":1.1,"a":1.2,"t":0.0,"c":0.0,"nc":0,"k":"19046_0081"}},{"type":"Feature","geometry":{"type":"Point","coordinates":[-100.32542,25.76106]},"properties":{"s":1.1,"a":1.2,"t":0.0,"c":0.0,"nc":0,"k":"19046_0081"}},{"type":"Feature","geometry":{"type":"Point","coordinates":[-100.32442,25.75835]},"properties":{"s":1.1,"a":1.2,"t":0.0,"c":0.0,"nc":0,"k":"19046_0081"}},{"type":"Feature","geometry":{"type":"Point","coordinates":[-100.32343,25.75021]},"properties":{"s":1.1,"a":1.2,"t":0.0,"c":0.0,"nc":0,"k":"19046_0081"}},{"type":"Feature","geometry":{"type":"Point","coordinates":[-100.32343,25.75745]},"properties":{"s":1.1,"a":1.2,"t":0.0,"c":0.0,"nc":0,"k":"19046_0081"}},{"type":"Feature","geometry":{"type":"Point","coordinates":[-100.32343,25.75925]},"properties":{"s":1.1,"a":1.2,"t":0.0,"c":0.0,"nc":0,"k":"19046_0081"}},{"type":"Feature","geometry":{"type":"Point","coordinates":[-100.32243,25.76197]},"properties":{"s":1.1,"a":1.2,"t":0.0,"c":0.0,"nc":0,"k":"19046_0081"}},{"type":"Feature","geometry":{"type":"Point","coordinates":[-100.31944,25.76197]},"properties":{"s":1.1,"a":1.2,"t":0.0,"c":0.0,"nc":0,"k":"19046_0081"}},{"type":"Feature","geometry":{"type":"Point","coordinates":[-100.32143,25.75564]},"properties":{"s":0.9,"a":0.0,"t":1.0,"c":0.0,"nc":0,"k":"19046_0081"}},{"type":"Feature","geometry":{"type":"Point","coordinates":[-100.31944,25.75564]},"properties":{"s":0.9,"a":0.0,"t":1.0,"c":0.0,"nc":0,"k":"19046_0081"}},{"type":"Feature","geometry":{"type":"Point","coordinates":[-100.32742,25.76197]},"properties":{"s":0.7,"a":0.8,"t":0.0,"c":0.0,"nc":0,"k":"19046_0081"}},{"type":"Feature","geometry":{"type":"Point","coordinates":[-100.32642,25.75835]},"properties":{"s":0.7,"a":0.8,"t":0.0,"c":0.0,"nc":0,"k":"19046_0081"}},{"type":"Feature","geometry":{"type":"Point","coordinates":[-100.32243,25.76106]},"properties":{"s":0.7,"a":0.8,"t":0.0,"c":0.0,"nc":0,"k":"19046_0081"}},{"type":"Feature","geometry":{"type":"Point","coordinates":[-100.32841,25.76106]},"properties":{"s":0.4,"a":0.4,"t":0.0,"c":0.0,"nc":0,"k":"19046_0081"}},{"type":"Feature","geometry":{"type":"Point","coordinates":[-100.32841,25.76197]},"properties":{"s":0.4,"a":0.4,"t":0.0,"c":0.0,"nc":0,"k":"19046_0081"}},{"type":"Feature","geometry":{"type":"Point","coordinates":[-100.32742,25.75925]},"properties":{"s":0.4,"a":0.4,"t":0.0,"c":0.0,"nc":0,"k":"19046_0081"}},{"type":"Feature","geometry":{"type":"Point","coordinates":[-100.32742,25.76016]},"properties":{"s":0.4,"a":0.4,"t":0.0,"c":0.0,"nc":0,"k":"19046_0081"}},{"type":"Feature","geometry":{"type":"Point","coordinates":[-100.32742,25.76106]},"properties":{"s":0.4,"a":0.4,"t":0.0,"c":0.0,"nc":0,"k":"19046_0081"}},{"type":"Feature","geometry":{"type":"Point","coordinates":[-100.32442,25.75021]},"properties":{"s":0.4,"a":0.4,"t":0.0,"c":0.0,"nc":0,"k":"19046_0081"}},{"type":"Feature","geometry":{"type":"Point","coordinates":[-100.32442,25.75745]},"properties":{"s":0.4,"a":0.4,"t":0.0,"c":0.0,"nc":0,"k":"19046_0081"}},{"type":"Feature","geometry":{"type":"Point","coordinates":[-100.32343,25.75654]},"properties":{"s":0.4,"a":0.4,"t":0.0,"c":0.0,"nc":0,"k":"19046_0081"}},{"type":"Feature","geometry":{"type":"Point","coordinates":[-100.32243,25.75654]},"properties":{"s":0.4,"a":0.4,"t":0.0,"c":0.0,"nc":0,"k":"19046_0081"}},{"type":"Feature","geometry":{"type":"Point","coordinates":[-100.32243,25.76016]},"properties":{"s":0.4,"a":0.4,"t":0.0,"c":0.0,"nc":0,"k":"19046_0081"}},{"type":"Feature","geometry":{"type":"Point","coordinates":[-100.32143,25.75654]},"properties":{"s":0.4,"a":0.4,"t":0.0,"c":0.0,"nc":0,"k":"19046_0081"}},{"type":"Feature","geometry":{"type":"Point","coordinates":[-100.32044,25.75654]},"properties":{"s":0.4,"a":0.4,"t":0.0,"c":0.0,"nc":0,"k":"19046_0081"}},{"type":"Feature","geometry":{"type":"Point","coordinates":[-100.31844,25.75654]},"properties":{"s":0.4,"a":0.4,"t":0.0,"c":0.0,"nc":0,"k":"19046_0081"}},{"type":"Feature","geometry":{"type":"Point","coordinates":[-100.26461,25.71131]},"properties":{"s":4.6,"a":3.4,"t":2.0,"c":0.0,"nc":0,"k":"19046_0057"}},{"type":"Feature","geometry":{"type":"Point","coordinates":[-100.26262,25.71312]},"properties":{"s":4.1,"a":3.9,"t":1.0,"c":0.0,"nc":0,"k":"19046_0057"}},{"type":"Feature","geometry":{"type":"Point","coordinates":[-100.26361,25.71402]},"properties":{"s":3.9,"a":4.6,"t":0.0,"c":0.0,"nc":0,"k":"19046_0057"}},{"type":"Feature","geometry":{"type":"Point","coordinates":[-100.26262,25.71402]},"properties":{"s":3.8,"a":3.5,"t":1.0,"c":0.0,"nc":0,"k":"19046_0057"}},{"type":"Feature","geometry":{"type":"Point","coordinates":[-100.26361,25.71493]},"properties":{"s":3.7,"a":4.4,"t":0.0,"c":0.0,"nc":0,"k":"19046_0057"}},{"type":"Feature","geometry":{"type":"Point","coordinates":[-100.26461,25.71402]},"properties":{"s":3.2,"a":3.8,"t":0.0,"c":0.0,"nc":0,"k":"19046_0057"}},{"type":"Feature","geometry":{"type":"Point","coordinates":[-100.26461,25.71221]},"properties":{"s":3.0,"a":3.6,"t":0.0,"c":0.0,"nc":0,"k":"19046_0057"}},{"type":"Feature","geometry":{"type":"Point","coordinates":[-100.26461,25.71312]},"properties":{"s":3.0,"a":3.6,"t":0.0,"c":0.0,"nc":0,"k":"19046_0057"}},{"type":"Feature","geometry":{"type":"Point","coordinates":[-100.26361,25.71221]},"properties":{"s":3.0,"a":3.6,"t":0.0,"c":0.0,"nc":0,"k":"19046_0057"}},{"type":"Feature","geometry":{"type":"Point","coordinates":[-100.26361,25.71312]},"properties":{"s":3.0,"a":3.6,"t":0.0,"c":0.0,"nc":0,"k":"19046_0057"}},{"type":"Feature","geometry":{"type":"Point","coordinates":[-100.26561,25.71221]},"properties":{"s":2.5,"a":3.0,"t":0.0,"c":0.0,"nc":0,"k":"19046_0057"}},{"type":"Feature","geometry":{"type":"Point","coordinates":[-100.26461,25.71493]},"properties":{"s":2.4,"a":2.8,"t":0.0,"c":0.0,"nc":0,"k":"19046_0057"}},{"type":"Feature","geometry":{"type":"Point","coordinates":[-100.26561,25.71312]},"properties":{"s":2.2,"a":2.6,"t":0.0,"c":0.0,"nc":0,"k":"19046_0057"}},{"type":"Feature","geometry":{"type":"Point","coordinates":[-100.26361,25.71131]},"properties":{"s":1.9,"a":1.2,"t":1.0,"c":0.0,"nc":0,"k":"19046_0057"}},{"type":"Feature","geometry":{"type":"Point","coordinates":[-100.26162,25.71221]},"properties":{"s":1.9,"a":1.3,"t":1.0,"c":0.0,"nc":0,"k":"19046_0057"}},{"type":"Feature","geometry":{"type":"Point","coordinates":[-100.26262,25.71221]},"properties":{"s":1.4,"a":1.7,"t":0.0,"c":0.0,"nc":0,"k":"19046_0057"}},{"type":"Feature","geometry":{"type":"Point","coordinates":[-100.26561,25.71402]},"properties":{"s":1.0,"a":1.2,"t":0.0,"c":0.0,"nc":0,"k":"19046_0057"}},{"type":"Feature","geometry":{"type":"Point","coordinates":[-100.2676,25.72216]},"properties":{"s":8.9,"a":8.7,"t":0.0,"c":0.0,"nc":0,"k":"19046_0021"}},{"type":"Feature","geometry":{"type":"Point","coordinates":[-100.2676,25.72126]},"properties":{"s":7.4,"a":7.3,"t":0.0,"c":0.0,"nc":0,"k":"19046_0021"}},{"type":"Feature","geometry":{"type":"Point","coordinates":[-100.2676,25.72307]},"properties":{"s":7.2,"a":7.1,"t":0.0,"c":0.0,"nc":0,"k":"19046_0021"}},{"type":"Feature","geometry":{"type":"Point","coordinates":[-100.2666,25.72216]},"properties":{"s":7.2,"a":7.1,"t":0.0,"c":0.0,"nc":0,"k":"19046_0021"}},{"type":"Feature","geometry":{"type":"Point","coordinates":[-100.2666,25.71945]},"properties":{"s":7.1,"a":4.0,"t":3.0,"c":0.0,"nc":0,"k":"19046_0021"}},{"type":"Feature","geometry":{"type":"Point","coordinates":[-100.2686,25.72126]},"properties":{"s":6.6,"a":6.5,"t":0.0,"c":0.0,"nc":0,"k":"19046_0021"}},{"type":"Feature","geometry":{"type":"Point","coordinates":[-100.2676,25.72035]},"properties":{"s":6.6,"a":6.5,"t":0.0,"c":0.0,"nc":0,"k":"19046_0021"}},{"type":"Feature","geometry":{"type":"Point","coordinates":[-100.2666,25.72126]},"properties":{"s":6.6,"a":6.5,"t":0.0,"c":0.0,"nc":0,"k":"19046_0021"}},{"type":"Feature","geometry":{"type":"Point","coordinates":[-100.2666,25.72307]},"properties":{"s":6.0,"a":5.8,"t":0.0,"c":0.0,"nc":0,"k":"19046_0021"}},{"type":"Feature","geometry":{"type":"Point","coordinates":[-100.2666,25.72397]},"properties":{"s":5.9,"a":5.8,"t":0.0,"c":0.0,"nc":0,"k":"19046_0021"}},{"type":"Feature","geometry":{"type":"Point","coordinates":[-100.2686,25.72216]},"properties":{"s":4.1,"a":4.1,"t":0.0,"c":0.0,"nc":0,"k":"19046_0021"}},{"type":"Feature","geometry":{"type":"Point","coordinates":[-100.2686,25.72035]},"properties":{"s":3.9,"a":3.8,"t":0.0,"c":0.0,"nc":0,"k":"19046_0021"}},{"type":"Feature","geometry":{"type":"Point","coordinates":[-100.26561,25.71945]},"properties":{"s":3.9,"a":1.8,"t":2.0,"c":0.0,"nc":0,"k":"19046_0021"}},{"type":"Feature","geometry":{"type":"Point","coordinates":[-100.2666,25.72035]},"properties":{"s":3.7,"a":3.6,"t":0.0,"c":0.0,"nc":0,"k":"19046_0021"}},{"type":"Feature","geometry":{"type":"Point","coordinates":[-100.26561,25.72216]},"properties":{"s":3.7,"a":3.6,"t":0.0,"c":0.0,"nc":0,"k":"19046_0021"}},{"type":"Feature","geometry":{"type":"Point","coordinates":[-100.26561,25.72307]},"properties":{"s":3.7,"a":3.6,"t":0.0,"c":0.0,"nc":0,"k":"19046_0021"}},{"type":"Feature","geometry":{"type":"Point","coordinates":[-100.26959,25.72126]},"properties":{"s":3.3,"a":3.2,"t":0.0,"c":0.0,"nc":0,"k":"19046_0021"}},{"type":"Feature","geometry":{"type":"Point","coordinates":[-100.2676,25.71945]},"properties":{"s":3.1,"a":3.0,"t":0.0,"c":0.0,"nc":0,"k":"19046_0021"}},{"type":"Feature","geometry":{"type":"Point","coordinates":[-100.2686,25.71945]},"properties":{"s":2.9,"a":2.9,"t":0.0,"c":0.0,"nc":0,"k":"19046_0021"}},{"type":"Feature","geometry":{"type":"Point","coordinates":[-100.26561,25.72126]},"properties":{"s":2.9,"a":2.9,"t":0.0,"c":0.0,"nc":0,"k":"19046_0021"}},{"type":"Feature","geometry":{"type":"Point","coordinates":[-100.26561,25.72035]},"properties":{"s":1.7,"a":1.7,"t":0.0,"c":0.0,"nc":0,"k":"19046_0021"}},{"type":"Feature","geometry":{"type":"Point","coordinates":[-100.27059,25.72126]},"properties":{"s":1.6,"a":1.6,"t":0.0,"c":0.0,"nc":0,"k":"19046_0021"}},{"type":"Feature","geometry":{"type":"Point","coordinates":[-100.2676,25.71855]},"properties":{"s":1.6,"a":1.6,"t":0.0,"c":0.0,"nc":0,"k":"19046_0021"}},{"type":"Feature","geometry":{"type":"Point","coordinates":[-100.26959,25.71945]},"properties":{"s":1.3,"a":1.2,"t":0.0,"c":0.0,"nc":0,"k":"19046_0021"}},{"type":"Feature","geometry":{"type":"Point","coordinates":[-100.26959,25.72035]},"properties":{"s":1.3,"a":1.2,"t":0.0,"c":0.0,"nc":0,"k":"19046_0021"}},{"type":"Feature","geometry":{"type":"Point","coordinates":[-100.2686,25.71855]},"properties":{"s":1.2,"a":1.2,"t":0.0,"c":0.0,"nc":0,"k":"19046_0021"}},{"type":"Feature","geometry":{"type":"Point","coordinates":[-100.26959,25.71764]},"properties":{"s":0.4,"a":0.4,"t":0.0,"c":0.0,"nc":0,"k":"19046_0021"}},{"type":"Feature","geometry":{"type":"Point","coordinates":[-100.26959,25.71855]},"properties":{"s":0.4,"a":0.4,"t":0.0,"c":0.0,"nc":0,"k":"19046_0021"}},{"type":"Feature","geometry":{"type":"Point","coordinates":[-100.2686,25.71764]},"properties":{"s":0.4,"a":0.4,"t":0.0,"c":0.0,"nc":0,"k":"19046_0021"}},{"type":"Feature","geometry":{"type":"Point","coordinates":[-100.25265,25.75654]},"properties":{"s":7.4,"a":7.5,"t":0.0,"c":0.0,"nc":0,"k":"19046_0300"}},{"type":"Feature","geometry":{"type":"Point","coordinates":[-100.25863,25.75292]},"properties":{"s":7.0,"a":7.1,"t":0.0,"c":0.0,"nc":0,"k":"19046_0300"}},{"type":"Feature","geometry":{"type":"Point","coordinates":[-100.25364,25.75654]},"properties":{"s":7.0,"a":7.1,"t":0.0,"c":0.0,"nc":0,"k":"19046_0300"}},{"type":"Feature","geometry":{"type":"Point","coordinates":[-100.25464,25.75745]},"properties":{"s":6.3,"a":6.4,"t":0.0,"c":0.0,"nc":0,"k":"19046_0300"}},{"type":"Feature","geometry":{"type":"Point","coordinates":[-100.25863,25.75383]},"properties":{"s":6.2,"a":6.3,"t":0.0,"c":0.0,"nc":0,"k":"19046_0300"}},{"type":"Feature","geometry":{"type":"Point","coordinates":[-100.25863,25.75654]},"properties":{"s":5.8,"a":5.9,"t":0.0,"c":0.0,"nc":0,"k":"19046_0300"}},{"type":"Feature","geometry":{"type":"Point","coordinates":[-100.25364,25.75745]},"properties":{"s":5.1,"a":5.2,"t":0.0,"c":0.0,"nc":0,"k":"19046_0300"}},{"type":"Feature","geometry":{"type":"Point","coordinates":[-100.25265,25.75745]},"properties":{"s":5.1,"a":5.2,"t":0.0,"c":0.0,"nc":0,"k":"19046_0300"}},{"type":"Feature","geometry":{"type":"Point","coordinates":[-100.25962,25.75383]},"properties":{"s":4.8,"a":4.9,"t":0.0,"c":0.0,"nc":0,"k":"19046_0300"}},{"type":"Feature","geometry":{"type":"Point","coordinates":[-100.25763,25.75654]},"properties":{"s":4.6,"a":4.7,"t":0.0,"c":0.0,"nc":0,"k":"19046_0300"}},{"type":"Feature","geometry":{"type":"Point","coordinates":[-100.25863,25.75564]},"properties":{"s":4.4,"a":4.5,"t":0.0,"c":0.0,"nc":0,"k":"19046_0300"}},{"type":"Feature","geometry":{"type":"Point","coordinates":[-100.25464,25.75654]},"properties":{"s":4.3,"a":4.3,"t":0.0,"c":0.0,"nc":0,"k":"19046_0300"}},{"type":"Feature","geometry":{"type":"Point","coordinates":[-100.25763,25.75745]},"properties":{"s":4.2,"a":4.2,"t":0.0,"c":0.0,"nc":0,"k":"19046_0300"}},{"type":"Feature","geometry":{"type":"Point","coordinates":[-100.25863,25.75473]},"properties":{"s":4.0,"a":4.1,"t":0.0,"c":0.0,"nc":0,"k":"19046_0300"}},{"type":"Feature","geometry":{"type":"Point","coordinates":[-100.25564,25.75745]},"properties":{"s":4.0,"a":4.1,"t":0.0,"c":0.0,"nc":0,"k":"19046_0300"}},{"type":"Feature","geometry":{"type":"Point","coordinates":[-100.26062,25.75835]},"properties":{"s":3.9,"a":3.9,"t":0.0,"c":0.0,"nc":0,"k":"19046_0300"}},{"type":"Feature","geometry":{"type":"Point","coordinates":[-100.25962,25.75835]},"properties":{"s":3.9,"a":3.9,"t":0.0,"c":0.0,"nc":0,"k":"19046_0300"}},{"type":"Feature","geometry":{"type":"Point","coordinates":[-100.25863,25.75745]},"properties":{"s":3.8,"a":3.8,"t":0.0,"c":0.0,"nc":0,"k":"19046_0300"}},{"type":"Feature","geometry":{"type":"Point","coordinates":[-100.25962,25.75654]},"properties":{"s":3.6,"a":3.6,"t":0.0,"c":0.0,"nc":0,"k":"19046_0300"}},{"type":"Feature","geometry":{"type":"Point","coordinates":[-100.25663,25.75654]},"properties":{"s":3.6,"a":3.6,"t":0.0,"c":0.0,"nc":0,"k":"19046_0300"}},{"type":"Feature","geometry":{"type":"Point","coordinates":[-100.25165,25.75745]},"properties":{"s":3.6,"a":3.6,"t":0.0,"c":0.0,"nc":0,"k":"19046_0300"}},{"type":"Feature","geometry":{"type":"Point","coordinates":[-100.25065,25.75564]},"properties":{"s":3.6,"a":3.6,"t":0.0,"c":0.0,"nc":0,"k":"19046_0300"}},{"type":"Feature","geometry":{"type":"Point","coordinates":[-100.25364,25.75564]},"properties":{"s":3.5,"a":3.5,"t":0.0,"c":0.0,"nc":0,"k":"19046_0300"}},{"type":"Feature","geometry":{"type":"Point","coordinates":[-100.25265,25.75564]},"properties":{"s":3.5,"a":3.5,"t":0.0,"c":0.0,"nc":0,"k":"19046_0300"}},{"type":"Feature","geometry":{"type":"Point","coordinates":[-100.25165,25.75564]},"properties":{"s":3.3,"a":3.3,"t":0.0,"c":0.0,"nc":0,"k":"19046_0300"}},{"type":"Feature","geometry":{"type":"Point","coordinates":[-100.25165,25.75654]},"properties":{"s":3.3,"a":3.3,"t":0.0,"c":0.0,"nc":0,"k":"19046_0300"}},{"type":"Feature","geometry":{"type":"Point","coordinates":[-100.26062,25.75383]},"properties":{"s":3.2,"a":3.2,"t":0.0,"c":0.0,"nc":0,"k":"19046_0300"}},{"type":"Feature","geometry":{"type":"Point","coordinates":[-100.25962,25.75564]},"properties":{"s":3.2,"a":3.2,"t":0.0,"c":0.0,"nc":0,"k":"19046_0300"}},{"type":"Feature","geometry":{"type":"Point","coordinates":[-100.25962,25.75745]},"properties":{"s":3.2,"a":3.2,"t":0.0,"c":0.0,"nc":0,"k":"19046_0300"}},{"type":"Feature","geometry":{"type":"Point","coordinates":[-100.25863,25.75835]},"properties":{"s":3.0,"a":3.0,"t":0.0,"c":0.0,"nc":0,"k":"19046_0300"}},{"type":"Feature","geometry":{"type":"Point","coordinates":[-100.26062,25.75745]},"properties":{"s":2.8,"a":2.8,"t":0.0,"c":0.0,"nc":0,"k":"19046_0300"}},{"type":"Feature","geometry":{"type":"Point","coordinates":[-100.25962,25.75473]},"properties":{"s":2.8,"a":2.8,"t":0.0,"c":0.0,"nc":0,"k":"19046_0300"}},{"type":"Feature","geometry":{"type":"Point","coordinates":[-100.25663,25.75745]},"properties":{"s":2.8,"a":2.9,"t":0.0,"c":0.0,"nc":0,"k":"19046_0300"}},{"type":"Feature","geometry":{"type":"Point","coordinates":[-100.25464,25.75835]},"properties":{"s":2.8,"a":2.9,"t":0.0,"c":0.0,"nc":0,"k":"19046_0300"}},{"type":"Feature","geometry":{"type":"Point","coordinates":[-100.25364,25.75835]},"properties":{"s":2.7,"a":2.7,"t":0.0,"c":0.0,"nc":0,"k":"19046_0300"}},{"type":"Feature","geometry":{"type":"Point","coordinates":[-100.25165,25.75383]},"properties":{"s":2.6,"a":2.6,"t":0.0,"c":0.0,"nc":0,"k":"19046_0300"}},{"type":"Feature","geometry":{"type":"Point","coordinates":[-100.25663,25.75835]},"properties":{"s":2.4,"a":2.4,"t":0.0,"c":0.0,"nc":0,"k":"19046_0300"}},{"type":"Feature","geometry":{"type":"Point","coordinates":[-100.25065,25.75473]},"properties":{"s":2.4,"a":2.4,"t":0.0,"c":0.0,"nc":0,"k":"19046_0300"}},{"type":"Feature","geometry":{"type":"Point","coordinates":[-100.25265,25.75473]},"properties":{"s":2.3,"a":2.3,"t":0.0,"c":0.0,"nc":0,"k":"19046_0300"}},{"type":"Feature","geometry":{"type":"Point","coordinates":[-100.25564,25.75654]},"properties":{"s":2.0,"a":2.0,"t":0.0,"c":0.0,"nc":0,"k":"19046_0300"}},{"type":"Feature","geometry":{"type":"Point","coordinates":[-100.25564,25.75835]},"properties":{"s":2.0,"a":2.0,"t":0.0,"c":0.0,"nc":0,"k":"19046_0300"}},{"type":"Feature","geometry":{"type":"Point","coordinates":[-100.26062,25.75473]},"properties":{"s":1.6,"a":1.6,"t":0.0,"c":0.0,"nc":0,"k":"19046_0300"}},{"type":"Feature","geometry":{"type":"Point","coordinates":[-100.26062,25.75564]},"properties":{"s":1.6,"a":1.6,"t":0.0,"c":0.0,"nc":0,"k":"19046_0300"}},{"type":"Feature","geometry":{"type":"Point","coordinates":[-100.26062,25.75654]},"properties":{"s":1.6,"a":1.6,"t":0.0,"c":0.0,"nc":0,"k":"19046_0300"}},{"type":"Feature","geometry":{"type":"Point","coordinates":[-100.25165,25.75473]},"properties":{"s":1.6,"a":1.6,"t":0.0,"c":0.0,"nc":0,"k":"19046_0300"}},{"type":"Feature","geometry":{"type":"Point","coordinates":[-100.25165,25.75835]},"properties":{"s":1.6,"a":1.6,"t":0.0,"c":0.0,"nc":0,"k":"19046_0300"}},{"type":"Feature","geometry":{"type":"Point","coordinates":[-100.25364,25.75473]},"properties":{"s":1.4,"a":1.4,"t":0.0,"c":0.0,"nc":0,"k":"19046_0300"}},{"type":"Feature","geometry":{"type":"Point","coordinates":[-100.26162,25.75745]},"properties":{"s":1.2,"a":1.2,"t":0.0,"c":0.0,"nc":0,"k":"19046_0300"}},{"type":"Feature","geometry":{"type":"Point","coordinates":[-100.25265,25.75835]},"properties":{"s":1.2,"a":1.2,"t":0.0,"c":0.0,"nc":0,"k":"19046_0300"}},{"type":"Feature","geometry":{"type":"Point","coordinates":[-100.27358,25.72759]},"properties":{"s":6.4,"a":7.4,"t":0.0,"c":0.0,"nc":0,"k":"19046_0036"}},{"type":"Feature","geometry":{"type":"Point","coordinates":[-100.27358,25.7294]},"properties":{"s":6.4,"a":6.5,"t":1.0,"c":0.0,"nc":0,"k":"19046_0036"}},{"type":"Feature","geometry":{"type":"Point","coordinates":[-100.27458,25.72759]},"properties":{"s":6.0,"a":7.0,"t":0.0,"c":0.0,"nc":0,"k":"19046_0036"}},{"type":"Feature","geometry":{"type":"Point","coordinates":[-100.27358,25.7285]},"properties":{"s":5.8,"a":6.8,"t":0.0,"c":0.0,"nc":0,"k":"19046_0036"}},{"type":"Feature","geometry":{"type":"Point","coordinates":[-100.27458,25.7285]},"properties":{"s":5.6,"a":5.6,"t":1.0,"c":0.0,"nc":0,"k":"19046_0036"}},{"type":"Feature","geometry":{"type":"Point","coordinates":[-100.27358,25.72669]},"properties":{"s":4.5,"a":5.2,"t":0.0,"c":0.0,"nc":0,"k":"19046_0036"}},{"type":"Feature","geometry":{"type":"Point","coordinates":[-100.27458,25.72669]},"properties":{"s":4.2,"a":4.8,"t":0.0,"c":0.0,"nc":0,"k":"19046_0036"}},{"type":"Feature","geometry":{"type":"Point","coordinates":[-100.2676,25.73031]},"properties":{"s":4.0,"a":5.1,"t":0.0,"c":0.4,"nc":1,"k":"19046_0036"}},{"type":"Feature","geometry":{"type":"Point","coordinates":[-100.2666,25.73031]},"properties":{"s":3.8,"a":4.5,"t":0.0,"c":0.0,"nc":0,"k":"19046_0036"}},{"type":"Feature","geometry":{"type":"Point","coordinates":[-100.2666,25.73121]},"properties":{"s":3.8,"a":4.5,"t":0.0,"c":0.0,"nc":0,"k":"19046_0036"}},{"type":"Feature","geometry":{"type":"Point","coordinates":[-100.27258,25.7294]},"properties":{"s":3.4,"a":4.5,"t":0.0,"c":0.5,"nc":1,"k":"19046_0036"}},{"type":"Feature","geometry":{"type":"Point","coordinates":[-100.2676,25.73121]},"properties":{"s":3.2,"a":4.1,"t":0.0,"c":0.3,"nc":1,"k":"19046_0036"}},{"type":"Feature","geometry":{"type":"Point","coordinates":[-100.27258,25.72759]},"properties":{"s":3.1,"a":3.6,"t":0.0,"c":0.0,"nc":0,"k":"19046_0036"}},{"type":"Feature","geometry":{"type":"Point","coordinates":[-100.26561,25.73121]},"properties":{"s":3.1,"a":3.6,"t":0.0,"c":0.0,"nc":0,"k":"19046_0036"}},{"type":"Feature","geometry":{"type":"Point","coordinates":[-100.26461,25.73121]},"properties":{"s":2.8,"a":3.2,"t":0.0,"c":0.0,"nc":0,"k":"19046_0036"}},{"type":"Feature","geometry":{"type":"Point","coordinates":[-100.27159,25.7285]},"properties":{"s":2.7,"a":3.6,"t":0.0,"c":0.5,"nc":1,"k":"19046_0036"}},{"type":"Feature","geometry":{"type":"Point","coordinates":[-100.27159,25.72759]},"properties":{"s":2.4,"a":2.8,"t":0.0,"c":0.0,"nc":0,"k":"19046_0036"}},{"type":"Feature","geometry":{"type":"Point","coordinates":[-100.26461,25.73212]},"properties":{"s":2.4,"a":2.8,"t":0.0,"c":0.0,"nc":0,"k":"19046_0036"}},{"type":"Feature","geometry":{"type":"Point","coordinates":[-100.27159,25.7294]},"properties":{"s":2.2,"a":4.1,"t":0.0,"c":1.5,"nc":1,"k":"19046_0036"}},{"type":"Feature","geometry":{"type":"Point","coordinates":[-100.27258,25.7285]},"properties":{"s":2.1,"a":2.4,"t":0.0,"c":0.0,"nc":0,"k":"19046_0036"}},{"type":"Feature","geometry":{"type":"Point","coordinates":[-100.26561,25.73031]},"properties":{"s":2.1,"a":2.4,"t":0.0,"c":0.0,"nc":0,"k":"19046_0036"}},{"type":"Feature","geometry":{"type":"Point","coordinates":[-100.26361,25.73121]},"properties":{"s":2.1,"a":2.4,"t":0.0,"c":0.0,"nc":0,"k":"19046_0036"}},{"type":"Feature","geometry":{"type":"Point","coordinates":[-100.2676,25.7294]},"properties":{"s":1.9,"a":2.2,"t":0.0,"c":0.0,"nc":1,"k":"19046_0036"}},{"type":"Feature","geometry":{"type":"Point","coordinates":[-100.27059,25.7285]},"properties":{"s":1.7,"a":2.8,"t":0.0,"c":0.9,"nc":1,"k":"19046_0036"}},{"type":"Feature","geometry":{"type":"Point","coordinates":[-100.27558,25.72759]},"properties":{"s":1.5,"a":1.8,"t":0.0,"c":0.0,"nc":0,"k":"19046_0036"}},{"type":"Feature","geometry":{"type":"Point","coordinates":[-100.26361,25.73212]},"properties":{"s":1.4,"a":1.6,"t":0.0,"c":0.0,"nc":0,"k":"19046_0036"}},{"type":"Feature","geometry":{"type":"Point","coordinates":[-100.27558,25.72669]},"properties":{"s":1.2,"a":1.4,"t":0.0,"c":0.0,"nc":0,"k":"19046_0036"}},{"type":"Feature","geometry":{"type":"Point","coordinates":[-100.27059,25.7294]},"properties":{"s":1.2,"a":3.6,"t":0.0,"c":2.2,"nc":1,"k":"19046_0036"}},{"type":"Feature","geometry":{"type":"Point","coordinates":[-100.26959,25.7294]},"properties":{"s":1.2,"a":3.4,"t":0.0,"c":2.0,"nc":1,"k":"19046_0036"}},{"type":"Feature","geometry":{"type":"Point","coordinates":[-100.2686,25.7294]},"properties":{"s":0.9,"a":2.2,"t":0.0,"c":1.2,"nc":1,"k":"19046_0036"}},{"type":"Feature","geometry":{"type":"Point","coordinates":[-100.2686,25.73031]},"properties":{"s":0.8,"a":2.6,"t":0.0,"c":1.7,"nc":1,"k":"19046_0036"}},{"type":"Feature","geometry":{"type":"Point","coordinates":[-100.26959,25.7285]},"properties":{"s":0.7,"a":1.6,"t":0.0,"c":0.8,"nc":1,"k":"19046_0036"}},{"type":"Feature","geometry":{"type":"Point","coordinates":[-100.27657,25.72578]},"properties":{"s":0.3,"a":0.4,"t":0.0,"c":0.0,"nc":0,"k":"19046_0036"}},{"type":"Feature","geometry":{"type":"Point","coordinates":[-100.26959,25.73031]},"properties":{"s":0.3,"a":3.4,"t":0.0,"c":3.0,"nc":1,"k":"19046_0036"}},{"type":"Feature","geometry":{"type":"Point","coordinates":[-100.27059,25.72488]},"properties":{"s":9.8,"a":8.8,"t":0.0,"c":0.0,"nc":0,"k":"19046_0207"}},{"type":"Feature","geometry":{"type":"Point","coordinates":[-100.26959,25.72578]},"properties":{"s":9.0,"a":8.0,"t":0.0,"c":0.0,"nc":0,"k":"19046_0207"}},{"type":"Feature","geometry":{"type":"Point","coordinates":[-100.26959,25.72488]},"properties":{"s":8.5,"a":7.6,"t":0.0,"c":0.0,"nc":0,"k":"19046_0207"}},{"type":"Feature","geometry":{"type":"Point","coordinates":[-100.27159,25.72397]},"properties":{"s":8.4,"a":7.5,"t":0.0,"c":0.0,"nc":0,"k":"19046_0207"}},{"type":"Feature","geometry":{"type":"Point","coordinates":[-100.27159,25.72488]},"properties":{"s":8.2,"a":7.4,"t":0.0,"c":0.0,"nc":0,"k":"19046_0207"}},{"type":"Feature","geometry":{"type":"Point","coordinates":[-100.27159,25.72578]},"properties":{"s":7.7,"a":6.9,"t":0.0,"c":0.0,"nc":0,"k":"19046_0207"}},{"type":"Feature","geometry":{"type":"Point","coordinates":[-100.27258,25.72397]},"properties":{"s":7.6,"a":6.8,"t":0.0,"c":0.0,"nc":0,"k":"19046_0207"}},{"type":"Feature","geometry":{"type":"Point","coordinates":[-100.27358,25.72488]},"properties":{"s":7.2,"a":6.4,"t":0.0,"c":0.0,"nc":0,"k":"19046_0207"}},{"type":"Feature","geometry":{"type":"Point","coordinates":[-100.27059,25.72578]},"properties":{"s":7.1,"a":6.3,"t":0.0,"c":0.0,"nc":0,"k":"19046_0207"}},{"type":"Feature","geometry":{"type":"Point","coordinates":[-100.27358,25.72578]},"properties":{"s":6.6,"a":5.9,"t":0.0,"c":0.0,"nc":0,"k":"19046_0207"}},{"type":"Feature","geometry":{"type":"Point","coordinates":[-100.27258,25.72488]},"properties":{"s":6.6,"a":5.9,"t":0.0,"c":0.0,"nc":0,"k":"19046_0207"}},{"type":"Feature","geometry":{"type":"Point","coordinates":[-100.27059,25.72669]},"properties":{"s":6.6,"a":5.9,"t":0.0,"c":0.0,"nc":0,"k":"19046_0207"}},{"type":"Feature","geometry":{"type":"Point","coordinates":[-100.27358,25.72397]},"properties":{"s":6.4,"a":5.8,"t":0.0,"c":0.0,"nc":0,"k":"19046_0207"}},{"type":"Feature","geometry":{"type":"Point","coordinates":[-100.27059,25.72397]},"properties":{"s":6.3,"a":5.7,"t":0.0,"c":0.0,"nc":0,"k":"19046_0207"}},{"type":"Feature","geometry":{"type":"Point","coordinates":[-100.27258,25.72578]},"properties":{"s":5.7,"a":5.1,"t":0.0,"c":0.0,"nc":0,"k":"19046_0207"}},{"type":"Feature","geometry":{"type":"Point","coordinates":[-100.27358,25.72307]},"properties":{"s":5.3,"a":4.8,"t":0.0,"c":0.0,"nc":0,"k":"19046_0207"}},{"type":"Feature","geometry":{"type":"Point","coordinates":[-100.27258,25.72307]},"properties":{"s":5.3,"a":4.8,"t":0.0,"c":0.0,"nc":0,"k":"19046_0207"}},{"type":"Feature","geometry":{"type":"Point","coordinates":[-100.2686,25.72488]},"properties":{"s":5.0,"a":4.5,"t":0.0,"c":0.0,"nc":0,"k":"19046_0207"}},{"type":"Feature","geometry":{"type":"Point","coordinates":[-100.2686,25.72578]},"properties":{"s":5.0,"a":4.5,"t":0.0,"c":0.0,"nc":0,"k":"19046_0207"}},{"type":"Feature","geometry":{"type":"Point","coordinates":[-100.26959,25.72669]},"properties":{"s":4.3,"a":3.8,"t":0.0,"c":0.0,"nc":0,"k":"19046_0207"}},{"type":"Feature","geometry":{"type":"Point","coordinates":[-100.2666,25.72669]},"properties":{"s":3.4,"a":3.0,"t":0.0,"c":0.0,"nc":0,"k":"19046_0207"}},{"type":"Feature","geometry":{"type":"Point","coordinates":[-100.2676,25.72669]},"properties":{"s":2.2,"a":2.0,"t":0.0,"c":0.0,"nc":0,"k":"19046_0207"}},{"type":"Feature","geometry":{"type":"Point","coordinates":[-100.2666,25.72578]},"properties":{"s":2.2,"a":2.0,"t":0.0,"c":0.0,"nc":0,"k":"19046_0207"}},{"type":"Feature","geometry":{"type":"Point","coordinates":[-100.2686,25.72669]},"properties":{"s":1.8,"a":1.6,"t":0.0,"c":0.0,"nc":0,"k":"19046_0207"}},{"type":"Feature","geometry":{"type":"Point","coordinates":[-100.2676,25.72578]},"properties":{"s":1.8,"a":1.6,"t":0.0,"c":0.0,"nc":0,"k":"19046_0207"}},{"type":"Feature","geometry":{"type":"Point","coordinates":[-100.27258,25.72669]},"properties":{"s":4.1,"a":5.1,"t":0.0,"c":0.0,"nc":0,"k":"19046_0147"}},{"type":"Feature","geometry":{"type":"Point","coordinates":[-100.27159,25.72669]},"properties":{"s":4.0,"a":4.9,"t":0.0,"c":0.0,"nc":0,"k":"19046_0147"}},{"type":"Feature","geometry":{"type":"Point","coordinates":[-100.27059,25.72759]},"properties":{"s":3.0,"a":3.6,"t":0.0,"c":0.0,"nc":0,"k":"19046_0147"}},{"type":"Feature","geometry":{"type":"Point","coordinates":[-100.2666,25.72759]},"properties":{"s":2.4,"a":3.0,"t":0.0,"c":0.0,"nc":0,"k":"19046_0147"}},{"type":"Feature","geometry":{"type":"Point","coordinates":[-100.26959,25.72759]},"properties":{"s":2.3,"a":2.9,"t":0.0,"c":0.0,"nc":0,"k":"19046_0147"}},{"type":"Feature","geometry":{"type":"Point","coordinates":[-100.2676,25.72759]},"properties":{"s":2.0,"a":2.4,"t":0.0,"c":0.0,"nc":0,"k":"19046_0147"}},{"type":"Feature","geometry":{"type":"Point","coordinates":[-100.2686,25.72759]},"properties":{"s":1.6,"a":2.0,"t":0.0,"c":0.0,"nc":0,"k":"19046_0147"}},{"type":"Feature","geometry":{"type":"Point","coordinates":[-100.2676,25.7285]},"properties":{"s":1.3,"a":1.6,"t":0.0,"c":0.0,"nc":0,"k":"19046_0147"}},{"type":"Feature","geometry":{"type":"Point","coordinates":[-100.2686,25.7285]},"properties":{"s":1.1,"a":1.6,"t":0.0,"c":0.2,"nc":1,"k":"19046_0147"}},{"type":"Feature","geometry":{"type":"Point","coordinates":[-100.2666,25.7285]},"properties":{"s":1.0,"a":1.2,"t":0.0,"c":0.0,"nc":0,"k":"19046_0147"}},{"type":"Feature","geometry":{"type":"Point","coordinates":[-100.2666,25.7294]},"properties":{"s":0.7,"a":0.8,"t":0.0,"c":0.0,"nc":0,"k":"19046_0147"}},{"type":"Feature","geometry":{"type":"Point","coordinates":[-100.24567,25.74116]},"properties":{"s":4.0,"a":7.6,"t":0.0,"c":2.8,"nc":1,"k":"19046_0292"}},{"type":"Feature","geometry":{"type":"Point","coordinates":[-100.24367,25.74388]},"properties":{"s":4.0,"a":2.2,"t":3.0,"c":0.3,"nc":1,"k":"19046_0292"}},{"type":"Feature","geometry":{"type":"Point","coordinates":[-100.24268,25.74116]},"properties":{"s":3.6,"a":4.5,"t":0.0,"c":0.1,"nc":1,"k":"19046_0292"}},{"type":"Feature","geometry":{"type":"Point","coordinates":[-100.24467,25.74207]},"properties":{"s":3.5,"a":7.3,"t":0.0,"c":3.0,"nc":1,"k":"19046_0292"}},{"type":"Feature","geometry":{"type":"Point","coordinates":[-100.24666,25.74116]},"properties":{"s":3.4,"a":6.1,"t":0.0,"c":2.0,"nc":1,"k":"19046_0292"}},{"type":"Feature","geometry":{"type":"Point","coordinates":[-100.24467,25.73935]},"properties":{"s":3.4,"a":4.1,"t":0.0,"c":0.0,"nc":1,"k":"19046_0292"}},{"type":"Feature","geometry":{"type":"Point","coordinates":[-100.24467,25.74026]},"properties":{"s":3.4,"a":5.3,"t":0.0,"c":1.3,"nc":1,"k":"19046_0292"}},{"type":"Feature","geometry":{"type":"Point","coordinates":[-100.24567,25.73935]},"properties":{"s":3.3,"a":4.1,"t":0.0,"c":0.1,"nc":1,"k":"19046_0292"}},{"type":"Feature","geometry":{"type":"Point","coordinates":[-100.24367,25.74207]},"properties":{"s":3.3,"a":5.7,"t":0.0,"c":1.6,"nc":1,"k":"19046_0292"}},{"type":"Feature","geometry":{"type":"Point","coordinates":[-100.24268,25.74026]},"properties":{"s":3.0,"a":3.6,"t":0.0,"c":0.0,"nc":0,"k":"19046_0292"}},{"type":"Feature","geometry":{"type":"Point","coordinates":[-100.24367,25.74026]},"properties":{"s":2.7,"a":3.8,"t":0.0,"c":0.6,"nc":1,"k":"19046_0292"}},{"type":"Feature","geometry":{"type":"Point","coordinates":[-100.24367,25.74116]},"properties":{"s":2.7,"a":4.7,"t":0.0,"c":1.4,"nc":1,"k":"19046_0292"}},{"type":"Feature","geometry":{"type":"Point","coordinates":[-100.24268,25.74207]},"properties":{"s":2.6,"a":3.4,"t":0.0,"c":0.3,"nc":1,"k":"19046_0292"}},{"type":"Feature","geometry":{"type":"Point","coordinates":[-100.24367,25.74297]},"properties":{"s":2.5,"a":4.2,"t":0.0,"c":1.2,"nc":1,"k":"19046_0292"}},{"type":"Feature","geometry":{"type":"Point","coordinates":[-100.24268,25.74297]},"properties":{"s":2.5,"a":3.0,"t":0.0,"c":0.0,"nc":1,"k":"19046_0292"}},{"type":"Feature","geometry":{"type":"Point","coordinates":[-100.23969,25.74116]},"properties":{"s":2.5,"a":0.0,"t":3.0,"c":0.0,"nc":0,"k":"19046_0292"}},{"type":"Feature","geometry":{"type":"Point","coordinates":[-100.24567,25.74026]},"properties":{"s":2.2,"a":4.1,"t":0.0,"c":1.5,"nc":1,"k":"19046_0292"}},{"type":"Feature","geometry":{"type":"Point","coordinates":[-100.24567,25.74207]},"properties":{"s":2.2,"a":6.3,"t":0.0,"c":3.6,"nc":1,"k":"19046_0292"}},{"type":"Feature","geometry":{"type":"Point","coordinates":[-100.24467,25.74116]},"properties":{"s":2.2,"a":5.1,"t":0.0,"c":2.4,"nc":1,"k":"19046_0292"}},{"type":"Feature","geometry":{"type":"Point","coordinates":[-100.24168,25.74116]},"properties":{"s":2.0,"a":2.4,"t":0.0,"c":0.0,"nc":0,"k":"19046_0292"}},{"type":"Feature","geometry":{"type":"Point","coordinates":[-100.24467,25.74297]},"properties":{"s":1.7,"a":4.2,"t":0.0,"c":2.2,"nc":1,"k":"19046_0292"}},{"type":"Feature","geometry":{"type":"Point","coordinates":[-100.24168,25.74026]},"properties":{"s":1.7,"a":2.0,"t":0.0,"c":0.0,"nc":0,"k":"19046_0292"}},{"type":"Feature","geometry":{"type":"Point","coordinates":[-100.24068,25.74116]},"properties":{"s":1.5,"a":0.8,"t":1.0,"c":0.0,"nc":0,"k":"19046_0292"}},{"type":"Feature","geometry":{"type":"Point","coordinates":[-100.24367,25.73935]},"properties":{"s":1.3,"a":1.6,"t":0.0,"c":0.0,"nc":0,"k":"19046_0292"}},{"type":"Feature","geometry":{"type":"Point","coordinates":[-100.24268,25.73935]},"properties":{"s":1.3,"a":1.6,"t":0.0,"c":0.0,"nc":0,"k":"19046_0292"}},{"type":"Feature","geometry":{"type":"Point","coordinates":[-100.24168,25.74207]},"properties":{"s":1.3,"a":1.6,"t":0.0,"c":0.0,"nc":0,"k":"19046_0292"}},{"type":"Feature","geometry":{"type":"Point","coordinates":[-100.24467,25.73845]},"properties":{"s":0.7,"a":0.8,"t":0.0,"c":0.0,"nc":0,"k":"19046_0292"}},{"type":"Feature","geometry":{"type":"Point","coordinates":[-100.24068,25.74026]},"properties":{"s":0.7,"a":0.8,"t":0.0,"c":0.0,"nc":0,"k":"19046_0292"}},{"type":"Feature","geometry":{"type":"Point","coordinates":[-100.25364,25.71674]},"properties":{"s":4.8,"a":5.1,"t":0.0,"c":0.0,"nc":0,"k":"19046_0052"}},{"type":"Feature","geometry":{"type":"Point","coordinates":[-100.25165,25.71945]},"properties":{"s":4.8,"a":2.0,"t":3.0,"c":0.0,"nc":0,"k":"19046_0052"}},{"type":"Feature","geometry":{"type":"Point","coordinates":[-100.25065,25.71674]},"properties":{"s":4.8,"a":1.0,"t":4.0,"c":0.0,"nc":0,"k":"19046_0052"}},{"type":"Feature","geometry":{"type":"Point","coordinates":[-100.25364,25.71764]},"properties":{"s":4.6,"a":4.9,"t":0.0,"c":0.0,"nc":0,"k":"19046_0052"}},{"type":"Feature","geometry":{"type":"Point","coordinates":[-100.25265,25.71764]},"properties":{"s":4.1,"a":4.2,"t":0.0,"c":0.0,"nc":0,"k":"19046_0052"}},{"type":"Feature","geometry":{"type":"Point","coordinates":[-100.25265,25.71855]},"properties":{"s":3.9,"a":4.1,"t":0.0,"c":0.0,"nc":0,"k":"19046_0052"}},{"type":"Feature","geometry":{"type":"Point","coordinates":[-100.25165,25.71674]},"properties":{"s":3.9,"a":4.0,"t":0.0,"c":0.0,"nc":0,"k":"19046_0052"}},{"type":"Feature","geometry":{"type":"Point","coordinates":[-100.25364,25.71493]},"properties":{"s":3.7,"a":3.9,"t":0.0,"c":0.0,"nc":0,"k":"19046_0052"}},{"type":"Feature","geometry":{"type":"Point","coordinates":[-100.25265,25.71674]},"properties":{"s":3.7,"a":3.8,"t":0.0,"c":0.0,"nc":0,"k":"19046_0052"}},{"type":"Feature","geometry":{"type":"Point","coordinates":[-100.25165,25.71764]},"properties":{"s":3.7,"a":3.8,"t":0.0,"c":0.0,"nc":0,"k":"19046_0052"}},{"type":"Feature","geometry":{"type":"Point","coordinates":[-100.25464,25.71674]},"properties":{"s":3.2,"a":3.4,"t":0.0,"c":0.0,"nc":0,"k":"19046_0052"}},{"type":"Feature","geometry":{"type":"Point","coordinates":[-100.25464,25.71764]},"properties":{"s":3.2,"a":3.4,"t":0.0,"c":0.0,"nc":0,"k":"19046_0052"}},{"type":"Feature","geometry":{"type":"Point","coordinates":[-100.25265,25.71945]},"properties":{"s":3.2,"a":3.4,"t":0.0,"c":0.0,"nc":0,"k":"19046_0052"}},{"type":"Feature","geometry":{"type":"Point","coordinates":[-100.25364,25.71583]},"properties":{"s":2.9,"a":3.0,"t":0.0,"c":0.0,"nc":0,"k":"19046_0052"}},{"type":"Feature","geometry":{"type":"Point","coordinates":[-100.25165,25.71855]},"properties":{"s":2.5,"a":1.6,"t":1.0,"c":0.0,"nc":0,"k":"19046_0052"}},{"type":"Feature","geometry":{"type":"Point","coordinates":[-100.25265,25.71583]},"properties":{"s":2.1,"a":2.2,"t":0.0,"c":0.0,"nc":0,"k":"19046_0052"}},{"type":"Feature","geometry":{"type":"Point","coordinates":[-100.25364,25.71855]},"properties":{"s":1.5,"a":1.6,"t":0.0,"c":0.0,"nc":0,"k":"19046_0052"}},{"type":"Feature","geometry":{"type":"Point","coordinates":[-100.25165,25.71583]},"properties":{"s":1.3,"a":0.4,"t":1.0,"c":0.0,"nc":0,"k":"19046_0052"}},{"type":"Feature","geometry":{"type":"Point","coordinates":[-100.26959,25.72397]},"properties":{"s":8.5,"a":7.4,"t":0.0,"c":0.0,"nc":0,"k":"19046_0080"}},{"type":"Feature","geometry":{"type":"Point","coordinates":[-100.27159,25.72307]},"properties":{"s":8.2,"a":7.1,"t":0.0,"c":0.0,"nc":0,"k":"19046_0080"}},{"type":"Feature","geometry":{"type":"Point","coordinates":[-100.2676,25.72397]},"properties":{"s":7.2,"a":6.2,"t":0.0,"c":0.0,"nc":0,"k":"19046_0080"}},{"type":"Feature","geometry":{"type":"Point","coordinates":[-100.27059,25.72307]},"properties":{"s":7.0,"a":6.1,"t":0.0,"c":0.0,"nc":0,"k":"19046_0080"}},{"type":"Feature","geometry":{"type":"Point","coordinates":[-100.26959,25.72307]},"properties":{"s":6.5,"a":5.7,"t":0.0,"c":0.0,"nc":0,"k":"19046_0080"}},{"type":"Feature","geometry":{"type":"Point","coordinates":[-100.2686,25.72397]},"properties":{"s":6.1,"a":5.3,"t":0.0,"c":0.0,"nc":0,"k":"19046_0080"}},{"type":"Feature","geometry":{"type":"Point","coordinates":[-100.27159,25.72216]},"properties":{"s":5.6,"a":4.9,"t":0.0,"c":0.0,"nc":0,"k":"19046_0080"}},{"type":"Feature","geometry":{"type":"Point","coordinates":[-100.2686,25.72307]},"properties":{"s":4.7,"a":4.1,"t":0.0,"c":0.0,"nc":0,"k":"19046_0080"}},{"type":"Feature","geometry":{"type":"Point","coordinates":[-100.2676,25.72488]},"properties":{"s":4.7,"a":4.1,"t":0.0,"c":0.0,"nc":0,"k":"19046_0080"}},{"type":"Feature","geometry":{"type":"Point","coordinates":[-100.27358,25.72216]},"properties":{"s":4.2,"a":3.6,"t":0.0,"c":0.0,"nc":0,"k":"19046_0080"}},{"type":"Feature","geometry":{"type":"Point","coordinates":[-100.27258,25.72216]},"properties":{"s":4.2,"a":3.6,"t":0.0,"c":0.0,"nc":0,"k":"19046_0080"}},{"type":"Feature","geometry":{"type":"Point","coordinates":[-100.26959,25.72216]},"properties":{"s":4.2,"a":3.6,"t":0.0,"c":0.0,"nc":0,"k":"19046_0080"}},{"type":"Feature","geometry":{"type":"Point","coordinates":[-100.27159,25.72126]},"properties":{"s":3.2,"a":2.8,"t":0.0,"c":0.0,"nc":0,"k":"19046_0080"}},{"type":"Feature","geometry":{"type":"Point","coordinates":[-100.27059,25.72216]},"properties":{"s":3.2,"a":2.8,"t":0.0,"c":0.0,"nc":0,"k":"19046_0080"}},{"type":"Feature","geometry":{"type":"Point","coordinates":[-100.27358,25.72126]},"properties":{"s":2.3,"a":2.0,"t":0.0,"c":0.0,"nc":0,"k":"19046_0080"}},{"type":"Feature","geometry":{"type":"Point","coordinates":[-100.27258,25.72126]},"properties":{"s":2.3,"a":2.0,"t":0.0,"c":0.0,"nc":0,"k":"19046_0080"}},{"type":"Feature","geometry":{"type":"Point","coordinates":[-100.27258,25.72035]},"properties":{"s":1.4,"a":1.2,"t":0.0,"c":0.0,"nc":0,"k":"19046_0080"}},{"type":"Feature","geometry":{"type":"Point","coordinates":[-100.27757,25.72307]},"properties":{"s":1.2,"a":3.4,"t":0.0,"c":1.4,"nc":2,"k":"19046_0187"}},{"type":"Feature","geometry":{"type":"Point","coordinates":[-100.27657,25.72216]},"properties":{"s":1.0,"a":2.2,"t":0.0,"c":0.5,"nc":1,"k":"19046_0187"}},{"type":"Feature","geometry":{"type":"Point","coordinates":[-100.27657,25.71945]},"properties":{"s":0.5,"a":1.4,"t":0.0,"c":0.6,"nc":1,"k":"19046_0187"}},{"type":"Feature","geometry":{"type":"Point","coordinates":[-100.27558,25.72216]},"properties":{"s":0.5,"a":0.8,"t":0.0,"c":0.0,"nc":0,"k":"19046_0187"}},{"type":"Feature","geometry":{"type":"Point","coordinates":[-100.27458,25.72126]},"properties":{"s":0.2,"a":0.4,"t":0.0,"c":0.0,"nc":0,"k":"19046_0187"}}]}