{"type":"FeatureCollection","features":[{"type":"Feature","geometry":{"type":"Point","coordinates":[-100.32543,25.73392]},"properties":{"n":"Agua 24 horas","s":"scout"}},{"type":"Feature","geometry":{"type":"Point","coordinates":[-100.32339,25.73582]},"properties":{"n":"Ultra pura water","s":"scout"}},{"type":"Feature","geometry":{"type":"Point","coordinates":[-100.33758,25.73944]},"properties":{"n":"Purificadora","s":"scout"}},{"type":"Feature","geometry":{"type":"Point","coordinates":[-100.37286,25.78152]},"properties":{"n":"X cric","s":"scout"}},{"type":"Feature","geometry":{"type":"Point","coordinates":[-100.37568,25.78319]},"properties":{"n":"Purificadora","s":"scout"}},{"type":"Feature","geometry":{"type":"Point","coordinates":[-100.35416,25.75479]},"properties":{"n":"Agua purificada","s":"scout"}},{"type":"Feature","geometry":{"type":"Point","coordinates":[-100.34382,25.7447]},"properties":{"n":"Agua purificada","s":"scout"}},{"type":"Feature","geometry":{"type":"Point","coordinates":[-100.29054,25.64753]},"properties":{"n":"Tec","s":"scout"}},{"type":"Feature","geometry":{"type":"Point","coordinates":[-100.30853,25.63833]},"properties":{"n":"Agya","s":"scout"}},{"type":"Feature","geometry":{"type":"Point","coordinates":[-100.37362,25.83579]},"properties":{"n":"Purificadora","s":"scout"}},{"type":"Feature","geometry":{"type":"Point","coordinates":[-100.37365,25.83913]},"properties":{"n":"Purificadora","s":"scout"}},{"type":"Feature","geometry":{"type":"Point","coordinates":[-100.37241,25.8375]},"properties":{"n":"Purificadora","s":"scout"}},{"type":"Feature","geometry":{"type":"Point","coordinates":[-100.37478,25.77573]},"properties":{"n":"Purificadora","s":"scout"}},{"type":"Feature","geometry":{"type":"Point","coordinates":[-100.37086,25.77123]},"properties":{"n":"Comp $20 recarga","s":"scout"}},{"type":"Feature","geometry":{"type":"Point","coordinates":[-100.37595,25.78381]},"properties":{"n":"Purificadora","s":"scout"}},{"type":"Feature","geometry":{"type":"Point","coordinates":[-100.3862,25.7751]},"properties":{"n":"AGUA ACUARIO","s":"denue"}},{"type":"Feature","geometry":{"type":"Point","coordinates":[-100.19474,25.77913]},"properties":{"n":"AGUA CLYVA","s":"denue"}},{"type":"Feature","geometry":{"type":"Point","coordinates":[-100.33082,25.66975]},"properties":{"n":"AGUA DE GALES","s":"denue"}},{"type":"Feature","geometry":{"type":"Point","coordinates":[-100.29252,25.66705]},"properties":{"n":"AGUA DE MANANTIAL DEL EDEN","s":"denue"}},{"type":"Feature","geometry":{"type":"Point","coordinates":[-100.32156,25.69128]},"properties":{"n":"AGUA DEL CIELO REGIO","s":"denue"}},{"type":"Feature","geometry":{"type":"Point","coordinates":[-100.24543,25.74196]},"properties":{"n":"AGUA EL PILON","s":"denue"}},{"type":"Feature","geometry":{"type":"Point","coordinates":[-100.01414,25.5714]},"properties":{"n":"AGUA INMACULADA","s":"denue"}},{"type":"Feature","geometry":{"type":"Point","coordinates":[-100.55922,25.79144]},"properties":{"n":"AGUA INMACULADA","s":"denue"}},{"type":"Feature","geometry":{"type":"Point","coordinates":[-100.0793,25.67583]},"properties":{"n":"AGUA INMACULADA","s":"denue"}},{"type":"Feature","geometry":{"type":"Point","coordinates":[-100.40259,25.75265]},"properties":{"n":"AGUA INMACULADA","s":"denue"}},{"type":"Feature","geometry":{"type":"Point","coordinates":[-100.39398,25.77512]},"properties":{"n":"AGUA INMACULADA","s":"denue"}},{"type":"Feature","geometry":{"type":"Point","coordinates":[-100.42938,25.78101]},"properties":{"n":"AGUA INMACULADA MITRAS PONIENTE","s":"denue"}},{"type":"Feature","geometry":{"type":"Point","coordinates":[-100.31263,25.76827]},"properties":{"n":"AGUA INMACULADA NEXXUS","s":"denue"}},{"type":"Feature","geometry":{"type":"Point","coordinates":[-100.02907,25.87791]},"properties":{"n":"AGUA LA NUEVA REGIA","s":"denue"}},{"type":"Feature","geometry":{"type":"Point","coordinates":[-100.16996,25.66119]},"properties":{"n":"AGUA PURA LA SILLA","s":"denue"}},{"type":"Feature","geometry":{"type":"Point","coordinates":[-100.39867,25.76903]},"properties":{"n":"AGUA PURIFICADA","s":"denue"}},{"type":"Feature","geometry":{"type":"Point","coordinates":[-100.19398,25.64255]},"properties":{"n":"AGUA PURIFICADA ACUAMAN","s":"denue"}},{"type":"Feature","geometry":{"type":"Point","coordinates":[-100.27868,25.72076]},"properties":{"n":"AGUA PURIFICADA ACUARIO","s":"denue"}},{"type":"Feature","geometry":{"type":"Point","coordinates":[-100.283,25.76471]},"properties":{"n":"AGUA PURIFICADA BLUE WATER","s":"denue"}},{"type":"Feature","geometry":{"type":"Point","coordinates":[-100.36937,25.72036]},"properties":{"n":"AGUA PURIFICADA CEDROS","s":"denue"}},{"type":"Feature","geometry":{"type":"Point","coordinates":[-100.17032,25.89526]},"properties":{"n":"AGUA PURIFICADA COOL GEYSTR","s":"denue"}},{"type":"Feature","geometry":{"type":"Point","coordinates":[-100.38246,25.72057]},"properties":{"n":"AGUA PURIFICADA CUMBRES","s":"denue"}},{"type":"Feature","geometry":{"type":"Point","coordinates":[-100.58774,25.80174]},"properties":{"n":"AGUA PURIFICADA DE LA VILLA","s":"denue"}},{"type":"Feature","geometry":{"type":"Point","coordinates":[-100.25951,25.82219]},"properties":{"n":"AGUA PURIFICADA EL MANANTIAL","s":"denue"}},{"type":"Feature","geometry":{"type":"Point","coordinates":[-100.01877,25.57297]},"properties":{"n":"AGUA PURIFICADA MADRIGAL","s":"denue"}},{"type":"Feature","geometry":{"type":"Point","coordinates":[-100.19648,25.78129]},"properties":{"n":"AGUA PURIFICADA MONTE RIO","s":"denue"}},{"type":"Feature","geometry":{"type":"Point","coordinates":[-100.16009,25.90347]},"properties":{"n":"AGUA PURIFICADA RICHWATE","s":"denue"}},{"type":"Feature","geometry":{"type":"Point","coordinates":[-100.30203,25.70825]},"properties":{"n":"AGUA PURIFICADA SIN NOMBRE","s":"denue"}},{"type":"Feature","geometry":{"type":"Point","coordinates":[-100.1623,25.89929]},"properties":{"n":"AGUA PURIFICADA UNIKA","s":"denue"}},{"type":"Feature","geometry":{"type":"Point","coordinates":[-100.21733,25.7425]},"properties":{"n":"AGUA PURIFICADA VEVEY","s":"denue"}},{"type":"Feature","geometry":{"type":"Point","coordinates":[-100.34654,25.69347]},"properties":{"n":"AGUA PURIFICADA VITARA","s":"denue"}},{"type":"Feature","geometry":{"type":"Point","coordinates":[-100.46007,25.66883]},"properties":{"n":"AGUA PURIFICADORA","s":"denue"}},{"type":"Feature","geometry":{"type":"Point","coordinates":[-100.40333,25.75419]},"properties":{"n":"AGUA PURIFICADORA CUMBRES","s":"denue"}},{"type":"Feature","geometry":{"type":"Point","coordinates":[-100.00665,25.60147]},"properties":{"n":"AGUA PURIFICADORA LA SUPREMA","s":"denue"}},{"type":"Feature","geometry":{"type":"Point","coordinates":[-100.45692,25.6599]},"properties":{"n":"AGUA SANTA","s":"denue"}},{"type":"Feature","geometry":{"type":"Point","coordinates":[-100.2952,25.67941]},"properties":{"n":"AGUA SOTELO","s":"denue"}},{"type":"Feature","geometry":{"type":"Point","coordinates":[-100.27206,25.75031]},"properties":{"n":"AGUAPLUS AGUA PURIFICADA","s":"denue"}},{"type":"Feature","geometry":{"type":"Point","coordinates":[-100.18472,25.77815]},"properties":{"n":"AQUA ONE","s":"denue"}},{"type":"Feature","geometry":{"type":"Point","coordinates":[-100.32598,25.67228]},"properties":{"n":"AQUA REY","s":"denue"}},{"type":"Feature","geometry":{"type":"Point","coordinates":[-100.27962,25.72248]},"properties":{"n":"AQUA VENDING","s":"denue"}},{"type":"Feature","geometry":{"type":"Point","coordinates":[-100.32083,25.7027]},"properties":{"n":"COMERZIALIZADORA GARDUÑO","s":"denue"}},{"type":"Feature","geometry":{"type":"Point","coordinates":[-100.29494,25.79354]},"properties":{"n":"DESARROLLO E INOVACION JC","s":"denue"}},{"type":"Feature","geometry":{"type":"Point","coordinates":[-100.37499,25.75187]},"properties":{"n":"DISTRIBUIDORA DE AGUA","s":"denue"}},{"type":"Feature","geometry":{"type":"Point","coordinates":[-100.21442,25.7078]},"properties":{"n":"EMBOLLETADORA PUREVITE","s":"denue"}},{"type":"Feature","geometry":{"type":"Point","coordinates":[-100.00498,25.58474]},"properties":{"n":"ESTACIONAMIENTO SIN NOMBRE","s":"denue"}},{"type":"Feature","geometry":{"type":"Point","coordinates":[-100.39455,25.75107]},"properties":{"n":"EVERLONG","s":"denue"}},{"type":"Feature","geometry":{"type":"Point","coordinates":[-100.30051,25.70573]},"properties":{"n":"EXPENDEDOR DE AGUA SIN NOMBRE","s":"denue"}},{"type":"Feature","geometry":{"type":"Point","coordinates":[-100.31327,25.69372]},"properties":{"n":"FINE WATER","s":"denue"}},{"type":"Feature","geometry":{"type":"Point","coordinates":[-100.38481,25.75237]},"properties":{"n":"FONTE NUEBA AGUA PURIFICADA","s":"denue"}},{"type":"Feature","geometry":{"type":"Point","coordinates":[-100.18932,25.78345]},"properties":{"n":"HIDRO VITA AGUA PURIFICADA","s":"denue"}},{"type":"Feature","geometry":{"type":"Point","coordinates":[-100.25514,25.81152]},"properties":{"n":"HIDROMAXI","s":"denue"}},{"type":"Feature","geometry":{"type":"Point","coordinates":[-100.44431,25.68262]},"properties":{"n":"IDRATARE FIT","s":"denue"}},{"type":"Feature","geometry":{"type":"Point","coordinates":[-100.29821,25.67533]},"properties":{"n":"KAWA AGUA PURIFICADA","s":"denue"}},{"type":"Feature","geometry":{"type":"Point","coordinates":[-100.19488,25.67991]},"properties":{"n":"LACERTAE","s":"denue"}},{"type":"Feature","geometry":{"type":"Point","coordinates":[-100.31094,25.70788]},"properties":{"n":"LAKE SUPPLY GROUP MONTERREY","s":"denue"}},{"type":"Feature","geometry":{"type":"Point","coordinates":[-100.38477,25.77321]},"properties":{"n":"MAQUILADORA DE AGUA","s":"denue"}},{"type":"Feature","geometry":{"type":"Point","coordinates":[-100.34325,25.71503]},"properties":{"n":"NATURAL DRINK","s":"denue"}},{"type":"Feature","geometry":{"type":"Point","coordinates":[-100.25442,25.69538]},"properties":{"n":"OLIMAR WATER","s":"denue"}},{"type":"Feature","geometry":{"type":"Point","coordinates":[-100.38681,25.7446]},"properties":{"n":"OXIPURA AGUA PURIFICADA","s":"denue"}},{"type":"Feature","geometry":{"type":"Point","coordinates":[-100.32905,25.7814]},"properties":{"n":"PROCESADORA DE AGUA PURIFICADA ISA","s":"denue"}},{"type":"Feature","geometry":{"type":"Point","coordinates":[-100.28611,25.74284]},"properties":{"n":"PURIFICADOR DE AGUA","s":"denue"}},{"type":"Feature","geometry":{"type":"Point","coordinates":[-99.98488,25.5911]},"properties":{"n":"PURIFICADORA","s":"denue"}},{"type":"Feature","geometry":{"type":"Point","coordinates":[-100.2661,25.78094]},"properties":{"n":"PURIFICADORA DE AGUA FRESH WATER","s":"denue"}},{"type":"Feature","geometry":{"type":"Point","coordinates":[-100.30662,25.8575]},"properties":{"n":"PURIFICADORA EDEN PURA","s":"denue"}},{"type":"Feature","geometry":{"type":"Point","coordinates":[-100.47725,25.75725]},"properties":{"n":"PURIFICADORA SANARIS","s":"denue"}},{"type":"Feature","geometry":{"type":"Point","coordinates":[-100.30231,25.75305]},"properties":{"n":"RAIN WATER","s":"denue"}},{"type":"Feature","geometry":{"type":"Point","coordinates":[-100.29376,25.74638]},"properties":{"n":"REGIO BLUE","s":"denue"}},{"type":"Feature","geometry":{"type":"Point","coordinates":[-100.30377,25.747]},"properties":{"n":"SAPPHIRE WATER AND ICE","s":"denue"}},{"type":"Feature","geometry":{"type":"Point","coordinates":[-100.56371,25.79835]},"properties":{"n":"SERVICIO DE ABASTECIMIENTO DE AGUA EN GARRAFONES AGUA INMACU","s":"denue"}},{"type":"Feature","geometry":{"type":"Point","coordinates":[-100.32924,25.70321]},"properties":{"n":"SERVICIOS INTEGRALES EU SOU A LENDA","s":"denue"}},{"type":"Feature","geometry":{"type":"Point","coordinates":[-100.33093,25.69803]},"properties":{"n":"UNO A UNO TALLER PROTEGIDO","s":"denue"}},{"type":"Feature","geometry":{"type":"Point","coordinates":[-100.38531,25.84513]},"properties":{"n":"VENTA DE AGUA EN GARRAFON SIN NOMBRE","s":"denue"}},{"type":"Feature","geometry":{"type":"Point","coordinates":[-100.29755,25.95886]},"properties":{"n":"VENTA DE AGUA EXTRAPURA","s":"denue"}},{"type":"Feature","geometry":{"type":"Point","coordinates":[-100.34099,25.71545]},"properties":{"n":"VODAPURA AGUA PURIFICADA","s":"denue"}},{"type":"Feature","geometry":{"type":"Point","coordinates":[-100.33292,25.70523]},"properties":{"n":"WATER HOUSE","s":"denue"}},{"type":"Feature","geometry":{"type":"Point","coordinates":[-100.16213,25.6796]},"properties":{"n":"\"Ultra Puré Water\" Agua Purificada 24 Hrs","s":"places"}},{"type":"Feature","geometry":{"type":"Point","coordinates":[-100.16432,25.68043]},"properties":{"n":"\"Ultra Puré Water\" Agua Purificada 24 Hrs","s":"places"}},{"type":"Feature","geometry":{"type":"Point","coordinates":[-100.28575,25.76425]},"properties":{"n":"24 Horas Agua Purificada","s":"places"}},{"type":"Feature","geometry":{"type":"Point","coordinates":[-100.28829,25.64702]},"properties":{"n":"24H²O Agua Purificada 24 horas","s":"places"}},{"type":"Feature","geometry":{"type":"Point","coordinates":[-100.25126,25.7757]},"properties":{"n":"AGUA Natural Lite PURIFICADA","s":"places"}},{"type":"Feature","geometry":{"type":"Point","coordinates":[-100.13246,25.75697]},"properties":{"n":"AGUA Nueva Purificada","s":"places"}},{"type":"Feature","geometry":{"type":"Point","coordinates":[-100.33377,25.79124]},"properties":{"n":"AGUA Nueva Purificada","s":"places"}},{"type":"Feature","geometry":{"type":"Point","coordinates":[-100.24189,25.75218]},"properties":{"n":"AGUA PURIFICADA","s":"places"}},{"type":"Feature","geometry":{"type":"Point","coordinates":[-100.19497,25.78224]},"properties":{"n":"AGUA PURIFICADA","s":"places"}},{"type":"Feature","geometry":{"type":"Point","coordinates":[-100.25122,25.78977]},"properties":{"n":"AGUA PURIFICADA","s":"places"}},{"type":"Feature","geometry":{"type":"Point","coordinates":[-100.25212,25.77895]},"properties":{"n":"AGUA PURIFICADA","s":"places"}},{"type":"Feature","geometry":{"type":"Point","coordinates":[-100.13601,25.85073]},"properties":{"n":"AGUA PURIFICADA","s":"places"}},{"type":"Feature","geometry":{"type":"Point","coordinates":[-100.28575,25.70105]},"properties":{"n":"AGUA PURIFICADA","s":"places"}},{"type":"Feature","geometry":{"type":"Point","coordinates":[-100.39255,25.75686]},"properties":{"n":"AGUA PURIFICADA","s":"places"}},{"type":"Feature","geometry":{"type":"Point","coordinates":[-100.14299,25.84427]},"properties":{"n":"AGUA PURIFICADA","s":"places"}},{"type":"Feature","geometry":{"type":"Point","coordinates":[-100.16559,25.65928]},"properties":{"n":"AGUA PURIFICADA","s":"places"}},{"type":"Feature","geometry":{"type":"Point","coordinates":[-100.22603,25.68421]},"properties":{"n":"AGUA PURIFICADA","s":"places"}},{"type":"Feature","geometry":{"type":"Point","coordinates":[-100.34931,25.72074]},"properties":{"n":"AGUA PURIFICADA","s":"places"}},{"type":"Feature","geometry":{"type":"Point","coordinates":[-100.24078,25.76015]},"properties":{"n":"AGUA PURIFICADA","s":"places"}},{"type":"Feature","geometry":{"type":"Point","coordinates":[-100.24987,25.78283]},"properties":{"n":"AGUA PURIFICADA","s":"places"}},{"type":"Feature","geometry":{"type":"Point","coordinates":[-100.23928,25.80013]},"properties":{"n":"AGUA PURIFICADA","s":"places"}},{"type":"Feature","geometry":{"type":"Point","coordinates":[-100.36367,25.72647]},"properties":{"n":"AGUA PURIFICADA","s":"places"}},{"type":"Feature","geometry":{"type":"Point","coordinates":[-100.25258,25.78879]},"properties":{"n":"AGUA PURIFICADA","s":"places"}},{"type":"Feature","geometry":{"type":"Point","coordinates":[-100.33474,25.69915]},"properties":{"n":"AGUA PURIFICADA","s":"places"}},{"type":"Feature","geometry":{"type":"Point","coordinates":[-100.24765,25.77577]},"properties":{"n":"AGUA PURIFICADA","s":"places"}},{"type":"Feature","geometry":{"type":"Point","coordinates":[-100.20883,25.65266]},"properties":{"n":"AGUA PURIFICADA","s":"places"}},{"type":"Feature","geometry":{"type":"Point","coordinates":[-100.49521,25.68413]},"properties":{"n":"AGUA PURIFICADA","s":"places"}},{"type":"Feature","geometry":{"type":"Point","coordinates":[-100.47998,25.67591]},"properties":{"n":"AGUA PURIFICADA \"GUMEN”","s":"places"}},{"type":"Feature","geometry":{"type":"Point","coordinates":[-100.34865,25.69431]},"properties":{"n":"AGUA PURIFICADA - Purificadora MUTUALISMO","s":"places"}},{"type":"Feature","geometry":{"type":"Point","coordinates":[-100.11925,25.62284]},"properties":{"n":"AGUA PURIFICADA - THE WATERPOWER 💪","s":"places"}},{"type":"Feature","geometry":{"type":"Point","coordinates":[-100.26459,25.76835]},"properties":{"n":"AGUA PURIFICADA 100 porciento EL OASIS","s":"places"}},{"type":"Feature","geometry":{"type":"Point","coordinates":[-100.26927,25.6775]},"properties":{"n":"AGUA PURIFICADA 24 HORAS","s":"places"}},{"type":"Feature","geometry":{"type":"Point","coordinates":[-100.25089,25.78139]},"properties":{"n":"AGUA PURIFICADA 24 HRS.","s":"places"}},{"type":"Feature","geometry":{"type":"Point","coordinates":[-100.09813,25.81957]},"properties":{"n":"AGUA PURIFICADA 24/HRS","s":"places"}},{"type":"Feature","geometry":{"type":"Point","coordinates":[-100.26125,25.77026]},"properties":{"n":"AGUA PURIFICADA 24H","s":"places"}},{"type":"Feature","geometry":{"type":"Point","coordinates":[-100.26226,25.6733]},"properties":{"n":"AGUA PURIFICADA 24HRS OLYMPIUM","s":"places"}},{"type":"Feature","geometry":{"type":"Point","coordinates":[-100.48719,25.80014]},"properties":{"n":"AGUA PURIFICADA 24HRS OLYMPIUM","s":"places"}},{"type":"Feature","geometry":{"type":"Point","coordinates":[-100.21382,25.71125]},"properties":{"n":"AGUA PURIFICADA BLUE WATER","s":"places"}},{"type":"Feature","geometry":{"type":"Point","coordinates":[-100.1892,25.66112]},"properties":{"n":"AGUA PURIFICADA CANTU 24 hrs","s":"places"}},{"type":"Feature","geometry":{"type":"Point","coordinates":[-100.26662,25.78811]},"properties":{"n":"AGUA PURIFICADA DE LA TORRE","s":"places"}},{"type":"Feature","geometry":{"type":"Point","coordinates":[-100.24374,25.72834]},"properties":{"n":"AGUA PURIFICADA DE LA TORRE","s":"places"}},{"type":"Feature","geometry":{"type":"Point","coordinates":[-100.25127,25.78811]},"properties":{"n":"AGUA PURIFICADA EL JARAL","s":"places"}},{"type":"Feature","geometry":{"type":"Point","coordinates":[-100.59026,25.79659]},"properties":{"n":"AGUA PURIFICADA GENESIS","s":"places"}},{"type":"Feature","geometry":{"type":"Point","coordinates":[-100.45814,25.69299]},"properties":{"n":"AGUA PURIFICADA LITEHOUSE","s":"places"}},{"type":"Feature","geometry":{"type":"Point","coordinates":[-100.32452,25.72192]},"properties":{"n":"AGUA PURIFICADA MANANTIAL","s":"places"}},{"type":"Feature","geometry":{"type":"Point","coordinates":[-100.09243,25.79492]},"properties":{"n":"AGUA PURIFICADA MAXIPURA","s":"places"}},{"type":"Feature","geometry":{"type":"Point","coordinates":[-100.29228,25.68662]},"properties":{"n":"AGUA PURIFICADA OLYMPIUM 24HRS","s":"places"}},{"type":"Feature","geometry":{"type":"Point","coordinates":[-100.29036,25.7406]},"properties":{"n":"AGUA PURIFICADA REGIA","s":"places"}},{"type":"Feature","geometry":{"type":"Point","coordinates":[-100.30069,25.76234]},"properties":{"n":"AGUA PURIFICADA REGIA","s":"places"}},{"type":"Feature","geometry":{"type":"Point","coordinates":[-100.3108,25.65595]},"properties":{"n":"AGUA PURIFICADA TEPEYAC","s":"places"}},{"type":"Feature","geometry":{"type":"Point","coordinates":[-100.33124,25.77938]},"properties":{"n":"AGUA PURIFICADA TREVIÑO","s":"places"}},{"type":"Feature","geometry":{"type":"Point","coordinates":[-100.43526,25.66554]},"properties":{"n":"AGUA PURIFICADA VITA CLEAN","s":"places"}},{"type":"Feature","geometry":{"type":"Point","coordinates":[-100.35622,25.71212]},"properties":{"n":"AGUA PURIFICADA Y ALCALINA","s":"places"}},{"type":"Feature","geometry":{"type":"Point","coordinates":[-100.33559,25.7835]},"properties":{"n":"AGUA PURIFICADA Y ALCALINA PROVILEON","s":"places"}},{"type":"Feature","geometry":{"type":"Point","coordinates":[-100.21379,25.69517]},"properties":{"n":"AGUA PURIFICADA y ALCALINA 24 HORAS","s":"places"}},{"type":"Feature","geometry":{"type":"Point","coordinates":[-100.23102,25.65964]},"properties":{"n":"AGUA PURIFICADA y ALCALINA 24 HORAS","s":"places"}},{"type":"Feature","geometry":{"type":"Point","coordinates":[-100.34416,25.69687]},"properties":{"n":"AGUA PURIFICADA ÓSMOSIS INVERSA MITRAS CENTRO","s":"places"}},{"type":"Feature","geometry":{"type":"Point","coordinates":[-100.47348,25.67585]},"properties":{"n":"AGua Purificada","s":"places"}},{"type":"Feature","geometry":{"type":"Point","coordinates":[-100.3613,25.74749]},"properties":{"n":"Agua Alcalina y Agua Purificada LA ÚNICA","s":"places"}},{"type":"Feature","geometry":{"type":"Point","coordinates":[-100.39001,25.72901]},"properties":{"n":"Agua Inmaculada Sucursal Cumbres Purificadora","s":"places"}},{"type":"Feature","geometry":{"type":"Point","coordinates":[-100.19643,25.72423]},"properties":{"n":"Agua Mart Planta de Agua Purificada","s":"places"}},{"type":"Feature","geometry":{"type":"Point","coordinates":[-100.27129,25.75833]},"properties":{"n":"Agua Natura Lite Purificada","s":"places"}},{"type":"Feature","geometry":{"type":"Point","coordinates":[-100.17056,25.62129]},"properties":{"n":"Agua Purificada","s":"places"}},{"type":"Feature","geometry":{"type":"Point","coordinates":[-100.19304,25.78096]},"properties":{"n":"Agua Purificada","s":"places"}},{"type":"Feature","geometry":{"type":"Point","coordinates":[-100.25261,25.79172]},"properties":{"n":"Agua Purificada","s":"places"}},{"type":"Feature","geometry":{"type":"Point","coordinates":[-100.27491,25.6105]},"properties":{"n":"Agua Purificada","s":"places"}},{"type":"Feature","geometry":{"type":"Point","coordinates":[-100.25262,25.79326]},"properties":{"n":"Agua Purificada","s":"places"}},{"type":"Feature","geometry":{"type":"Point","coordinates":[-100.12013,25.64185]},"properties":{"n":"Agua Purificada","s":"places"}},{"type":"Feature","geometry":{"type":"Point","coordinates":[-100.10495,25.64312]},"properties":{"n":"Agua Purificada","s":"places"}},{"type":"Feature","geometry":{"type":"Point","coordinates":[-100.21502,25.80191]},"properties":{"n":"Agua Purificada","s":"places"}},{"type":"Feature","geometry":{"type":"Point","coordinates":[-100.45898,25.67182]},"properties":{"n":"Agua Purificada","s":"places"}},{"type":"Feature","geometry":{"type":"Point","coordinates":[-100.17582,25.61572]},"properties":{"n":"Agua Purificada","s":"places"}},{"type":"Feature","geometry":{"type":"Point","coordinates":[-100.23459,25.79138]},"properties":{"n":"Agua Purificada","s":"places"}},{"type":"Feature","geometry":{"type":"Point","coordinates":[-100.45436,25.66983]},"properties":{"n":"Agua Purificada","s":"places"}},{"type":"Feature","geometry":{"type":"Point","coordinates":[-100.21632,25.6949]},"properties":{"n":"Agua Purificada","s":"places"}},{"type":"Feature","geometry":{"type":"Point","coordinates":[-100.09706,25.82352]},"properties":{"n":"Agua Purificada","s":"places"}},{"type":"Feature","geometry":{"type":"Point","coordinates":[-100.05633,25.78274]},"properties":{"n":"Agua Purificada","s":"places"}},{"type":"Feature","geometry":{"type":"Point","coordinates":[-100.29838,25.634]},"properties":{"n":"Agua Purificada","s":"places"}},{"type":"Feature","geometry":{"type":"Point","coordinates":[-100.196,25.65592]},"properties":{"n":"Agua Purificada","s":"places"}},{"type":"Feature","geometry":{"type":"Point","coordinates":[-100.30175,25.65736]},"properties":{"n":"Agua Purificada","s":"places"}},{"type":"Feature","geometry":{"type":"Point","coordinates":[-100.23247,25.81934]},"properties":{"n":"Agua Purificada","s":"places"}},{"type":"Feature","geometry":{"type":"Point","coordinates":[-100.06948,25.59874]},"properties":{"n":"Agua Purificada","s":"places"}},{"type":"Feature","geometry":{"type":"Point","coordinates":[-100.48485,25.67984]},"properties":{"n":"Agua Purificada","s":"places"}},{"type":"Feature","geometry":{"type":"Point","coordinates":[-100.23279,25.72983]},"properties":{"n":"Agua Purificada","s":"places"}},{"type":"Feature","geometry":{"type":"Point","coordinates":[-100.47071,25.78901]},"properties":{"n":"Agua Purificada","s":"places"}},{"type":"Feature","geometry":{"type":"Point","coordinates":[-100.36725,25.80741]},"properties":{"n":"Agua Purificada","s":"places"}},{"type":"Feature","geometry":{"type":"Point","coordinates":[-100.22558,25.80244]},"properties":{"n":"Agua Purificada","s":"places"}},{"type":"Feature","geometry":{"type":"Point","coordinates":[-100.56619,25.78828]},"properties":{"n":"Agua Purificada","s":"places"}},{"type":"Feature","geometry":{"type":"Point","coordinates":[-100.57079,25.78532]},"properties":{"n":"Agua Purificada","s":"places"}},{"type":"Feature","geometry":{"type":"Point","coordinates":[-100.25466,25.7239]},"properties":{"n":"Agua Purificada","s":"places"}},{"type":"Feature","geometry":{"type":"Point","coordinates":[-100.18377,25.66922]},"properties":{"n":"Agua Purificada","s":"places"}},{"type":"Feature","geometry":{"type":"Point","coordinates":[-100.27781,25.6931]},"properties":{"n":"Agua Purificada","s":"places"}},{"type":"Feature","geometry":{"type":"Point","coordinates":[-100.3119,25.6861]},"properties":{"n":"Agua Purificada","s":"places"}},{"type":"Feature","geometry":{"type":"Point","coordinates":[-100.38649,25.74067]},"properties":{"n":"Agua Purificada","s":"places"}},{"type":"Feature","geometry":{"type":"Point","coordinates":[-100.53958,25.82093]},"properties":{"n":"Agua Purificada","s":"places"}},{"type":"Feature","geometry":{"type":"Point","coordinates":[-100.09392,25.79742]},"properties":{"n":"Agua Purificada","s":"places"}},{"type":"Feature","geometry":{"type":"Point","coordinates":[-100.21752,25.82594]},"properties":{"n":"Agua Purificada","s":"places"}},{"type":"Feature","geometry":{"type":"Point","coordinates":[-100.24594,25.78432]},"properties":{"n":"Agua Purificada","s":"places"}},{"type":"Feature","geometry":{"type":"Point","coordinates":[-100.17706,25.62515]},"properties":{"n":"Agua Purificada","s":"places"}},{"type":"Feature","geometry":{"type":"Point","coordinates":[-100.3804,25.73243]},"properties":{"n":"Agua Purificada","s":"places"}},{"type":"Feature","geometry":{"type":"Point","coordinates":[-100.41778,25.68181]},"properties":{"n":"Agua Purificada","s":"places"}},{"type":"Feature","geometry":{"type":"Point","coordinates":[-100.47241,25.67157]},"properties":{"n":"Agua Purificada","s":"places"}},{"type":"Feature","geometry":{"type":"Point","coordinates":[-100.19224,25.66266]},"properties":{"n":"Agua Purificada","s":"places"}},{"type":"Feature","geometry":{"type":"Point","coordinates":[-100.58545,25.78438]},"properties":{"n":"Agua Purificada","s":"places"}},{"type":"Feature","geometry":{"type":"Point","coordinates":[-100.49383,25.69372]},"properties":{"n":"Agua Purificada","s":"places"}},{"type":"Feature","geometry":{"type":"Point","coordinates":[-100.16977,25.74272]},"properties":{"n":"Agua Purificada \"AQUA VIVA\"","s":"places"}},{"type":"Feature","geometry":{"type":"Point","coordinates":[-100.21048,25.68121]},"properties":{"n":"Agua Purificada \"AYAPURA\"","s":"places"}},{"type":"Feature","geometry":{"type":"Point","coordinates":[-100.34378,25.7454]},"properties":{"n":"Agua Purificada \"Doña Tina\"","s":"places"}},{"type":"Feature","geometry":{"type":"Point","coordinates":[-100.18484,25.65219]},"properties":{"n":"Agua Purificada \"La Fuente\"","s":"places"}},{"type":"Feature","geometry":{"type":"Point","coordinates":[-100.20249,25.69482]},"properties":{"n":"Agua Purificada \"La Fuente\"","s":"places"}},{"type":"Feature","geometry":{"type":"Point","coordinates":[-100.23661,25.67916]},"properties":{"n":"Agua Purificada \"La Fuente\"","s":"places"}},{"type":"Feature","geometry":{"type":"Point","coordinates":[-100.57851,25.78574]},"properties":{"n":"Agua Purificada \"La Purisima\"","s":"places"}},{"type":"Feature","geometry":{"type":"Point","coordinates":[-100.16037,25.75349]},"properties":{"n":"Agua Purificada - Aqua Norte","s":"places"}},{"type":"Feature","geometry":{"type":"Point","coordinates":[-100.39713,25.78281]},"properties":{"n":"Agua Purificada - AquaClyva Mty Barrio del Parque 24hr","s":"places"}},{"type":"Feature","geometry":{"type":"Point","coordinates":[-100.471,25.67569]},"properties":{"n":"Agua Purificada - Plaza Ordoñez","s":"places"}},{"type":"Feature","geometry":{"type":"Point","coordinates":[-100.41252,25.78035]},"properties":{"n":"Agua Purificada 24 Horas","s":"places"}},{"type":"Feature","geometry":{"type":"Point","coordinates":[-100.29069,25.62904]},"properties":{"n":"Agua Purificada 24 Horas (Hydro Expendedoras)","s":"places"}},{"type":"Feature","geometry":{"type":"Point","coordinates":[-100.11076,25.6432]},"properties":{"n":"Agua Purificada 24 Horas Clary Water","s":"places"}},{"type":"Feature","geometry":{"type":"Point","coordinates":[-100.26614,25.61117]},"properties":{"n":"Agua Purificada 24 horas","s":"places"}},{"type":"Feature","geometry":{"type":"Point","coordinates":[-100.4403,25.66677]},"properties":{"n":"Agua Purificada 24 horas","s":"places"}},{"type":"Feature","geometry":{"type":"Point","coordinates":[-100.25223,25.58951]},"properties":{"n":"Agua Purificada 24 horas","s":"places"}},{"type":"Feature","geometry":{"type":"Point","coordinates":[-100.24747,25.5884]},"properties":{"n":"Agua Purificada 24 horas (Hydro Expende)","s":"places"}},{"type":"Feature","geometry":{"type":"Point","coordinates":[-100.28224,25.63082]},"properties":{"n":"Agua Purificada 24 horas (Hydro Tech)","s":"places"}},{"type":"Feature","geometry":{"type":"Point","coordinates":[-100.39397,25.76812]},"properties":{"n":"Agua Purificada 24 horas Alicante Barrio San Carlos","s":"places"}},{"type":"Feature","geometry":{"type":"Point","coordinates":[-100.33149,25.76905]},"properties":{"n":"Agua Purificada 24 hrs.","s":"places"}},{"type":"Feature","geometry":{"type":"Point","coordinates":[-100.3153,25.86943]},"properties":{"n":"Agua Purificada 24/7","s":"places"}},{"type":"Feature","geometry":{"type":"Point","coordinates":[-100.38655,25.76245]},"properties":{"n":"Agua Purificada 24/7","s":"places"}},{"type":"Feature","geometry":{"type":"Point","coordinates":[-100.58947,25.79863]},"properties":{"n":"Agua Purificada 24H","s":"places"}},{"type":"Feature","geometry":{"type":"Point","coordinates":[-100.23581,25.67149]},"properties":{"n":"Agua Purificada 24HR","s":"places"}},{"type":"Feature","geometry":{"type":"Point","coordinates":[-100.48507,25.80289]},"properties":{"n":"Agua Purificada 24Hrs","s":"places"}},{"type":"Feature","geometry":{"type":"Point","coordinates":[-100.48386,25.7964]},"properties":{"n":"Agua Purificada 24Hrs","s":"places"}},{"type":"Feature","geometry":{"type":"Point","coordinates":[-100.09457,25.62211]},"properties":{"n":"Agua Purificada 24h","s":"places"}},{"type":"Feature","geometry":{"type":"Point","coordinates":[-100.23215,25.58135]},"properties":{"n":"Agua Purificada ALBIXA","s":"places"}},{"type":"Feature","geometry":{"type":"Point","coordinates":[-100.58202,25.78742]},"properties":{"n":"Agua Purificada AQUA CLYVA","s":"places"}},{"type":"Feature","geometry":{"type":"Point","coordinates":[-100.30957,25.65713]},"properties":{"n":"Agua Purificada AQUAClyva","s":"places"}},{"type":"Feature","geometry":{"type":"Point","coordinates":[-100.20963,25.70986]},"properties":{"n":"Agua Purificada ATLI","s":"places"}},{"type":"Feature","geometry":{"type":"Point","coordinates":[-100.32834,25.68201]},"properties":{"n":"Agua Purificada Achipagua","s":"places"}},{"type":"Feature","geometry":{"type":"Point","coordinates":[-100.29317,25.74518]},"properties":{"n":"Agua Purificada Acqua Viva","s":"places"}},{"type":"Feature","geometry":{"type":"Point","coordinates":[-100.23822,25.78353]},"properties":{"n":"Agua Purificada Aguamatic","s":"places"}},{"type":"Feature","geometry":{"type":"Point","coordinates":[-100.28256,25.66182]},"properties":{"n":"Agua Purificada Aqualisse","s":"places"}},{"type":"Feature","geometry":{"type":"Point","coordinates":[-100.1694,25.75084]},"properties":{"n":"Agua Purificada Aquamera","s":"places"}},{"type":"Feature","geometry":{"type":"Point","coordinates":[-100.31955,25.80269]},"properties":{"n":"Agua Purificada Babel","s":"places"}},{"type":"Feature","geometry":{"type":"Point","coordinates":[-100.27371,25.66944]},"properties":{"n":"Agua Purificada Buenos Aires","s":"places"}},{"type":"Feature","geometry":{"type":"Point","coordinates":[-100.19597,25.64465]},"properties":{"n":"Agua Purificada Bugambilias (Agua inmaculada)","s":"places"}},{"type":"Feature","geometry":{"type":"Point","coordinates":[-100.23043,25.71343]},"properties":{"n":"Agua Purificada Caliza","s":"places"}},{"type":"Feature","geometry":{"type":"Point","coordinates":[-100.23519,25.77872]},"properties":{"n":"Agua Purificada Chopo 1","s":"places"}},{"type":"Feature","geometry":{"type":"Point","coordinates":[-100.1027,25.66178]},"properties":{"n":"Agua Purificada Cloud's","s":"places"}},{"type":"Feature","geometry":{"type":"Point","coordinates":[-100.10972,25.6475]},"properties":{"n":"Agua Purificada Cloud's","s":"places"}},{"type":"Feature","geometry":{"type":"Point","coordinates":[-100.06208,25.62633]},"properties":{"n":"Agua Purificada Clouds","s":"places"}},{"type":"Feature","geometry":{"type":"Point","coordinates":[-100.39367,25.7318]},"properties":{"n":"Agua Purificada Cumbres","s":"places"}},{"type":"Feature","geometry":{"type":"Point","coordinates":[-100.27266,25.7646]},"properties":{"n":"Agua Purificada DAUA","s":"places"}},{"type":"Feature","geometry":{"type":"Point","coordinates":[-100.40942,25.79795]},"properties":{"n":"Agua Purificada DELACIMA","s":"places"}},{"type":"Feature","geometry":{"type":"Point","coordinates":[-100.09777,25.63463]},"properties":{"n":"Agua Purificada De La Torre.","s":"places"}},{"type":"Feature","geometry":{"type":"Point","coordinates":[-100.48533,25.67915]},"properties":{"n":"Agua Purificada Del Norte","s":"places"}},{"type":"Feature","geometry":{"type":"Point","coordinates":[-100.17587,25.71727]},"properties":{"n":"Agua Purificada EcoSmart Water","s":"places"}},{"type":"Feature","geometry":{"type":"Point","coordinates":[-100.1874,25.78875]},"properties":{"n":"Agua Purificada Ecopura","s":"places"}},{"type":"Feature","geometry":{"type":"Point","coordinates":[-100.32555,25.67245]},"properties":{"n":"Agua Purificada El Manantial (Relleno de garrafón)","s":"places"}},{"type":"Feature","geometry":{"type":"Point","coordinates":[-100.43437,25.78104]},"properties":{"n":"Agua Purificada Elite","s":"places"}},{"type":"Feature","geometry":{"type":"Point","coordinates":[-100.15889,25.70977]},"properties":{"n":"Agua Purificada Jr Elite","s":"places"}},{"type":"Feature","geometry":{"type":"Point","coordinates":[-100.17404,25.74746]},"properties":{"n":"Agua Purificada Jr Elite","s":"places"}},{"type":"Feature","geometry":{"type":"Point","coordinates":[-100.06119,25.79357]},"properties":{"n":"Agua Purificada Jr Elite","s":"places"}},{"type":"Feature","geometry":{"type":"Point","coordinates":[-100.17457,25.72592]},"properties":{"n":"Agua Purificada Jr Elite","s":"places"}},{"type":"Feature","geometry":{"type":"Point","coordinates":[-100.19472,25.73524]},"properties":{"n":"Agua Purificada Jr Elite","s":"places"}},{"type":"Feature","geometry":{"type":"Point","coordinates":[-100.17433,25.7271]},"properties":{"n":"Agua Purificada Jr Elite","s":"places"}},{"type":"Feature","geometry":{"type":"Point","coordinates":[-100.12634,25.62105]},"properties":{"n":"Agua Purificada KIPU 💦","s":"places"}},{"type":"Feature","geometry":{"type":"Point","coordinates":[-100.20635,25.65167]},"properties":{"n":"Agua Purificada LA SILLA","s":"places"}},{"type":"Feature","geometry":{"type":"Point","coordinates":[-100.28996,25.63418]},"properties":{"n":"Agua Purificada La Bendicion","s":"places"}},{"type":"Feature","geometry":{"type":"Point","coordinates":[-100.24298,25.77136]},"properties":{"n":"Agua Purificada La Mas Buena","s":"places"}},{"type":"Feature","geometry":{"type":"Point","coordinates":[-100.1925,25.77919]},"properties":{"n":"Agua Purificada La Perla","s":"places"}},{"type":"Feature","geometry":{"type":"Point","coordinates":[-100.25619,25.81564]},"properties":{"n":"Agua Purificada Los Amarantos","s":"places"}},{"type":"Feature","geometry":{"type":"Point","coordinates":[-100.14115,25.61671]},"properties":{"n":"Agua Purificada MONTE kRISTAL","s":"places"}},{"type":"Feature","geometry":{"type":"Point","coordinates":[-100.40662,25.79193]},"properties":{"n":"Agua Purificada Malabaristas 1313","s":"places"}},{"type":"Feature","geometry":{"type":"Point","coordinates":[-100.36915,25.71714]},"properties":{"n":"Agua Purificada Master Whater","s":"places"}},{"type":"Feature","geometry":{"type":"Point","coordinates":[-100.18316,25.78821]},"properties":{"n":"Agua Purificada Maxi Pura","s":"places"}},{"type":"Feature","geometry":{"type":"Point","coordinates":[-100.14154,25.83363]},"properties":{"n":"Agua Purificada Maxi Pura","s":"places"}},{"type":"Feature","geometry":{"type":"Point","coordinates":[-100.25032,25.78707]},"properties":{"n":"Agua Purificada Maxipura","s":"places"}},{"type":"Feature","geometry":{"type":"Point","coordinates":[-100.24721,25.78015]},"properties":{"n":"Agua Purificada Mega Regia","s":"places"}},{"type":"Feature","geometry":{"type":"Point","coordinates":[-100.2456,25.78237]},"properties":{"n":"Agua Purificada Mega Regia","s":"places"}},{"type":"Feature","geometry":{"type":"Point","coordinates":[-100.17338,25.7181]},"properties":{"n":"Agua Purificada NIAMVARE","s":"places"}},{"type":"Feature","geometry":{"type":"Point","coordinates":[-100.61795,25.8208]},"properties":{"n":"Agua Purificada Nápoles","s":"places"}},{"type":"Feature","geometry":{"type":"Point","coordinates":[-100.41857,25.68497]},"properties":{"n":"Agua Purificada Nápoles","s":"places"}},{"type":"Feature","geometry":{"type":"Point","coordinates":[-100.1346,25.64609]},"properties":{"n":"Agua Purificada PURISIMA","s":"places"}},{"type":"Feature","geometry":{"type":"Point","coordinates":[-100.16973,25.72683]},"properties":{"n":"Agua Purificada Pedregal","s":"places"}},{"type":"Feature","geometry":{"type":"Point","coordinates":[-100.28932,25.68667]},"properties":{"n":"Agua Purificada Purimatic","s":"places"}},{"type":"Feature","geometry":{"type":"Point","coordinates":[-100.33399,25.68592]},"properties":{"n":"Agua Purificada Purisima (Sucursal Madero)","s":"places"}},{"type":"Feature","geometry":{"type":"Point","coordinates":[-100.43281,25.76892]},"properties":{"n":"Agua Purificada RIQA - 24 hrs","s":"places"}},{"type":"Feature","geometry":{"type":"Point","coordinates":[-100.21877,25.81157]},"properties":{"n":"Agua Purificada Ray","s":"places"}},{"type":"Feature","geometry":{"type":"Point","coordinates":[-100.28716,25.76867]},"properties":{"n":"Agua Purificada Rosal Water","s":"places"}},{"type":"Feature","geometry":{"type":"Point","coordinates":[-100.16313,25.63551]},"properties":{"n":"Agua Purificada SAN FELIPE","s":"places"}},{"type":"Feature","geometry":{"type":"Point","coordinates":[-100.1981,25.74185]},"properties":{"n":"Agua Purificada SOLMAR","s":"places"}},{"type":"Feature","geometry":{"type":"Point","coordinates":[-100.30347,25.63669]},"properties":{"n":"Agua Purificada SYC","s":"places"}},{"type":"Feature","geometry":{"type":"Point","coordinates":[-100.14519,25.86248]},"properties":{"n":"Agua Purificada San Carlos","s":"places"}},{"type":"Feature","geometry":{"type":"Point","coordinates":[-100.08142,25.68814]},"properties":{"n":"Agua Purificada San Cristóbal 💧💧","s":"places"}},{"type":"Feature","geometry":{"type":"Point","coordinates":[-100.17426,25.72466]},"properties":{"n":"Agua Purificada San Lucas","s":"places"}},{"type":"Feature","geometry":{"type":"Point","coordinates":[-100.24682,25.76924]},"properties":{"n":"Agua Purificada San Miguelito","s":"places"}},{"type":"Feature","geometry":{"type":"Point","coordinates":[-100.45961,25.66493]},"properties":{"n":"Agua Purificada Tititi","s":"places"}},{"type":"Feature","geometry":{"type":"Point","coordinates":[-100.21732,25.74189]},"properties":{"n":"Agua Purificada Vevey - Osmopurificada y Alcalina","s":"places"}},{"type":"Feature","geometry":{"type":"Point","coordinates":[-100.28715,25.80991]},"properties":{"n":"Agua Purificada Water Blue","s":"places"}},{"type":"Feature","geometry":{"type":"Point","coordinates":[-100.29674,25.66015]},"properties":{"n":"Agua Purificada White Sky","s":"places"}},{"type":"Feature","geometry":{"type":"Point","coordinates":[-100.25623,25.78635]},"properties":{"n":"Agua Purificada Y Agua Alcalina Mega Water","s":"places"}},{"type":"Feature","geometry":{"type":"Point","coordinates":[-100.22857,25.71744]},"properties":{"n":"Agua Purificada Y Alcalina \"El Manantial\"","s":"places"}},{"type":"Feature","geometry":{"type":"Point","coordinates":[-100.23086,25.79135]},"properties":{"n":"Agua Purificada Zaofi","s":"places"}},{"type":"Feature","geometry":{"type":"Point","coordinates":[-100.55682,25.79085]},"properties":{"n":"Agua Purificada de la Torre","s":"places"}},{"type":"Feature","geometry":{"type":"Point","coordinates":[-100.2442,25.7975]},"properties":{"n":"Agua Purificada de la Torre","s":"places"}},{"type":"Feature","geometry":{"type":"Point","coordinates":[-100.2427,25.77972]},"properties":{"n":"Agua Purificada de la Torre","s":"places"}},{"type":"Feature","geometry":{"type":"Point","coordinates":[-100.28511,25.66753]},"properties":{"n":"Agua Purificada el Manantial (relleno de garrafón)","s":"places"}},{"type":"Feature","geometry":{"type":"Point","coordinates":[-100.40271,25.77706]},"properties":{"n":"Agua Purificada kristal Suc. Barrio Alameda","s":"places"}},{"type":"Feature","geometry":{"type":"Point","coordinates":[-100.23458,25.7272]},"properties":{"n":"Agua Purificada premium","s":"places"}},{"type":"Feature","geometry":{"type":"Point","coordinates":[-100.40373,25.75695]},"properties":{"n":"Agua Purificada y Alcalina","s":"places"}},{"type":"Feature","geometry":{"type":"Point","coordinates":[-100.14454,25.84039]},"properties":{"n":"Agua Purificada y Alcalina","s":"places"}},{"type":"Feature","geometry":{"type":"Point","coordinates":[-100.40685,25.77969]},"properties":{"n":"Agua Purificada y Alcalina","s":"places"}},{"type":"Feature","geometry":{"type":"Point","coordinates":[-100.29265,25.65]},"properties":{"n":"Agua Purificada y Alcalina","s":"places"}},{"type":"Feature","geometry":{"type":"Point","coordinates":[-100.34112,25.69791]},"properties":{"n":"Agua Purificada y Alcalina Gota Vital","s":"places"}},{"type":"Feature","geometry":{"type":"Point","coordinates":[-100.20426,25.64474]},"properties":{"n":"Agua Purificada y Alcalina the house of water","s":"places"}},{"type":"Feature","geometry":{"type":"Point","coordinates":[-100.17559,25.62948]},"properties":{"n":"Agua Purificada y Productos de Limpieza Santa Monica","s":"places"}},{"type":"Feature","geometry":{"type":"Point","coordinates":[-100.16651,25.62944]},"properties":{"n":"Agua Purificada | Ultra Pure Water","s":"places"}},{"type":"Feature","geometry":{"type":"Point","coordinates":[-100.17915,25.61676]},"properties":{"n":"Agua Purificada | Ultra Pure Water","s":"places"}},{"type":"Feature","geometry":{"type":"Point","coordinates":[-100.25296,25.75032]},"properties":{"n":"Agua Purificadora","s":"places"}},{"type":"Feature","geometry":{"type":"Point","coordinates":[-100.12048,25.64626]},"properties":{"n":"Agua Purificadora","s":"places"}},{"type":"Feature","geometry":{"type":"Point","coordinates":[-100.19098,25.63511]},"properties":{"n":"Agua Vital Purificada","s":"places"}},{"type":"Feature","geometry":{"type":"Point","coordinates":[-100.37186,25.73981]},"properties":{"n":"Agua del cielo","s":"places"}},{"type":"Feature","geometry":{"type":"Point","coordinates":[-100.17765,25.6185]},"properties":{"n":"Agua purificada","s":"places"}},{"type":"Feature","geometry":{"type":"Point","coordinates":[-100.18085,25.619]},"properties":{"n":"Agua purificada","s":"places"}},{"type":"Feature","geometry":{"type":"Point","coordinates":[-100.26486,25.61722]},"properties":{"n":"Agua purificada","s":"places"}},{"type":"Feature","geometry":{"type":"Point","coordinates":[-100.62015,25.81395]},"properties":{"n":"Agua purificada","s":"places"}},{"type":"Feature","geometry":{"type":"Point","coordinates":[-100.31733,25.77178]},"properties":{"n":"Agua purificada","s":"places"}},{"type":"Feature","geometry":{"type":"Point","coordinates":[-100.24623,25.81476]},"properties":{"n":"Agua purificada","s":"places"}},{"type":"Feature","geometry":{"type":"Point","coordinates":[-100.15657,25.66779]},"properties":{"n":"Agua purificada","s":"places"}},{"type":"Feature","geometry":{"type":"Point","coordinates":[-100.13752,25.61332]},"properties":{"n":"Agua purificada","s":"places"}},{"type":"Feature","geometry":{"type":"Point","coordinates":[-100.16373,25.67843]},"properties":{"n":"Agua purificada","s":"places"}},{"type":"Feature","geometry":{"type":"Point","coordinates":[-100.13787,25.61289]},"properties":{"n":"Agua purificada","s":"places"}},{"type":"Feature","geometry":{"type":"Point","coordinates":[-100.13975,25.83891]},"properties":{"n":"Agua purificada","s":"places"}},{"type":"Feature","geometry":{"type":"Point","coordinates":[-100.13397,25.62456]},"properties":{"n":"Agua purificada","s":"places"}},{"type":"Feature","geometry":{"type":"Point","coordinates":[-100.2443,25.77908]},"properties":{"n":"Agua purificada","s":"places"}},{"type":"Feature","geometry":{"type":"Point","coordinates":[-100.15944,25.63121]},"properties":{"n":"Agua purificada","s":"places"}},{"type":"Feature","geometry":{"type":"Point","coordinates":[-100.24187,25.79747]},"properties":{"n":"Agua purificada","s":"places"}},{"type":"Feature","geometry":{"type":"Point","coordinates":[-100.54289,25.8231]},"properties":{"n":"Agua purificada","s":"places"}},{"type":"Feature","geometry":{"type":"Point","coordinates":[-100.19209,25.64475]},"properties":{"n":"Agua purificada","s":"places"}},{"type":"Feature","geometry":{"type":"Point","coordinates":[-100.18931,25.64613]},"properties":{"n":"Agua purificada 24 horas","s":"places"}},{"type":"Feature","geometry":{"type":"Point","coordinates":[-100.43958,25.68816]},"properties":{"n":"Agua purificada 24 horas","s":"places"}},{"type":"Feature","geometry":{"type":"Point","coordinates":[-100.25393,25.79478]},"properties":{"n":"Agua purificada 24/7","s":"places"}},{"type":"Feature","geometry":{"type":"Point","coordinates":[-100.1716,25.61445]},"properties":{"n":"Agua purificada 24/7","s":"places"}},{"type":"Feature","geometry":{"type":"Point","coordinates":[-100.33671,25.73674]},"properties":{"n":"Agua purificada 24/7 EGUA","s":"places"}},{"type":"Feature","geometry":{"type":"Point","coordinates":[-100.31155,25.86261]},"properties":{"n":"Agua purificada 24h","s":"places"}},{"type":"Feature","geometry":{"type":"Point","coordinates":[-100.63606,25.80145]},"properties":{"n":"Agua purificada 24horas","s":"places"}},{"type":"Feature","geometry":{"type":"Point","coordinates":[-100.34612,25.71375]},"properties":{"n":"Agua purificada Acua Clyva","s":"places"}},{"type":"Feature","geometry":{"type":"Point","coordinates":[-100.17951,25.60488]},"properties":{"n":"Agua purificada Agua Zone","s":"places"}},{"type":"Feature","geometry":{"type":"Point","coordinates":[-100.12663,25.70551]},"properties":{"n":"Agua purificada Aqua Clyva Arbolada","s":"places"}},{"type":"Feature","geometry":{"type":"Point","coordinates":[-100.37536,25.72272]},"properties":{"n":"Agua purificada Aquaris","s":"places"}},{"type":"Feature","geometry":{"type":"Point","coordinates":[-100.43406,25.7789]},"properties":{"n":"Agua purificada Aquaris","s":"places"}},{"type":"Feature","geometry":{"type":"Point","coordinates":[-100.28617,25.7018]},"properties":{"n":"Agua purificada Despachador","s":"places"}},{"type":"Feature","geometry":{"type":"Point","coordinates":[-100.12285,25.6206]},"properties":{"n":"Agua purificada Dolce Aqua","s":"places"}},{"type":"Feature","geometry":{"type":"Point","coordinates":[-100.53038,25.79334]},"properties":{"n":"Agua purificada D’Vida","s":"places"}},{"type":"Feature","geometry":{"type":"Point","coordinates":[-100.1726,25.65539]},"properties":{"n":"Agua purificada El Vergel","s":"places"}},{"type":"Feature","geometry":{"type":"Point","coordinates":[-100.2973,25.79656]},"properties":{"n":"Agua purificada FM","s":"places"}},{"type":"Feature","geometry":{"type":"Point","coordinates":[-100.3574,25.73287]},"properties":{"n":"Agua purificada GV","s":"places"}},{"type":"Feature","geometry":{"type":"Point","coordinates":[-100.16933,25.7054]},"properties":{"n":"Agua purificada Inmaculada","s":"places"}},{"type":"Feature","geometry":{"type":"Point","coordinates":[-100.23052,25.66069]},"properties":{"n":"Agua purificada J-Fresh","s":"places"}},{"type":"Feature","geometry":{"type":"Point","coordinates":[-100.59393,25.79131]},"properties":{"n":"Agua purificada JOCA","s":"places"}},{"type":"Feature","geometry":{"type":"Point","coordinates":[-100.56927,25.78352]},"properties":{"n":"Agua purificada KIPU","s":"places"}},{"type":"Feature","geometry":{"type":"Point","coordinates":[-100.21619,25.80821]},"properties":{"n":"Agua purificada La Purísima","s":"places"}},{"type":"Feature","geometry":{"type":"Point","coordinates":[-100.08867,25.70834]},"properties":{"n":"Agua purificada Los Reyes","s":"places"}},{"type":"Feature","geometry":{"type":"Point","coordinates":[-100.30028,25.68928]},"properties":{"n":"Agua purificada Marth","s":"places"}},{"type":"Feature","geometry":{"type":"Point","coordinates":[-100.16356,25.75516]},"properties":{"n":"Agua purificada Master water","s":"places"}},{"type":"Feature","geometry":{"type":"Point","coordinates":[-100.07841,25.65711]},"properties":{"n":"Agua purificada Muzquiz","s":"places"}},{"type":"Feature","geometry":{"type":"Point","coordinates":[-100.07181,25.64582]},"properties":{"n":"Agua purificada Muzquiz 2","s":"places"}},{"type":"Feature","geometry":{"type":"Point","coordinates":[-100.58853,25.8204]},"properties":{"n":"Agua purificada Poseidón","s":"places"}},{"type":"Feature","geometry":{"type":"Point","coordinates":[-100.24196,25.72871]},"properties":{"n":"Agua purificada SOTO","s":"places"}},{"type":"Feature","geometry":{"type":"Point","coordinates":[-100.15131,25.75013]},"properties":{"n":"Agua purificada San Benito","s":"places"}},{"type":"Feature","geometry":{"type":"Point","coordinates":[-100.34339,25.79643]},"properties":{"n":"Agua purificada San Felipe","s":"places"}},{"type":"Feature","geometry":{"type":"Point","coordinates":[-100.40035,25.76836]},"properties":{"n":"Agua purificada cm","s":"places"}},{"type":"Feature","geometry":{"type":"Point","coordinates":[-100.50708,25.70445]},"properties":{"n":"Agua purificada de calidad","s":"places"}},{"type":"Feature","geometry":{"type":"Point","coordinates":[-100.3725,25.8048]},"properties":{"n":"Agua purificada el manantial","s":"places"}},{"type":"Feature","geometry":{"type":"Point","coordinates":[-100.3637,25.71953]},"properties":{"n":"Agua purificada elite","s":"places"}},{"type":"Feature","geometry":{"type":"Point","coordinates":[-100.40291,25.78247]},"properties":{"n":"Agua purificada elite","s":"places"}},{"type":"Feature","geometry":{"type":"Point","coordinates":[-100.25044,25.69929]},"properties":{"n":"Agua purificada garrafones","s":"places"}},{"type":"Feature","geometry":{"type":"Point","coordinates":[-100.23737,25.69754]},"properties":{"n":"Agua purificada garrafones","s":"places"}},{"type":"Feature","geometry":{"type":"Point","coordinates":[-100.39374,25.7981]},"properties":{"n":"Agua purificada kipu","s":"places"}},{"type":"Feature","geometry":{"type":"Point","coordinates":[-100.38117,25.77957]},"properties":{"n":"Agua purificada kristal Suc. Barrio Aztlan","s":"places"}},{"type":"Feature","geometry":{"type":"Point","coordinates":[-100.3776,25.77798]},"properties":{"n":"Agua purificada kristal Suc. Mirasol","s":"places"}},{"type":"Feature","geometry":{"type":"Point","coordinates":[-100.27312,25.71574]},"properties":{"n":"Agua purificada modigliani","s":"places"}},{"type":"Feature","geometry":{"type":"Point","coordinates":[-100.33127,25.80928]},"properties":{"n":"Agua purificada purisima","s":"places"}},{"type":"Feature","geometry":{"type":"Point","coordinates":[-100.36241,25.75127]},"properties":{"n":"Agua purificada purísima de San Martín","s":"places"}},{"type":"Feature","geometry":{"type":"Point","coordinates":[-100.13586,25.73882]},"properties":{"n":"Agua purificada relleno automatico","s":"places"}},{"type":"Feature","geometry":{"type":"Point","coordinates":[-100.18721,25.636]},"properties":{"n":"Agua purificada sky","s":"places"}},{"type":"Feature","geometry":{"type":"Point","coordinates":[-100.25072,25.71119]},"properties":{"n":"Agua purificada y alcalina","s":"places"}},{"type":"Feature","geometry":{"type":"Point","coordinates":[-100.13658,25.85836]},"properties":{"n":"Agua purificada y alcalina","s":"places"}},{"type":"Feature","geometry":{"type":"Point","coordinates":[-100.23794,25.72702]},"properties":{"n":"Agua purificada y alcalina las Flores","s":"places"}},{"type":"Feature","geometry":{"type":"Point","coordinates":[-100.26296,25.67206]},"properties":{"n":"Agua purificada y ozonizada","s":"places"}},{"type":"Feature","geometry":{"type":"Point","coordinates":[-100.38203,25.69393]},"properties":{"n":"AguaCielo","s":"places"}},{"type":"Feature","geometry":{"type":"Point","coordinates":[-100.18063,25.78193]},"properties":{"n":"AguaPurificada","s":"places"}},{"type":"Feature","geometry":{"type":"Point","coordinates":[-100.55667,25.79462]},"properties":{"n":"Aguas jass Purificadora","s":"places"}},{"type":"Feature","geometry":{"type":"Point","coordinates":[-100.53138,25.79069]},"properties":{"n":"Agus purificada 24/7","s":"places"}},{"type":"Feature","geometry":{"type":"Point","coordinates":[-100.34415,25.80346]},"properties":{"n":"AquaLuxe (Dispensador de Agua Purificada)","s":"places"}},{"type":"Feature","geometry":{"type":"Point","coordinates":[-100.28619,25.64496]},"properties":{"n":"Aquafon agua purificada","s":"places"}},{"type":"Feature","geometry":{"type":"Point","coordinates":[-100.27028,25.73058]},"properties":{"n":"Bevida agua purificada","s":"places"}},{"type":"Feature","geometry":{"type":"Point","coordinates":[-100.3066,25.65117]},"properties":{"n":"Bio-Erin Agua Purificada y Alcalina, Sistema Puritronic","s":"places"}},{"type":"Feature","geometry":{"type":"Point","coordinates":[-100.17009,25.60438]},"properties":{"n":"Centro De Llenado De Agua Purificada Jan Ibarra","s":"places"}},{"type":"Feature","geometry":{"type":"Point","coordinates":[-100.17246,25.65596]},"properties":{"n":"Chipinque Agua Purificada","s":"places"}},{"type":"Feature","geometry":{"type":"Point","coordinates":[-100.14943,25.61959]},"properties":{"n":"Clean Water (agua Purificada)","s":"places"}},{"type":"Feature","geometry":{"type":"Point","coordinates":[-100.40341,25.75457]},"properties":{"n":"Cumbres Agua Purificada","s":"places"}},{"type":"Feature","geometry":{"type":"Point","coordinates":[-100.13765,25.61671]},"properties":{"n":"DAYAT WATER Agua Purificada 24 hrs","s":"places"}},{"type":"Feature","geometry":{"type":"Point","coordinates":[-100.2808,25.62191]},"properties":{"n":"DROP AGUA PURIFICADA","s":"places"}},{"type":"Feature","geometry":{"type":"Point","coordinates":[-100.58709,25.80186]},"properties":{"n":"De La Villa - Agua Purificada","s":"places"}},{"type":"Feature","geometry":{"type":"Point","coordinates":[-100.46483,25.79731]},"properties":{"n":"Despachador de Agua Purificada \"Las Torres\"","s":"places"}},{"type":"Feature","geometry":{"type":"Point","coordinates":[-100.46532,25.79996]},"properties":{"n":"Despachador de Agua Purificada de San Agustín","s":"places"}},{"type":"Feature","geometry":{"type":"Point","coordinates":[-100.59439,25.77844]},"properties":{"n":"Despachador de agua purificada","s":"places"}},{"type":"Feature","geometry":{"type":"Point","coordinates":[-100.59476,25.77706]},"properties":{"n":"Despachador de agua purificada","s":"places"}},{"type":"Feature","geometry":{"type":"Point","coordinates":[-100.38762,25.80397]},"properties":{"n":"Despachadora de Agua Purificada MASTER WATER","s":"places"}},{"type":"Feature","geometry":{"type":"Point","coordinates":[-100.29794,25.76335]},"properties":{"n":"Despachadora de Agua Purificada Master Water","s":"places"}},{"type":"Feature","geometry":{"type":"Point","coordinates":[-100.11538,25.68846]},"properties":{"n":"Dispensador de Agua Purificada","s":"places"}},{"type":"Feature","geometry":{"type":"Point","coordinates":[-100.26603,25.70463]},"properties":{"n":"Dispensador de Agua Purificada","s":"places"}},{"type":"Feature","geometry":{"type":"Point","coordinates":[-100.49412,25.79178]},"properties":{"n":"Dispensador de agua purificada HC","s":"places"}},{"type":"Feature","geometry":{"type":"Point","coordinates":[-100.27468,25.66219]},"properties":{"n":"Dispensador de agua purificada Purísima","s":"places"}},{"type":"Feature","geometry":{"type":"Point","coordinates":[-100.10172,25.62942]},"properties":{"n":"Dispensador de agua purificada ROLO","s":"places"}},{"type":"Feature","geometry":{"type":"Point","coordinates":[-100.24186,25.72306]},"properties":{"n":"Dispensadora de Agua purificada Ecofresh","s":"places"}},{"type":"Feature","geometry":{"type":"Point","coordinates":[-100.2048,25.71101]},"properties":{"n":"Dispensadora de Agua purificada Ecofresh","s":"places"}},{"type":"Feature","geometry":{"type":"Point","coordinates":[-100.47441,25.79402]},"properties":{"n":"Dispensadora de agua Purificada HC 2","s":"places"}},{"type":"Feature","geometry":{"type":"Point","coordinates":[-100.3253,25.69157]},"properties":{"n":"Don Garrafón","s":"places"}},{"type":"Feature","geometry":{"type":"Point","coordinates":[-100.19865,25.74034]},"properties":{"n":"El Cantaro Purificadora","s":"places"}},{"type":"Feature","geometry":{"type":"Point","coordinates":[-100.22962,25.71]},"properties":{"n":"Elixir | Agua purificada","s":"places"}},{"type":"Feature","geometry":{"type":"Point","coordinates":[-100.27369,25.76274]},"properties":{"n":"Emmanuel Agua Purificada","s":"places"}},{"type":"Feature","geometry":{"type":"Point","coordinates":[-100.54074,25.80323]},"properties":{"n":"H2O Agua Purificada","s":"places"}},{"type":"Feature","geometry":{"type":"Point","coordinates":[-100.23927,25.66978]},"properties":{"n":"H2O Now - Agua Purificada y Alcalina","s":"places"}},{"type":"Feature","geometry":{"type":"Point","coordinates":[-100.18108,25.79117]},"properties":{"n":"HIDROMÁS Agua Purificada","s":"places"}},{"type":"Feature","geometry":{"type":"Point","coordinates":[-100.3903,25.7797]},"properties":{"n":"KRAKEN Agua purificada 24 horas Barrio Acero","s":"places"}},{"type":"Feature","geometry":{"type":"Point","coordinates":[-100.05888,25.60822]},"properties":{"n":"La sierrita agua purificada","s":"places"}},{"type":"Feature","geometry":{"type":"Point","coordinates":[-100.1781,25.6025]},"properties":{"n":"Los Chilos agua purificada","s":"places"}},{"type":"Feature","geometry":{"type":"Point","coordinates":[-100.25962,25.73884]},"properties":{"n":"Master Water - Agua Purificada","s":"places"}},{"type":"Feature","geometry":{"type":"Point","coordinates":[-100.32075,25.77771]},"properties":{"n":"Master Water Agua Purificada","s":"places"}},{"type":"Feature","geometry":{"type":"Point","coordinates":[-100.35012,25.71918]},"properties":{"n":"Masterwater Agua Purificada 24 hrs","s":"places"}},{"type":"Feature","geometry":{"type":"Point","coordinates":[-100.15723,25.67242]},"properties":{"n":"Megapura Agua Purificada","s":"places"}},{"type":"Feature","geometry":{"type":"Point","coordinates":[-100.35407,25.73463]},"properties":{"n":"Mi Aguita Agua Purificada","s":"places"}},{"type":"Feature","geometry":{"type":"Point","coordinates":[-100.38835,25.77631]},"properties":{"n":"Máquina de agua purificada","s":"places"}},{"type":"Feature","geometry":{"type":"Point","coordinates":[-100.34297,25.72611]},"properties":{"n":"New Sky Agua Purificada","s":"places"}},{"type":"Feature","geometry":{"type":"Point","coordinates":[-100.13963,25.84115]},"properties":{"n":"Oasis de agua purificada","s":"places"}},{"type":"Feature","geometry":{"type":"Point","coordinates":[-100.32655,25.77311]},"properties":{"n":"Osmopura Agua Purificada","s":"places"}},{"type":"Feature","geometry":{"type":"Point","coordinates":[-100.45074,25.69108]},"properties":{"n":"PURAGUA","s":"places"}},{"type":"Feature","geometry":{"type":"Point","coordinates":[-100.46543,25.69732]},"properties":{"n":"PURAGUA","s":"places"}},{"type":"Feature","geometry":{"type":"Point","coordinates":[-100.18247,25.77964]},"properties":{"n":"PURIFICADORA AQUA ONE","s":"places"}},{"type":"Feature","geometry":{"type":"Point","coordinates":[-100.23762,25.79034]},"properties":{"n":"PURIFICADORA DE AGUA","s":"places"}},{"type":"Feature","geometry":{"type":"Point","coordinates":[-100.185,25.72273]},"properties":{"n":"PURIFICADORA DE AGUA","s":"places"}},{"type":"Feature","geometry":{"type":"Point","coordinates":[-100.29144,25.7488]},"properties":{"n":"PURIFICADORA DE AGUA 24 HORAS","s":"places"}},{"type":"Feature","geometry":{"type":"Point","coordinates":[-100.3711,25.72808]},"properties":{"n":"PURIFICADORA DE AGUA 24 HORAS","s":"places"}},{"type":"Feature","geometry":{"type":"Point","coordinates":[-100.37832,25.83984]},"properties":{"n":"PURIFICADORA DE AGUA 24 hrs","s":"places"}},{"type":"Feature","geometry":{"type":"Point","coordinates":[-100.32881,25.66007]},"properties":{"n":"PURIFICADORA DE AGUA CASTELAR","s":"places"}},{"type":"Feature","geometry":{"type":"Point","coordinates":[-100.3771,25.79763]},"properties":{"n":"PURIFICADORA DE AGUA GOMSA","s":"places"}},{"type":"Feature","geometry":{"type":"Point","coordinates":[-100.60599,25.80207]},"properties":{"n":"PURIFICADORA EXPRES","s":"places"}},{"type":"Feature","geometry":{"type":"Point","coordinates":[-100.10695,25.81262]},"properties":{"n":"PURIFICADORA LAS ESTRELLAS","s":"places"}},{"type":"Feature","geometry":{"type":"Point","coordinates":[-100.40306,25.74972]},"properties":{"n":"PURIFICADORA PONIENTE","s":"places"}},{"type":"Feature","geometry":{"type":"Point","coordinates":[-100.13907,25.61624]},"properties":{"n":"PURIFICADORA SAN JOSE","s":"places"}},{"type":"Feature","geometry":{"type":"Point","coordinates":[-100.62979,25.82044]},"properties":{"n":"PURIFICADORA SANTA JULIA","s":"places"}},{"type":"Feature","geometry":{"type":"Point","coordinates":[-100.15808,25.62639]},"properties":{"n":"PURIFICADORA ULTRA PURE WATER (ALCALINA)","s":"places"}},{"type":"Feature","geometry":{"type":"Point","coordinates":[-100.10667,25.81197]},"properties":{"n":"Planta purificadora","s":"places"}},{"type":"Feature","geometry":{"type":"Point","coordinates":[-100.2875,25.64541]},"properties":{"n":"Purificadora","s":"places"}},{"type":"Feature","geometry":{"type":"Point","coordinates":[-100.3051,25.8573]},"properties":{"n":"Purificadora","s":"places"}},{"type":"Feature","geometry":{"type":"Point","coordinates":[-100.32219,25.6617]},"properties":{"n":"Purificadora","s":"places"}},{"type":"Feature","geometry":{"type":"Point","coordinates":[-100.5603,25.79001]},"properties":{"n":"Purificadora AESE","s":"places"}},{"type":"Feature","geometry":{"type":"Point","coordinates":[-100.08019,25.68877]},"properties":{"n":"Purificadora Agua Rey","s":"places"}},{"type":"Feature","geometry":{"type":"Point","coordinates":[-100.27082,25.75667]},"properties":{"n":"Purificadora Agua Zana-te","s":"places"}},{"type":"Feature","geometry":{"type":"Point","coordinates":[-100.13751,25.86401]},"properties":{"n":"Purificadora Aqua express 24 hrs.","s":"places"}},{"type":"Feature","geometry":{"type":"Point","coordinates":[-100.24614,25.77724]},"properties":{"n":"Purificadora Bernal","s":"places"}},{"type":"Feature","geometry":{"type":"Point","coordinates":[-100.17315,25.66274]},"properties":{"n":"Purificadora Casa Blanca","s":"places"}},{"type":"Feature","geometry":{"type":"Point","coordinates":[-100.2248,25.82987]},"properties":{"n":"Purificadora Cerezos","s":"places"}},{"type":"Feature","geometry":{"type":"Point","coordinates":[-100.11254,25.6994]},"properties":{"n":"Purificadora Cristal","s":"places"}},{"type":"Feature","geometry":{"type":"Point","coordinates":[-100.16777,25.70598]},"properties":{"n":"Purificadora De Agua Ultra Pure Water Bosques del Sol","s":"places"}},{"type":"Feature","geometry":{"type":"Point","coordinates":[-100.13293,25.66644]},"properties":{"n":"Purificadora De Agua Ultra Pure Water Camino Real Coahuila","s":"places"}},{"type":"Feature","geometry":{"type":"Point","coordinates":[-100.17592,25.72361]},"properties":{"n":"Purificadora De Agua Ultra Pure Water Roberto Espinoza","s":"places"}},{"type":"Feature","geometry":{"type":"Point","coordinates":[-100.18066,25.60725]},"properties":{"n":"Purificadora De Agua Ultra pure water Laderas De La Silla","s":"places"}},{"type":"Feature","geometry":{"type":"Point","coordinates":[-100.4165,25.83623]},"properties":{"n":"Purificadora De Agua Vistas Del Parque","s":"places"}},{"type":"Feature","geometry":{"type":"Point","coordinates":[-100.60476,25.8044]},"properties":{"n":"Purificadora El Regio","s":"places"}},{"type":"Feature","geometry":{"type":"Point","coordinates":[-100.19144,25.70394]},"properties":{"n":"Purificadora La Villa","s":"places"}},{"type":"Feature","geometry":{"type":"Point","coordinates":[-100.36655,25.71411]},"properties":{"n":"Purificadora Los Altos","s":"places"}},{"type":"Feature","geometry":{"type":"Point","coordinates":[-100.38802,25.78332]},"properties":{"n":"Purificadora Martinez","s":"places"}},{"type":"Feature","geometry":{"type":"Point","coordinates":[-100.37348,25.77796]},"properties":{"n":"Purificadora Martínez","s":"places"}},{"type":"Feature","geometry":{"type":"Point","coordinates":[-100.41282,25.6827]},"properties":{"n":"Purificadora Nápoles","s":"places"}},{"type":"Feature","geometry":{"type":"Point","coordinates":[-100.19456,25.86296]},"properties":{"n":"Purificadora OASIS","s":"places"}},{"type":"Feature","geometry":{"type":"Point","coordinates":[-100.08044,25.68978]},"properties":{"n":"Purificadora Purísima","s":"places"}},{"type":"Feature","geometry":{"type":"Point","coordinates":[-100.60635,25.76971]},"properties":{"n":"Purificadora Rio Yucon","s":"places"}},{"type":"Feature","geometry":{"type":"Point","coordinates":[-100.47697,25.75758]},"properties":{"n":"Purificadora SANARIS","s":"places"}},{"type":"Feature","geometry":{"type":"Point","coordinates":[-100.46486,25.70129]},"properties":{"n":"Purificadora Santa Clara Blue","s":"places"}},{"type":"Feature","geometry":{"type":"Point","coordinates":[-100.25805,25.74365]},"properties":{"n":"Purificadora Santo Domingo","s":"places"}},{"type":"Feature","geometry":{"type":"Point","coordinates":[-100.32406,25.78466]},"properties":{"n":"Purificadora Ultra Pure Water","s":"places"}},{"type":"Feature","geometry":{"type":"Point","coordinates":[-100.38202,25.7521]},"properties":{"n":"Purificadora Ultra Pure Water fomerrey 25","s":"places"}},{"type":"Feature","geometry":{"type":"Point","coordinates":[-100.05293,25.78236]},"properties":{"n":"Purificadora YaRegia","s":"places"}},{"type":"Feature","geometry":{"type":"Point","coordinates":[-100.40612,25.77384]},"properties":{"n":"Purificadora agua 100% purificada","s":"places"}},{"type":"Feature","geometry":{"type":"Point","coordinates":[-100.35611,25.74991]},"properties":{"n":"Purificadora agua suave","s":"places"}},{"type":"Feature","geometry":{"type":"Point","coordinates":[-100.16654,25.69967]},"properties":{"n":"Purificadora de Agua","s":"places"}},{"type":"Feature","geometry":{"type":"Point","coordinates":[-100.38038,25.77975]},"properties":{"n":"Purificadora de Agua","s":"places"}},{"type":"Feature","geometry":{"type":"Point","coordinates":[-100.17276,25.65063]},"properties":{"n":"Purificadora de Agua","s":"places"}},{"type":"Feature","geometry":{"type":"Point","coordinates":[-100.3537,25.74995]},"properties":{"n":"Purificadora de Agua","s":"places"}},{"type":"Feature","geometry":{"type":"Point","coordinates":[-100.22481,25.66474]},"properties":{"n":"Purificadora de Agua","s":"places"}},{"type":"Feature","geometry":{"type":"Point","coordinates":[-100.50623,25.70656]},"properties":{"n":"Purificadora de Agua","s":"places"}},{"type":"Feature","geometry":{"type":"Point","coordinates":[-100.5709,25.79076]},"properties":{"n":"Purificadora de Agua \"Aquua Pura\"","s":"places"}},{"type":"Feature","geometry":{"type":"Point","coordinates":[-100.50471,25.68457]},"properties":{"n":"Purificadora de Agua \"La Purita - IXTA \"","s":"places"}},{"type":"Feature","geometry":{"type":"Point","coordinates":[-100.28153,25.62928]},"properties":{"n":"Purificadora de Agua \"Santa Mónica\"","s":"places"}},{"type":"Feature","geometry":{"type":"Point","coordinates":[-100.21647,25.67896]},"properties":{"n":"Purificadora de Agua 24 HORAS","s":"places"}},{"type":"Feature","geometry":{"type":"Point","coordinates":[-100.36563,25.76267]},"properties":{"n":"Purificadora de Agua 24 hrs","s":"places"}},{"type":"Feature","geometry":{"type":"Point","coordinates":[-100.28544,25.68601]},"properties":{"n":"Purificadora de Agua 24 hrs AquaPure","s":"places"}},{"type":"Feature","geometry":{"type":"Point","coordinates":[-100.4121,25.79887]},"properties":{"n":"Purificadora de Agua 24hrs","s":"places"}},{"type":"Feature","geometry":{"type":"Point","coordinates":[-100.31751,25.76427]},"properties":{"n":"Purificadora de Agua @quaPura","s":"places"}},{"type":"Feature","geometry":{"type":"Point","coordinates":[-100.28857,25.69985]},"properties":{"n":"Purificadora de Agua AquaPura","s":"places"}},{"type":"Feature","geometry":{"type":"Point","coordinates":[-100.10053,25.75293]},"properties":{"n":"Purificadora de Agua Cantoral Segundo Sector","s":"places"}},{"type":"Feature","geometry":{"type":"Point","coordinates":[-100.09777,25.75036]},"properties":{"n":"Purificadora de Agua Cantoral Tercer Sector","s":"places"}},{"type":"Feature","geometry":{"type":"Point","coordinates":[-100.07741,25.62569]},"properties":{"n":"Purificadora de Agua Fuente de Piedra Segundo Sector","s":"places"}},{"type":"Feature","geometry":{"type":"Point","coordinates":[-100.10592,25.65165]},"properties":{"n":"Purificadora de Agua Jardines de la Fuente","s":"places"}},{"type":"Feature","geometry":{"type":"Point","coordinates":[-100.26303,25.78892]},"properties":{"n":"Purificadora de Agua La Silla","s":"places"}},{"type":"Feature","geometry":{"type":"Point","coordinates":[-100.10822,25.71357]},"properties":{"n":"Purificadora de Agua Madiba","s":"places"}},{"type":"Feature","geometry":{"type":"Point","coordinates":[-100.1529,25.74322]},"properties":{"n":"Purificadora de Agua Riberas de Huinalá","s":"places"}},{"type":"Feature","geometry":{"type":"Point","coordinates":[-100.08504,25.70738]},"properties":{"n":"Purificadora de Agua Sánchez","s":"places"}},{"type":"Feature","geometry":{"type":"Point","coordinates":[-100.32625,25.8048]},"properties":{"n":"Purificadora de Agua Torre 1","s":"places"}},{"type":"Feature","geometry":{"type":"Point","coordinates":[-100.14837,25.63586]},"properties":{"n":"Purificadora de Agua UPW Av. Casitas","s":"places"}},{"type":"Feature","geometry":{"type":"Point","coordinates":[-100.18835,25.71911]},"properties":{"n":"Purificadora de Agua Ultra Pure Water Lomas de San Miguel","s":"places"}},{"type":"Feature","geometry":{"type":"Point","coordinates":[-100.11525,25.63762]},"properties":{"n":"Purificadora de Agua Water of Grace","s":"places"}},{"type":"Feature","geometry":{"type":"Point","coordinates":[-100.55446,25.81295]},"properties":{"n":"Purificadora de Agua el Profe.","s":"places"}},{"type":"Feature","geometry":{"type":"Point","coordinates":[-100.16616,25.61165]},"properties":{"n":"Purificadora de agu","s":"places"}},{"type":"Feature","geometry":{"type":"Point","coordinates":[-100.16877,25.65617]},"properties":{"n":"Purificadora de agua","s":"places"}},{"type":"Feature","geometry":{"type":"Point","coordinates":[-100.25285,25.67877]},"properties":{"n":"Purificadora de agua","s":"places"}},{"type":"Feature","geometry":{"type":"Point","coordinates":[-100.38931,25.83157]},"properties":{"n":"Purificadora de agua","s":"places"}},{"type":"Feature","geometry":{"type":"Point","coordinates":[-100.50179,25.78072]},"properties":{"n":"Purificadora de agua","s":"places"}},{"type":"Feature","geometry":{"type":"Point","coordinates":[-100.16886,25.61111]},"properties":{"n":"Purificadora de agua","s":"places"}},{"type":"Feature","geometry":{"type":"Point","coordinates":[-100.15909,25.66747]},"properties":{"n":"Purificadora de agua","s":"places"}},{"type":"Feature","geometry":{"type":"Point","coordinates":[-100.45912,25.80075]},"properties":{"n":"Purificadora de agua","s":"places"}},{"type":"Feature","geometry":{"type":"Point","coordinates":[-100.34702,25.75]},"properties":{"n":"Purificadora de agua","s":"places"}},{"type":"Feature","geometry":{"type":"Point","coordinates":[-100.17899,25.73008]},"properties":{"n":"Purificadora de agua","s":"places"}},{"type":"Feature","geometry":{"type":"Point","coordinates":[-100.34059,25.79677]},"properties":{"n":"Purificadora de agua","s":"places"}},{"type":"Feature","geometry":{"type":"Point","coordinates":[-100.25086,25.67615]},"properties":{"n":"Purificadora de agua","s":"places"}},{"type":"Feature","geometry":{"type":"Point","coordinates":[-100.23703,25.78005]},"properties":{"n":"Purificadora de agua","s":"places"}},{"type":"Feature","geometry":{"type":"Point","coordinates":[-100.39557,25.7698]},"properties":{"n":"Purificadora de agua","s":"places"}},{"type":"Feature","geometry":{"type":"Point","coordinates":[-100.16489,25.63725]},"properties":{"n":"Purificadora de agua \"Purifica-Deras\"","s":"places"}},{"type":"Feature","geometry":{"type":"Point","coordinates":[-100.3885,25.73409]},"properties":{"n":"Purificadora de agua 24 horas","s":"places"}},{"type":"Feature","geometry":{"type":"Point","coordinates":[-100.32574,25.71942]},"properties":{"n":"Purificadora de agua 24 hrs","s":"places"}},{"type":"Feature","geometry":{"type":"Point","coordinates":[-100.30638,25.67609]},"properties":{"n":"Purificadora de agua 24 hrs Monterrey","s":"places"}},{"type":"Feature","geometry":{"type":"Point","coordinates":[-100.4599,25.66741]},"properties":{"n":"Purificadora de agua 24/7 Aqua","s":"places"}},{"type":"Feature","geometry":{"type":"Point","coordinates":[-100.39176,25.80164]},"properties":{"n":"Purificadora de agua 24horas","s":"places"}},{"type":"Feature","geometry":{"type":"Point","coordinates":[-100.42377,25.84335]},"properties":{"n":"Purificadora de agua AGUAZONE","s":"places"}},{"type":"Feature","geometry":{"type":"Point","coordinates":[-100.11898,25.8205]},"properties":{"n":"Purificadora de agua Aqua+","s":"places"}},{"type":"Feature","geometry":{"type":"Point","coordinates":[-100.34212,25.74478]},"properties":{"n":"Purificadora de agua AquaClyva","s":"places"}},{"type":"Feature","geometry":{"type":"Point","coordinates":[-100.58981,25.79326]},"properties":{"n":"Purificadora de agua Kmras","s":"places"}},{"type":"Feature","geometry":{"type":"Point","coordinates":[-100.26514,25.61841]},"properties":{"n":"Purificadora de agua San Angel","s":"places"}},{"type":"Feature","geometry":{"type":"Point","coordinates":[-100.15204,25.6218]},"properties":{"n":"Purificadora de agua Ultra Pure Water Camino a Monte Kristal","s":"places"}},{"type":"Feature","geometry":{"type":"Point","coordinates":[-100.23082,25.66454]},"properties":{"n":"Purificadora de agua Ultra Pure Water Vivienda Popular","s":"places"}},{"type":"Feature","geometry":{"type":"Point","coordinates":[-100.27943,25.6977]},"properties":{"n":"Purificadora de agua garrafones","s":"places"}},{"type":"Feature","geometry":{"type":"Point","coordinates":[-100.41904,25.79594]},"properties":{"n":"Purificadora de agua “Ultra pure water”","s":"places"}},{"type":"Feature","geometry":{"type":"Point","coordinates":[-100.58933,25.82457]},"properties":{"n":"Purificadora genesis","s":"places"}},{"type":"Feature","geometry":{"type":"Point","coordinates":[-100.19967,25.788]},"properties":{"n":"Purificadora josfra","s":"places"}},{"type":"Feature","geometry":{"type":"Point","coordinates":[-100.22501,25.71436]},"properties":{"n":"Purificadora la Silla Blass","s":"places"}},{"type":"Feature","geometry":{"type":"Point","coordinates":[-100.2825,25.69889]},"properties":{"n":"Purificadora la silla","s":"places"}},{"type":"Feature","geometry":{"type":"Point","coordinates":[-100.30616,25.78786]},"properties":{"n":"Purificadora ultra pure water haciendas","s":"places"}},{"type":"Feature","geometry":{"type":"Point","coordinates":[-100.26522,25.76424]},"properties":{"n":"Purificadora villa luz","s":"places"}},{"type":"Feature","geometry":{"type":"Point","coordinates":[-100.31862,25.78793]},"properties":{"n":"ROCA REGIA Agua purificada","s":"places"}},{"type":"Feature","geometry":{"type":"Point","coordinates":[-100.46997,25.67429]},"properties":{"n":"SmartWater Agua Purificada","s":"places"}},{"type":"Feature","geometry":{"type":"Point","coordinates":[-100.25163,25.75058]},"properties":{"n":"Torre de Agua Purificada Tlachicuerias","s":"places"}},{"type":"Feature","geometry":{"type":"Point","coordinates":[-100.23818,25.68154]},"properties":{"n":"Transpura Agua Purificada","s":"places"}},{"type":"Feature","geometry":{"type":"Point","coordinates":[-100.59248,25.77974]},"properties":{"n":"Vending de Agua Purificada MASTER WATER","s":"places"}},{"type":"Feature","geometry":{"type":"Point","coordinates":[-100.452,25.69767]},"properties":{"n":"Vending de Agua Purificada MASTER WATER","s":"places"}},{"type":"Feature","geometry":{"type":"Point","coordinates":[-100.37563,25.77459]},"properties":{"n":"Vending de Agua Purificada MASTER WATER","s":"places"}},{"type":"Feature","geometry":{"type":"Point","coordinates":[-100.57552,25.79005]},"properties":{"n":"Vending de Agua Repura","s":"places"}},{"type":"Feature","geometry":{"type":"Point","coordinates":[-100.32053,25.65993]},"properties":{"n":"Venta de agua purificada","s":"places"}},{"type":"Feature","geometry":{"type":"Point","coordinates":[-100.28081,25.7029]},"properties":{"n":"Vita Express Agua Purificada","s":"places"}},{"type":"Feature","geometry":{"type":"Point","coordinates":[-100.11637,25.63127]},"properties":{"n":"Water House \"Agua Purificada\"","s":"places"}},{"type":"Feature","geometry":{"type":"Point","coordinates":[-100.45937,25.69608]},"properties":{"n":"agua purificada","s":"places"}},{"type":"Feature","geometry":{"type":"Point","coordinates":[-100.30171,25.71038]},"properties":{"n":"agua purificada JAFI","s":"places"}},{"type":"Feature","geometry":{"type":"Point","coordinates":[-100.36232,25.85676]},"properties":{"n":"purificadora de agua","s":"places"}}]}