{"type":"FeatureCollection","metadata":{"fuente":"OpenStreetMap vía Overpass (overpass.private.coffee), ODbL","osm_base_timestamp":"2026-07-15T15:22:01Z","bbox":"25.52,-100.70,25.92,-100.00","dedupe_m":30,"nota":"indicativo; OSM subcuenta negocios de agua"},"features":[{"type":"Feature","geometry":{"type":"Point","coordinates":[-100.294542,25.649536]},"properties":{"osm":"node/1771697356","clase":"bebedero_publico","criterio":"amenity=drinking_water (grifo/fuente; NO competidor)","name":"","tags":{"amenity":"drinking_water"},"dist_competencia_v3_m":196.6,"nuevo_vs_v3_30m":false,"colonia_poligono":"","colonias_300m":[],"cve_300m":[]}},{"type":"Feature","geometry":{"type":"Point","coordinates":[-100.286009,25.680127]},"properties":{"osm":"node/1859153899","clase":"bebedero_publico","criterio":"amenity=drinking_water (grifo/fuente; NO competidor)","name":"","tags":{"amenity":"drinking_water"},"dist_competencia_v3_m":653.0,"nuevo_vs_v3_30m":false,"colonia_poligono":"","colonias_300m":[],"cve_300m":[]}},{"type":"Feature","geometry":{"type":"Point","coordinates":[-100.294095,25.672705]},"properties":{"osm":"node/2359695751","clase":"bebedero_publico","criterio":"amenity=drinking_water (grifo/fuente; NO competidor)","name":"","tags":{"amenity":"drinking_water"},"dist_competencia_v3_m":504.6,"nuevo_vs_v3_30m":false,"colonia_poligono":"","colonias_300m":[],"cve_300m":[]}},{"type":"Feature","geometry":{"type":"Point","coordinates":[-100.335299,25.598614]},"properties":{"osm":"node/2795657698","clase":"bebedero_publico","criterio":"amenity=drinking_water (grifo/fuente; NO competidor)","name":"","tags":{"amenity":"drinking_water","fee":"no","operator":"Reserva Natural Chipinque"},"dist_competencia_v3_m":5167.9,"nuevo_vs_v3_30m":false,"colonia_poligono":"","colonias_300m":[],"cve_300m":[]}},{"type":"Feature","geometry":{"type":"Point","coordinates":[-100.352334,25.608633]},"properties":{"osm":"node/2795684806","clase":"bebedero_publico","criterio":"amenity=drinking_water (grifo/fuente; NO competidor)","name":"","tags":{"amenity":"drinking_water"},"dist_competencia_v3_m":5505.9,"nuevo_vs_v3_30m":false,"colonia_poligono":"","colonias_300m":[],"cve_300m":[]}},{"type":"Feature","geometry":{"type":"Point","coordinates":[-100.282413,25.67844]},"properties":{"osm":"node/3786619606","clase":"descartado","criterio":"nombre coincide por regex pero no es venta de agua (hielo/aqua/motel/calle)","name":"Pista de Hielo Fundidora","tags":{},"dist_competencia_v3_m":890.4,"nuevo_vs_v3_30m":false,"colonia_poligono":"","colonias_300m":[],"cve_300m":[]}},{"type":"Feature","geometry":{"type":"Point","coordinates":[-100.259328,25.661595]},"properties":{"osm":"node/6395186135","clase":"competidor","criterio":"shop=water","name":"","tags":{"shop":"water"},"dist_competencia_v3_m":1213.2,"nuevo_vs_v3_30m":true,"colonia_poligono":"","colonias_300m":[],"cve_300m":[]}},{"type":"Feature","geometry":{"type":"Point","coordinates":[-100.194424,25.732512]},"properties":{"osm":"node/8454668620","clase":"bebedero_publico","criterio":"amenity=drinking_water (grifo/fuente; NO competidor)","name":"","tags":{"amenity":"drinking_water"},"dist_competencia_v3_m":303.1,"nuevo_vs_v3_30m":false,"colonia_poligono":"","colonias_300m":["Noria Norte"],"cve_300m":["19006_0310"]}},{"type":"Feature","geometry":{"type":"Point","coordinates":[-100.189014,25.737596]},"properties":{"osm":"node/8454668621","clase":"bebedero_publico","criterio":"amenity=drinking_water (grifo/fuente; NO competidor)","name":"","tags":{"amenity":"drinking_water"},"dist_competencia_v3_m":628.9,"nuevo_vs_v3_30m":false,"colonia_poligono":"Noria Norte","colonias_300m":["Noria Norte"],"cve_300m":["19006_0310"]}},{"type":"Feature","geometry":{"type":"Point","coordinates":[-100.195873,25.733902]},"properties":{"osm":"node/8454668718","clase":"bebedero_publico","criterio":"amenity=drinking_water (grifo/fuente; NO competidor)","name":"","tags":{"amenity":"drinking_water"},"dist_competencia_v3_m":187.8,"nuevo_vs_v3_30m":false,"colonia_poligono":"Noria Norte","colonias_300m":["Noria Norte"],"cve_300m":["19006_0310"]}},{"type":"Feature","geometry":{"type":"Point","coordinates":[-100.33305,25.652182]},"properties":{"osm":"node/9563360828","clase":"descartado","criterio":"nombre coincide por regex pero no es venta de agua (hielo/aqua/motel/calle)","name":"Live Aqua Urban Resort Monterrey","tags":{"brand":"Live Aqua Resorts"},"dist_competencia_v3_m":970.4,"nuevo_vs_v3_30m":false,"colonia_poligono":"","colonias_300m":["Independencia"],"cve_300m":["19039_0343"]}},{"type":"Feature","geometry":{"type":"Point","coordinates":[-100.392031,25.656519]},"properties":{"osm":"node/9826821914","clase":"bebedero_publico","criterio":"amenity=drinking_water (grifo/fuente; NO competidor)","name":"Grifo de Agua","tags":{"amenity":"drinking_water"},"dist_competencia_v3_m":3567.8,"nuevo_vs_v3_30m":false,"colonia_poligono":"","colonias_300m":[],"cve_300m":[]}},{"type":"Feature","geometry":{"type":"Point","coordinates":[-100.418305,25.662353]},"properties":{"osm":"node/9826855078","clase":"bebedero_publico","criterio":"amenity=drinking_water (grifo/fuente; NO competidor)","name":"Grifo de Agua","tags":{"amenity":"drinking_water"},"dist_competencia_v3_m":1736.8,"nuevo_vs_v3_30m":false,"colonia_poligono":"","colonias_300m":[],"cve_300m":[]}},{"type":"Feature","geometry":{"type":"Point","coordinates":[-100.389537,25.651922]},"properties":{"osm":"node/9826858421","clase":"bebedero_publico","criterio":"amenity=drinking_water (grifo/fuente; NO competidor)","name":"Parque Mirasierra","tags":{"amenity":"drinking_water"},"dist_competencia_v3_m":4127.5,"nuevo_vs_v3_30m":false,"colonia_poligono":"","colonias_300m":[],"cve_300m":[]}},{"type":"Feature","geometry":{"type":"Point","coordinates":[-100.434385,25.781132]},"properties":{"osm":"node/10810771827","clase":"competidor","criterio":"vending_machine agua","name":"Agua Purificada Elite","tags":{"amenity":"vending_machine","drink:water":"yes","vending":"drinks"},"dist_competencia_v3_m":10.3,"nuevo_vs_v3_30m":false,"colonia_poligono":"","colonias_300m":[],"cve_300m":[]}},{"type":"Feature","geometry":{"type":"Point","coordinates":[-100.344441,25.600145]},"properties":{"osm":"node/10970005384","clase":"bebedero_publico","criterio":"amenity=drinking_water (grifo/fuente; NO competidor)","name":"","tags":{"amenity":"drinking_water"},"dist_competencia_v3_m":5570.9,"nuevo_vs_v3_30m":false,"colonia_poligono":"","colonias_300m":[],"cve_300m":[]}},{"type":"Feature","geometry":{"type":"Point","coordinates":[-100.336463,25.596853]},"properties":{"osm":"node/10970005385","clase":"bebedero_publico","criterio":"amenity=drinking_water (grifo/fuente; NO competidor)","name":"","tags":{"amenity":"drinking_water","fee":"no","operator":"Reserva Natural Chipinque"},"dist_competencia_v3_m":5395.0,"nuevo_vs_v3_30m":false,"colonia_poligono":"","colonias_300m":[],"cve_300m":[]}},{"type":"Feature","geometry":{"type":"Point","coordinates":[-100.353877,25.606893]},"properties":{"osm":"node/11770329169","clase":"bebedero_publico","criterio":"amenity=drinking_water (grifo/fuente; NO competidor)","name":"","tags":{"amenity":"drinking_water"},"dist_competencia_v3_m":5745.4,"nuevo_vs_v3_30m":false,"colonia_poligono":"","colonias_300m":[],"cve_300m":[]}},{"type":"Feature","geometry":{"type":"Point","coordinates":[-100.344583,25.601562]},"properties":{"osm":"node/11770333169","clase":"bebedero_publico","criterio":"amenity=drinking_water (grifo/fuente; NO competidor)","name":"","tags":{"amenity":"drinking_water"},"dist_competencia_v3_m":5462.2,"nuevo_vs_v3_30m":false,"colonia_poligono":"","colonias_300m":[],"cve_300m":[]}},{"type":"Feature","geometry":{"type":"Point","coordinates":[-100.159502,25.734947]},"properties":{"osm":"node/12366979018","clase":"descartado","criterio":"nombre coincide por regex pero no es venta de agua (hielo/aqua/motel/calle)","name":"Rincon Del Hielo","tags":{},"dist_competencia_v3_m":1129.3,"nuevo_vs_v3_30m":false,"colonia_poligono":"","colonias_300m":[],"cve_300m":[]}},{"type":"Feature","geometry":{"type":"Point","coordinates":[-100.355693,25.607514]},"properties":{"osm":"node/13512745040","clase":"bebedero_publico","criterio":"amenity=drinking_water (grifo/fuente; NO competidor)","name":"","tags":{"amenity":"drinking_water","fee":"no","operator":"Reserva Natural Chipinque"},"dist_competencia_v3_m":5850.7,"nuevo_vs_v3_30m":false,"colonia_poligono":"","colonias_300m":[],"cve_300m":[]}},{"type":"Feature","geometry":{"type":"Point","coordinates":[-100.147847,25.859803]},"properties":{"osm":"node/13626122401","clase":"competidor","criterio":"nombre agua purificada","name":"Agua Purificada","tags":{"amenity":"drinking_water"},"dist_competencia_v3_m":398.3,"nuevo_vs_v3_30m":true,"colonia_poligono":"","colonias_300m":[],"cve_300m":[]}},{"type":"Feature","geometry":{"type":"Point","coordinates":[-100.310652,25.641547]},"properties":{"osm":"node/13915165758","clase":"competidor","criterio":"vending_machine agua","name":"Agua Purificada","tags":{"amenity":"vending_machine","vending":"water"},"dist_competencia_v3_m":409.0,"nuevo_vs_v3_30m":true,"colonia_poligono":"","colonias_300m":["Alfonso Reyes","La Altamira"],"cve_300m":["19039_0030","19039_0381"]}},{"type":"Feature","geometry":{"type":"Point","coordinates":[-100.365317,25.753714]},"properties":{"osm":"node/13923302338","clase":"descartado","criterio":"nombre coincide por regex pero no es venta de agua (hielo/aqua/motel/calle)","name":"Aqualebuas","tags":{},"dist_competencia_v3_m":397.6,"nuevo_vs_v3_30m":false,"colonia_poligono":"","colonias_300m":["San Martin"],"cve_300m":["19039_0684"]}},{"type":"Feature","geometry":{"type":"Point","coordinates":[-100.171269,25.693078]},"properties":{"osm":"way/187526862","clase":"descartado","criterio":"nombre coincide por regex pero no es venta de agua (hielo/aqua/motel/calle)","name":"Aqua Motel","tags":{},"dist_competencia_v3_m":869.7,"nuevo_vs_v3_30m":false,"colonia_poligono":"","colonias_300m":[],"cve_300m":[]}},{"type":"Feature","geometry":{"type":"Point","coordinates":[-100.230912,25.779169]},"properties":{"osm":"way/497715308","clase":"descartado","criterio":"nombre coincide por regex pero no es venta de agua (hielo/aqua/motel/calle)","name":"Calle Aqua Poniente","tags":{},"dist_competencia_v3_m":432.0,"nuevo_vs_v3_30m":false,"colonia_poligono":"","colonias_300m":[],"cve_300m":[]}},{"type":"Feature","geometry":{"type":"Point","coordinates":[-100.229237,25.779063]},"properties":{"osm":"way/497715309","clase":"descartado","criterio":"nombre coincide por regex pero no es venta de agua (hielo/aqua/motel/calle)","name":"Calle Aqua Oriente","tags":{},"dist_competencia_v3_m":598.3,"nuevo_vs_v3_30m":false,"colonia_poligono":"","colonias_300m":[],"cve_300m":[]}},{"type":"Feature","geometry":{"type":"Point","coordinates":[-100.461641,25.764526]},"properties":{"osm":"way/650533484","clase":"descartado","criterio":"nombre coincide por regex pero no es venta de agua (hielo/aqua/motel/calle)","name":"Provenza Aqua","tags":{},"dist_competencia_v3_m":1718.8,"nuevo_vs_v3_30m":false,"colonia_poligono":"","colonias_300m":[],"cve_300m":[]}},{"type":"Feature","geometry":{"type":"Point","coordinates":[-100.190009,25.728923]},"properties":{"osm":"way/1000307510","clase":"competidor","criterio":"shop=water","name":"","tags":{"shop":"water"},"dist_competencia_v3_m":827.1,"nuevo_vs_v3_30m":true,"colonia_poligono":"","colonias_300m":["Noria Norte","Cañada Blanca"],"cve_300m":["19006_0310","19026_0072"]}},{"type":"Feature","geometry":{"type":"Point","coordinates":[-100.344367,25.795145]},"properties":{"osm":"way/1056798363","clase":"competidor","criterio":"shop=water","name":"The Water House","tags":{"shop":"water"},"dist_competencia_v3_m":172.6,"nuevo_vs_v3_30m":true,"colonia_poligono":"","colonias_300m":[],"cve_300m":[]}}]}