{"type":"FeatureCollection","features":[{"type":"Feature","geometry":{"type":"Point","coordinates":[-100.33279,25.73322]},"properties":{"k":"express","n":"Express"}},{"type":"Feature","geometry":{"type":"Point","coordinates":[-100.33215,25.73693]},"properties":{"k":"modelorama","n":"Modelorama"}},{"type":"Feature","geometry":{"type":"Point","coordinates":[-100.33093,25.73599]},"properties":{"k":"escuela","n":"Escuela"}},{"type":"Feature","geometry":{"type":"Point","coordinates":[-100.33016,25.73234]},"properties":{"k":"modelorama","n":"Modelorama"}},{"type":"Feature","geometry":{"type":"Point","coordinates":[-100.3284,25.73211]},"properties":{"k":"modelorama","n":"Modelorama"}},{"type":"Feature","geometry":{"type":"Point","coordinates":[-100.32658,25.73273]},"properties":{"k":"modelorama","n":"Modelorama"}},{"type":"Feature","geometry":{"type":"Point","coordinates":[-100.32543,25.73392]},"properties":{"k":"purificadora","n":"Agua 24 horas"}},{"type":"Feature","geometry":{"type":"Point","coordinates":[-100.32531,25.73388]},"properties":{"k":"modelorama","n":"Modelorama"}},{"type":"Feature","geometry":{"type":"Point","coordinates":[-100.32363,25.73339]},"properties":{"k":"modelorama","n":"Modelorama"}},{"type":"Feature","geometry":{"type":"Point","coordinates":[-100.3234,25.73468]},"properties":{"k":"modelorama","n":"Modelorama"}},{"type":"Feature","geometry":{"type":"Point","coordinates":[-100.32339,25.73582]},"properties":{"k":"purificadora","n":"Ultra pura water"}},{"type":"Feature","geometry":{"type":"Point","coordinates":[-100.32487,25.73742]},"properties":{"k":"express","n":"Express"}},{"type":"Feature","geometry":{"type":"Point","coordinates":[-100.32377,25.73774]},"properties":{"k":"modelorama","n":"Modelorama"}},{"type":"Feature","geometry":{"type":"Point","coordinates":[-100.32548,25.73783]},"properties":{"k":"otro","n":"Empeño"}},{"type":"Feature","geometry":{"type":"Point","coordinates":[-100.3263,25.73794]},"properties":{"k":"modelorama","n":"Modelorama"}},{"type":"Feature","geometry":{"type":"Point","coordinates":[-100.33277,25.73879]},"properties":{"k":"modelorama","n":"Modelorama"}},{"type":"Feature","geometry":{"type":"Point","coordinates":[-100.33758,25.73944]},"properties":{"k":"purificadora","n":"Purificadora"}},{"type":"Feature","geometry":{"type":"Point","coordinates":[-100.33819,25.7419]},"properties":{"k":"modelorama","n":"Modelorama"}},{"type":"Feature","geometry":{"type":"Point","coordinates":[-100.33907,25.73962]},"properties":{"k":"modelorama","n":"Modelorama"}},{"type":"Feature","geometry":{"type":"Point","coordinates":[-100.34053,25.73981]},"properties":{"k":"modelorama","n":"Modelorama"}},{"type":"Feature","geometry":{"type":"Point","coordinates":[-100.34206,25.74002]},"properties":{"k":"express","n":"Express"}},{"type":"Feature","geometry":{"type":"Point","coordinates":[-100.34262,25.74113]},"properties":{"k":"modelorama","n":"Modelorama"}},{"type":"Feature","geometry":{"type":"Point","coordinates":[-100.3426,25.74137]},"properties":{"k":"iglesia","n":"Iglesia"}},{"type":"Feature","geometry":{"type":"Point","coordinates":[-100.34259,25.7415]},"properties":{"k":"modelorama","n":"Modelorama"}},{"type":"Feature","geometry":{"type":"Point","coordinates":[-100.34251,25.74258]},"properties":{"k":"modelorama","n":"Modelorama"}},{"type":"Feature","geometry":{"type":"Point","coordinates":[-100.34236,25.74377]},"properties":{"k":"modelorama","n":"Modelorama"}},{"type":"Feature","geometry":{"type":"Point","coordinates":[-100.3429,25.74565]},"properties":{"k":"modelorama","n":"Modelorama"}},{"type":"Feature","geometry":{"type":"Point","coordinates":[-100.34326,25.74596]},"properties":{"k":"modelorama","n":"Modelorama"}},{"type":"Feature","geometry":{"type":"Point","coordinates":[-100.34427,25.74719]},"properties":{"k":"express","n":"Express"}},{"type":"Feature","geometry":{"type":"Point","coordinates":[-100.34306,25.74588]},"properties":{"k":"modelorama","n":"Modelorama"}},{"type":"Feature","geometry":{"type":"Point","coordinates":[-100.34599,25.74969]},"properties":{"k":"modelorama","n":"Modelorama"}},{"type":"Feature","geometry":{"type":"Point","coordinates":[-100.34616,25.74983]},"properties":{"k":"modelorama","n":"Modelorama"}},{"type":"Feature","geometry":{"type":"Point","coordinates":[-100.34716,25.75072]},"properties":{"k":"modelorama","n":"Modelorama"}},{"type":"Feature","geometry":{"type":"Point","coordinates":[-100.348,25.75142]},"properties":{"k":"modelorama","n":"Modelorama"}},{"type":"Feature","geometry":{"type":"Point","coordinates":[-100.34953,25.75276]},"properties":{"k":"modelorama","n":"Modelorama"}},{"type":"Feature","geometry":{"type":"Point","coordinates":[-100.34976,25.75296]},"properties":{"k":"modelorama","n":"Modelorama"}},{"type":"Feature","geometry":{"type":"Point","coordinates":[-100.3504,25.75376]},"properties":{"k":"modelorama","n":"Modelorama"}},{"type":"Feature","geometry":{"type":"Point","coordinates":[-100.351,25.75506]},"properties":{"k":"modelorama","n":"Modelorama"}},{"type":"Feature","geometry":{"type":"Point","coordinates":[-100.35556,25.75924]},"properties":{"k":"otro","n":"Empeño"}},{"type":"Feature","geometry":{"type":"Point","coordinates":[-100.35561,25.75928]},"properties":{"k":"modelorama","n":"Modelorama"}},{"type":"Feature","geometry":{"type":"Point","coordinates":[-100.35645,25.76005]},"properties":{"k":"modelorama","n":"Modelorama"}},{"type":"Feature","geometry":{"type":"Point","coordinates":[-100.35828,25.76172]},"properties":{"k":"modelorama","n":"Modelorama"}},{"type":"Feature","geometry":{"type":"Point","coordinates":[-100.35868,25.76209]},"properties":{"k":"modelorama","n":"Modelorama"}},{"type":"Feature","geometry":{"type":"Point","coordinates":[-100.35885,25.76223]},"properties":{"k":"modelorama","n":"Modelorama"}},{"type":"Feature","geometry":{"type":"Point","coordinates":[-100.35953,25.76285]},"properties":{"k":"modelorama","n":"Modelorama"}},{"type":"Feature","geometry":{"type":"Point","coordinates":[-100.36016,25.7634]},"properties":{"k":"modelorama","n":"Modelorama"}},{"type":"Feature","geometry":{"type":"Point","coordinates":[-100.36135,25.7645]},"properties":{"k":"iglesia","n":"Iglesia"}},{"type":"Feature","geometry":{"type":"Point","coordinates":[-100.36276,25.7658]},"properties":{"k":"escuela","n":"Escuela"}},{"type":"Feature","geometry":{"type":"Point","coordinates":[-100.36383,25.76672]},"properties":{"k":"modelorama","n":"Modelorama"}},{"type":"Feature","geometry":{"type":"Point","coordinates":[-100.36253,25.76952]},"properties":{"k":"modelorama","n":"Modelorama"}},{"type":"Feature","geometry":{"type":"Point","coordinates":[-100.36252,25.76999]},"properties":{"k":"modelorama","n":"Modelorama"}},{"type":"Feature","geometry":{"type":"Point","coordinates":[-100.363,25.77077]},"properties":{"k":"modelorama","n":"Modelorama"}},{"type":"Feature","geometry":{"type":"Point","coordinates":[-100.3633,25.77132]},"properties":{"k":"otro","n":"Hospital"}},{"type":"Feature","geometry":{"type":"Point","coordinates":[-100.36365,25.7716]},"properties":{"k":"modelorama","n":"Modelorama"}},{"type":"Feature","geometry":{"type":"Point","coordinates":[-100.36592,25.77183]},"properties":{"k":"modelorama","n":"Modelorama"}},{"type":"Feature","geometry":{"type":"Point","coordinates":[-100.3674,25.77387]},"properties":{"k":"modelorama","n":"Modelorama"}},{"type":"Feature","geometry":{"type":"Point","coordinates":[-100.36745,25.774]},"properties":{"k":"modelorama","n":"Modelorama"}},{"type":"Feature","geometry":{"type":"Point","coordinates":[-100.36961,25.77735]},"properties":{"k":"modelorama","n":"Modelorama"}},{"type":"Feature","geometry":{"type":"Point","coordinates":[-100.37018,25.77709]},"properties":{"k":"modelorama","n":"Modelorama"}},{"type":"Feature","geometry":{"type":"Point","coordinates":[-100.37286,25.78152]},"properties":{"k":"purificadora","n":"X cric"}},{"type":"Feature","geometry":{"type":"Point","coordinates":[-100.37305,25.78455]},"properties":{"k":"modelorama","n":"Modelorama"}},{"type":"Feature","geometry":{"type":"Point","coordinates":[-100.37326,25.78523]},"properties":{"k":"modelorama","n":"Modelorama"}},{"type":"Feature","geometry":{"type":"Point","coordinates":[-100.37588,25.78368]},"properties":{"k":"modelorama","n":"Modelorama"}},{"type":"Feature","geometry":{"type":"Point","coordinates":[-100.37568,25.78319]},"properties":{"k":"purificadora","n":"Purificadora"}},{"type":"Feature","geometry":{"type":"Point","coordinates":[-100.37479,25.78131]},"properties":{"k":"express","n":"Express"}},{"type":"Feature","geometry":{"type":"Point","coordinates":[-100.37398,25.77959]},"properties":{"k":"modelorama","n":"Modelorama"}},{"type":"Feature","geometry":{"type":"Point","coordinates":[-100.37228,25.77592]},"properties":{"k":"modelorama","n":"Modelorama"}},{"type":"Feature","geometry":{"type":"Point","coordinates":[-100.37208,25.77549]},"properties":{"k":"modelorama","n":"Modelorama"}},{"type":"Feature","geometry":{"type":"Point","coordinates":[-100.3712,25.77451]},"properties":{"k":"iglesia","n":"Iglesia"}},{"type":"Feature","geometry":{"type":"Point","coordinates":[-100.37063,25.77238]},"properties":{"k":"modelorama","n":"Modelorama"}},{"type":"Feature","geometry":{"type":"Point","coordinates":[-100.37019,25.77135]},"properties":{"k":"modelorama","n":"Modelorama"}},{"type":"Feature","geometry":{"type":"Point","coordinates":[-100.36904,25.76955]},"properties":{"k":"modelorama","n":"Modelorama"}},{"type":"Feature","geometry":{"type":"Point","coordinates":[-100.36792,25.76851]},"properties":{"k":"modelorama","n":"Modelorama"}},{"type":"Feature","geometry":{"type":"Point","coordinates":[-100.36743,25.76809]},"properties":{"k":"modelorama","n":"Modelorama"}},{"type":"Feature","geometry":{"type":"Point","coordinates":[-100.36648,25.76726]},"properties":{"k":"iglesia","n":"Iglesia"}},{"type":"Feature","geometry":{"type":"Point","coordinates":[-100.36591,25.76677]},"properties":{"k":"modelorama","n":"Modelorama"}},{"type":"Feature","geometry":{"type":"Point","coordinates":[-100.36486,25.76583]},"properties":{"k":"modelorama","n":"Modelorama"}},{"type":"Feature","geometry":{"type":"Point","coordinates":[-100.36441,25.76545]},"properties":{"k":"modelorama","n":"Modelorama"}},{"type":"Feature","geometry":{"type":"Point","coordinates":[-100.35831,25.76012]},"properties":{"k":"modelorama","n":"Modelorama"}},{"type":"Feature","geometry":{"type":"Point","coordinates":[-100.35588,25.75778]},"properties":{"k":"escuela","n":"Escuela"}},{"type":"Feature","geometry":{"type":"Point","coordinates":[-100.35599,25.75748]},"properties":{"k":"modelorama","n":"Modelorama"}},{"type":"Feature","geometry":{"type":"Point","coordinates":[-100.35624,25.75696]},"properties":{"k":"modelorama","n":"Modelorama"}},{"type":"Feature","geometry":{"type":"Point","coordinates":[-100.35654,25.75632]},"properties":{"k":"modelorama","n":"Modelorama"}},{"type":"Feature","geometry":{"type":"Point","coordinates":[-100.35416,25.75479]},"properties":{"k":"purificadora","n":"Agua purificada"}},{"type":"Feature","geometry":{"type":"Point","coordinates":[-100.35297,25.75384]},"properties":{"k":"modelorama","n":"Modelorama"}},{"type":"Feature","geometry":{"type":"Point","coordinates":[-100.35269,25.75352]},"properties":{"k":"modelorama","n":"Modelorama"}},{"type":"Feature","geometry":{"type":"Point","coordinates":[-100.35157,25.75216]},"properties":{"k":"modelorama","n":"Modelorama"}},{"type":"Feature","geometry":{"type":"Point","coordinates":[-100.3512,25.75173]},"properties":{"k":"modelorama","n":"Modelorama"}},{"type":"Feature","geometry":{"type":"Point","coordinates":[-100.34973,25.75031]},"properties":{"k":"modelorama","n":"Modelorama"}},{"type":"Feature","geometry":{"type":"Point","coordinates":[-100.34854,25.74936]},"properties":{"k":"modelorama","n":"Modelorama"}},{"type":"Feature","geometry":{"type":"Point","coordinates":[-100.34382,25.7447]},"properties":{"k":"purificadora","n":"Agua purificada"}},{"type":"Feature","geometry":{"type":"Point","coordinates":[-100.34265,25.73006]},"properties":{"k":"modelorama","n":"Modelorama"}},{"type":"Feature","geometry":{"type":"Point","coordinates":[-100.34235,25.72497]},"properties":{"k":"modelorama","n":"Modelorama"}},{"type":"Feature","geometry":{"type":"Point","coordinates":[-100.33998,25.72419]},"properties":{"k":"modelorama","n":"Modelorama"}},{"type":"Feature","geometry":{"type":"Point","coordinates":[-100.39027,25.8482]},"properties":{"k":"modelorama","n":"Modelorama"}},{"type":"Feature","geometry":{"type":"Point","coordinates":[-100.35966,25.80826]},"properties":{"k":"escuela","n":"Escuela"}},{"type":"Feature","geometry":{"type":"Point","coordinates":[-100.29054,25.64753]},"properties":{"k":"purificadora","n":"Tec"}},{"type":"Feature","geometry":{"type":"Point","coordinates":[-100.29205,25.64639]},"properties":{"k":"modelorama","n":"Modelorama"}},{"type":"Feature","geometry":{"type":"Point","coordinates":[-100.29241,25.64613]},"properties":{"k":"modelorama","n":"Modelorama"}},{"type":"Feature","geometry":{"type":"Point","coordinates":[-100.30853,25.63833]},"properties":{"k":"purificadora","n":"Agya"}},{"type":"Feature","geometry":{"type":"Point","coordinates":[-100.37059,25.83589]},"properties":{"k":"modelorama","n":"Modelorama"}},{"type":"Feature","geometry":{"type":"Point","coordinates":[-100.37277,25.83592]},"properties":{"k":"modelorama","n":"Modelorama"}},{"type":"Feature","geometry":{"type":"Point","coordinates":[-100.37362,25.83579]},"properties":{"k":"modelorama","n":"Modelorama"}},{"type":"Feature","geometry":{"type":"Point","coordinates":[-100.37362,25.83579]},"properties":{"k":"purificadora","n":"Purificadora"}},{"type":"Feature","geometry":{"type":"Point","coordinates":[-100.37427,25.83916]},"properties":{"k":"modelorama","n":"Modelorama"}},{"type":"Feature","geometry":{"type":"Point","coordinates":[-100.37365,25.83913]},"properties":{"k":"purificadora","n":"Purificadora"}},{"type":"Feature","geometry":{"type":"Point","coordinates":[-100.37202,25.83921]},"properties":{"k":"modelorama","n":"Modelorama"}},{"type":"Feature","geometry":{"type":"Point","coordinates":[-100.37079,25.83926]},"properties":{"k":"modelorama","n":"Modelorama"}},{"type":"Feature","geometry":{"type":"Point","coordinates":[-100.37056,25.83581]},"properties":{"k":"modelorama","n":"Modelorama"}},{"type":"Feature","geometry":{"type":"Point","coordinates":[-100.37068,25.83332]},"properties":{"k":"modelorama","n":"Modelorama"}},{"type":"Feature","geometry":{"type":"Point","coordinates":[-100.3709,25.82914]},"properties":{"k":"modelorama","n":"Modelorama"}},{"type":"Feature","geometry":{"type":"Point","coordinates":[-100.3709,25.82658]},"properties":{"k":"modelorama","n":"Modelorama"}},{"type":"Feature","geometry":{"type":"Point","coordinates":[-100.37101,25.82684]},"properties":{"k":"escuela","n":"Escuela"}},{"type":"Feature","geometry":{"type":"Point","coordinates":[-100.37235,25.8438]},"properties":{"k":"escuela","n":"Escuela"}},{"type":"Feature","geometry":{"type":"Point","coordinates":[-100.37424,25.84209]},"properties":{"k":"modelorama","n":"Modelorama"}},{"type":"Feature","geometry":{"type":"Point","coordinates":[-100.37472,25.8417]},"properties":{"k":"express","n":"Express"}},{"type":"Feature","geometry":{"type":"Point","coordinates":[-100.373,25.84179]},"properties":{"k":"modelorama","n":"Modelorama"}},{"type":"Feature","geometry":{"type":"Point","coordinates":[-100.37444,25.84818]},"properties":{"k":"modelorama","n":"Modelorama"}},{"type":"Feature","geometry":{"type":"Point","coordinates":[-100.37475,25.84728]},"properties":{"k":"modelorama","n":"Modelorama"}},{"type":"Feature","geometry":{"type":"Point","coordinates":[-100.37462,25.8451]},"properties":{"k":"modelorama","n":"Modelorama"}},{"type":"Feature","geometry":{"type":"Point","coordinates":[-100.37454,25.84396]},"properties":{"k":"modelorama","n":"Modelorama"}},{"type":"Feature","geometry":{"type":"Point","coordinates":[-100.37344,25.83747]},"properties":{"k":"modelorama","n":"Modelorama"}},{"type":"Feature","geometry":{"type":"Point","coordinates":[-100.37241,25.8375]},"properties":{"k":"purificadora","n":"Purificadora"}},{"type":"Feature","geometry":{"type":"Point","coordinates":[-100.36933,25.83658]},"properties":{"k":"modelorama","n":"Modelorama"}},{"type":"Feature","geometry":{"type":"Point","coordinates":[-100.3948,25.84612]},"properties":{"k":"modelorama","n":"Modelorama"}},{"type":"Feature","geometry":{"type":"Point","coordinates":[-100.39737,25.8452]},"properties":{"k":"modelorama","n":"Modelorama"}},{"type":"Feature","geometry":{"type":"Point","coordinates":[-100.37486,25.78157]},"properties":{"k":"escuela","n":"Escuela"}},{"type":"Feature","geometry":{"type":"Point","coordinates":[-100.37282,25.78246]},"properties":{"k":"alto","n":"Alto"}},{"type":"Feature","geometry":{"type":"Point","coordinates":[-100.37282,25.78246]},"properties":{"k":"alto","n":"Alto"}},{"type":"Feature","geometry":{"type":"Point","coordinates":[-100.37184,25.78299]},"properties":{"k":"modelorama","n":"Modelorama"}},{"type":"Feature","geometry":{"type":"Point","coordinates":[-100.37015,25.78166]},"properties":{"k":"modelorama","n":"Modelorama"}},{"type":"Feature","geometry":{"type":"Point","coordinates":[-100.37094,25.78122]},"properties":{"k":"modelorama","n":"Modelorama"}},{"type":"Feature","geometry":{"type":"Point","coordinates":[-100.37119,25.78108]},"properties":{"k":"modelorama","n":"Modelorama"}},{"type":"Feature","geometry":{"type":"Point","coordinates":[-100.37174,25.78076]},"properties":{"k":"modelorama","n":"Modelorama"}},{"type":"Feature","geometry":{"type":"Point","coordinates":[-100.37385,25.77978]},"properties":{"k":"alto","n":"Alto"}},{"type":"Feature","geometry":{"type":"Point","coordinates":[-100.37403,25.77969]},"properties":{"k":"otro","n":"Semáforo"}},{"type":"Feature","geometry":{"type":"Point","coordinates":[-100.37521,25.7793]},"properties":{"k":"modelorama","n":"Modelorama"}},{"type":"Feature","geometry":{"type":"Point","coordinates":[-100.3751,25.77929]},"properties":{"k":"modelorama","n":"Modelorama"}},{"type":"Feature","geometry":{"type":"Point","coordinates":[-100.37633,25.77883]},"properties":{"k":"modelorama","n":"Modelorama"}},{"type":"Feature","geometry":{"type":"Point","coordinates":[-100.37551,25.77754]},"properties":{"k":"modelorama","n":"Modelorama"}},{"type":"Feature","geometry":{"type":"Point","coordinates":[-100.37478,25.77573]},"properties":{"k":"purificadora","n":"Purificadora"}},{"type":"Feature","geometry":{"type":"Point","coordinates":[-100.37462,25.77538]},"properties":{"k":"modelorama","n":"Modelorama"}},{"type":"Feature","geometry":{"type":"Point","coordinates":[-100.37373,25.77355]},"properties":{"k":"modelorama","n":"Modelorama"}},{"type":"Feature","geometry":{"type":"Point","coordinates":[-100.37257,25.77104]},"properties":{"k":"modelorama","n":"Modelorama"}},{"type":"Feature","geometry":{"type":"Point","coordinates":[-100.37246,25.77035]},"properties":{"k":"empeno","n":"Empeño"}},{"type":"Feature","geometry":{"type":"Point","coordinates":[-100.37223,25.77029]},"properties":{"k":"otro","n":"Semáforo"}},{"type":"Feature","geometry":{"type":"Point","coordinates":[-100.37206,25.77044]},"properties":{"k":"otro","n":"Semáforo"}},{"type":"Feature","geometry":{"type":"Point","coordinates":[-100.37179,25.77]},"properties":{"k":"escuela","n":"Escuela"}},{"type":"Feature","geometry":{"type":"Point","coordinates":[-100.36996,25.77101]},"properties":{"k":"modelorama","n":"Modelorama"}},{"type":"Feature","geometry":{"type":"Point","coordinates":[-100.3707,25.77134]},"properties":{"k":"express","n":"Express"}},{"type":"Feature","geometry":{"type":"Point","coordinates":[-100.37086,25.77123]},"properties":{"k":"purificadora","n":"Comp $20 recarga"}},{"type":"Feature","geometry":{"type":"Point","coordinates":[-100.37111,25.77093]},"properties":{"k":"modelorama","n":"Modelorama"}},{"type":"Feature","geometry":{"type":"Point","coordinates":[-100.37158,25.77077]},"properties":{"k":"modelorama","n":"Modelorama"}},{"type":"Feature","geometry":{"type":"Point","coordinates":[-100.37034,25.7716]},"properties":{"k":"modelorama","n":"Modelorama"}},{"type":"Feature","geometry":{"type":"Point","coordinates":[-100.37019,25.77137]},"properties":{"k":"otro","n":"Semáforo"}},{"type":"Feature","geometry":{"type":"Point","coordinates":[-100.37094,25.77312]},"properties":{"k":"otro","n":"Semáforo"}},{"type":"Feature","geometry":{"type":"Point","coordinates":[-100.37102,25.77329]},"properties":{"k":"escuela","n":"Escuela"}},{"type":"Feature","geometry":{"type":"Point","coordinates":[-100.37145,25.77422]},"properties":{"k":"otro","n":"Semáforo"}},{"type":"Feature","geometry":{"type":"Point","coordinates":[-100.37169,25.77433]},"properties":{"k":"otro","n":"Semáforo"}},{"type":"Feature","geometry":{"type":"Point","coordinates":[-100.37186,25.77509]},"properties":{"k":"modelorama","n":"Modelorama"}},{"type":"Feature","geometry":{"type":"Point","coordinates":[-100.37201,25.77543]},"properties":{"k":"modelorama","n":"Modelorama"}},{"type":"Feature","geometry":{"type":"Point","coordinates":[-100.37271,25.77684]},"properties":{"k":"modelorama","n":"Modelorama"}},{"type":"Feature","geometry":{"type":"Point","coordinates":[-100.37389,25.77949]},"properties":{"k":"modelorama","n":"Modelorama"}},{"type":"Feature","geometry":{"type":"Point","coordinates":[-100.37398,25.77968]},"properties":{"k":"otro","n":"Semáforo"}},{"type":"Feature","geometry":{"type":"Point","coordinates":[-100.37398,25.77968]},"properties":{"k":"otro","n":"Semáforo"}},{"type":"Feature","geometry":{"type":"Point","coordinates":[-100.37457,25.78094]},"properties":{"k":"express","n":"Express"}},{"type":"Feature","geometry":{"type":"Point","coordinates":[-100.37531,25.78256]},"properties":{"k":"otro","n":"Semáforo"}},{"type":"Feature","geometry":{"type":"Point","coordinates":[-100.3759,25.78387]},"properties":{"k":"modelorama","n":"Modelorama"}},{"type":"Feature","geometry":{"type":"Point","coordinates":[-100.37682,25.78583]},"properties":{"k":"modelorama","n":"Modelorama"}},{"type":"Feature","geometry":{"type":"Point","coordinates":[-100.37694,25.78609]},"properties":{"k":"empeno","n":"Empeño"}},{"type":"Feature","geometry":{"type":"Point","coordinates":[-100.3769,25.78572]},"properties":{"k":"otro","n":"Semáforo"}},{"type":"Feature","geometry":{"type":"Point","coordinates":[-100.37595,25.78381]},"properties":{"k":"purificadora","n":"Purificadora"}},{"type":"Feature","geometry":{"type":"Point","coordinates":[-100.36844,25.77242]},"properties":{"k":"modelorama","n":"Modelorama"}},{"type":"Feature","geometry":{"type":"Point","coordinates":[-100.37299,25.77596]},"properties":{"k":"modelorama","n":"Modelorama"}},{"type":"Feature","geometry":{"type":"Point","coordinates":[-100.374,25.77764]},"properties":{"k":"modelorama","n":"Modelorama"}},{"type":"Feature","geometry":{"type":"Point","coordinates":[-100.3759,25.78223]},"properties":{"k":"modelorama","n":"Modelorama"}},{"type":"Feature","geometry":{"type":"Point","coordinates":[-100.37766,25.78513]},"properties":{"k":"modelorama","n":"Modelorama"}},{"type":"Feature","geometry":{"type":"Point","coordinates":[-100.37774,25.78508]},"properties":{"k":"modelorama","n":"Modelorama"}},{"type":"Feature","geometry":{"type":"Point","coordinates":[-100.37694,25.78303]},"properties":{"k":"modelorama","n":"Modelorama"}},{"type":"Feature","geometry":{"type":"Point","coordinates":[-100.37103,25.77052]},"properties":{"k":"alto","n":"Alto"}},{"type":"Feature","geometry":{"type":"Point","coordinates":[-100.37234,25.77167]},"properties":{"k":"modelorama","n":"Modelorama"}},{"type":"Feature","geometry":{"type":"Point","coordinates":[-100.37634,25.78027]},"properties":{"k":"modelorama","n":"Modelorama"}},{"type":"Feature","geometry":{"type":"Point","coordinates":[-100.37736,25.78249]},"properties":{"k":"alto","n":"Alto"}},{"type":"Feature","geometry":{"type":"Point","coordinates":[-100.37746,25.78268]},"properties":{"k":"alto","n":"Alto"}},{"type":"Feature","geometry":{"type":"Point","coordinates":[-100.37808,25.78483]},"properties":{"k":"modelorama","n":"Modelorama"}},{"type":"Feature","geometry":{"type":"Point","coordinates":[-100.37552,25.78326]},"properties":{"k":"modelorama","n":"Modelorama"}},{"type":"Feature","geometry":{"type":"Point","coordinates":[-100.37437,25.78361]},"properties":{"k":"alto","n":"Alto"}},{"type":"Feature","geometry":{"type":"Point","coordinates":[-100.37384,25.78412]},"properties":{"k":"alto","n":"Alto"}},{"type":"Feature","geometry":{"type":"Point","coordinates":[-100.3728,25.78472]},"properties":{"k":"modelorama","n":"Modelorama"}},{"type":"Feature","geometry":{"type":"Point","coordinates":[-100.37237,25.78584]},"properties":{"k":"alto","n":"Alto"}},{"type":"Feature","geometry":{"type":"Point","coordinates":[-100.37329,25.7852]},"properties":{"k":"modelorama","n":"Modelorama"}},{"type":"Feature","geometry":{"type":"Point","coordinates":[-100.37409,25.78476]},"properties":{"k":"modelorama","n":"Modelorama"}},{"type":"Feature","geometry":{"type":"Point","coordinates":[-100.37426,25.78466]},"properties":{"k":"alto","n":"Alto"}},{"type":"Feature","geometry":{"type":"Point","coordinates":[-100.37468,25.78398]},"properties":{"k":"modelorama","n":"Modelorama"}},{"type":"Feature","geometry":{"type":"Point","coordinates":[-100.37621,25.78455]},"properties":{"k":"escuela","n":"Escuela"}},{"type":"Feature","geometry":{"type":"Point","coordinates":[-100.37366,25.7826]},"properties":{"k":"escuela","n":"Escuela"}},{"type":"Feature","geometry":{"type":"Point","coordinates":[-100.37287,25.78142]},"properties":{"k":"modelorama","n":"Modelorama"}},{"type":"Feature","geometry":{"type":"Point","coordinates":[-100.37222,25.78058]},"properties":{"k":"alto","n":"Alto"}},{"type":"Feature","geometry":{"type":"Point","coordinates":[-100.37212,25.78046]},"properties":{"k":"alto","n":"Alto"}},{"type":"Feature","geometry":{"type":"Point","coordinates":[-100.3699,25.77733]},"properties":{"k":"modelorama","n":"Modelorama"}},{"type":"Feature","geometry":{"type":"Point","coordinates":[-100.36833,25.77515]},"properties":{"k":"modelorama","n":"Modelorama"}},{"type":"Feature","geometry":{"type":"Point","coordinates":[-100.36769,25.7718]},"properties":{"k":"alto","n":"Alto"}},{"type":"Feature","geometry":{"type":"Point","coordinates":[-100.3671,25.77181]},"properties":{"k":"modelorama","n":"Modelorama"}},{"type":"Feature","geometry":{"type":"Point","coordinates":[-100.36673,25.77145]},"properties":{"k":"iglesia","n":"Iglesia"}},{"type":"Feature","geometry":{"type":"Point","coordinates":[-100.36575,25.77262]},"properties":{"k":"modelorama","n":"Modelorama"}},{"type":"Feature","geometry":{"type":"Point","coordinates":[-100.36689,25.77423]},"properties":{"k":"modelorama","n":"Modelorama"}},{"type":"Feature","geometry":{"type":"Point","coordinates":[-100.36791,25.77595]},"properties":{"k":"modelorama","n":"Modelorama"}},{"type":"Feature","geometry":{"type":"Point","coordinates":[-100.36931,25.77751]},"properties":{"k":"alto","n":"Alto"}},{"type":"Feature","geometry":{"type":"Point","coordinates":[-100.36955,25.77735]},"properties":{"k":"modelorama","n":"Modelorama"}},{"type":"Feature","geometry":{"type":"Point","coordinates":[-100.3698,25.77822]},"properties":{"k":"modelorama","n":"Modelorama"}},{"type":"Feature","geometry":{"type":"Point","coordinates":[-100.37053,25.77926]},"properties":{"k":"modelorama","n":"Modelorama"}},{"type":"Feature","geometry":{"type":"Point","coordinates":[-100.37248,25.78197]},"properties":{"k":"iglesia","n":"Iglesia"}},{"type":"Feature","geometry":{"type":"Point","coordinates":[-100.32647,25.73363]},"properties":{"k":"modelorama","n":"Modelorama"}},{"type":"Feature","geometry":{"type":"Point","coordinates":[-100.32932,25.73397]},"properties":{"k":"modelorama","n":"Modelorama"}},{"type":"Feature","geometry":{"type":"Point","coordinates":[-100.33305,25.73441]},"properties":{"k":"otro","n":"Semáforo"}},{"type":"Feature","geometry":{"type":"Point","coordinates":[-100.3601,25.77107]},"properties":{"k":"modelorama","n":"Modelorama"}},{"type":"Feature","geometry":{"type":"Point","coordinates":[-100.35839,25.63191]},"properties":{"k":"modelorama","n":"Modelorama"}},{"type":"Feature","geometry":{"type":"Point","coordinates":[-100.35839,25.63191]},"properties":{"k":"modelorama","n":"Modelorama"}},{"type":"Feature","geometry":{"type":"Point","coordinates":[-100.32818,25.73458]},"properties":{"k":"escuela","n":"Escuela"}},{"type":"Feature","geometry":{"type":"Point","coordinates":[-100.33217,25.73433]},"properties":{"k":"alto","n":"Alto"}},{"type":"Feature","geometry":{"type":"Point","coordinates":[-100.33129,25.72609]},"properties":{"k":"favorito","n":"Taller en la esquinita"}},{"type":"Feature","geometry":{"type":"Point","coordinates":[-100.3287,25.73394]},"properties":{"k":"lock","n":"Luis Volkswagen"}},{"type":"Feature","geometry":{"type":"Point","coordinates":[-100.30047,25.64332]},"properties":{"k":"favorito","n":"Por el tec enfrente de bodega ayrrera"}},{"type":"Feature","geometry":{"type":"Point","coordinates":[-100.33122,25.73392]},"properties":{"k":"favorito","n":"Poor"}},{"type":"Feature","geometry":{"type":"Point","coordinates":[-100.32642,25.73378]},"properties":{"k":"favorito","n":"Transitada"}},{"type":"Feature","geometry":{"type":"Point","coordinates":[-100.324,25.73324]},"properties":{"k":"favorito","n":"Colonias"}},{"type":"Feature","geometry":{"type":"Point","coordinates":[-100.32336,25.7349]},"properties":{"k":"favorito","n":"Fire"}},{"type":"Feature","geometry":{"type":"Point","coordinates":[-100.3383,25.74118]},"properties":{"k":"favorito","n":"Cerca de dif"}},{"type":"Feature","geometry":{"type":"Point","coordinates":[-100.34404,25.74778]},"properties":{"k":"favorito","n":"Yes"}},{"type":"Feature","geometry":{"type":"Point","coordinates":[-100.34298,25.74669]},"properties":{"k":"favorito","n":"Yes"}},{"type":"Feature","geometry":{"type":"Point","coordinates":[-100.35033,25.75429]},"properties":{"k":"favorito","n":"Uuu"}},{"type":"Feature","geometry":{"type":"Point","coordinates":[-100.36713,25.77453]},"properties":{"k":"favorito","n":"Zoja"}},{"type":"Feature","geometry":{"type":"Point","coordinates":[-100.36968,25.77513]},"properties":{"k":"favorito","n":"Como narciso"}},{"type":"Feature","geometry":{"type":"Point","coordinates":[-100.36949,25.7752]},"properties":{"k":"favorito","n":"Esquina con narciso"}},{"type":"Feature","geometry":{"type":"Point","coordinates":[-100.29939,25.64345]},"properties":{"k":"favorito","n":"Acsa"}},{"type":"Feature","geometry":{"type":"Point","coordinates":[-100.36618,25.77163]},"properties":{"k":"favorito","n":"la esquinita"}},{"type":"Feature","geometry":{"type":"Point","coordinates":[-100.36575,25.77262]},"properties":{"k":"favorito","n":"la esquina con una virgensita"}},{"type":"Feature","geometry":{"type":"Point","coordinates":[-100.36689,25.77423]},"properties":{"k":"favorito","n":"farmacia san marcos"}},{"type":"Feature","geometry":{"type":"Point","coordinates":[-100.32633,25.72787]},"properties":{"k":"favorito","n":"Sandra hamburgyesa"}}]}