{"type":"FeatureCollection","name":"anclas_bancos_prestamo_zmm","metadata":{"layer":"bancos_prestamo","built_at":"2026-09-28T21:04:23Z","clip_bbox":[-100.6592,25.558600000000002,-100.0526,25.872799999999998],"dedupe_m":30,"dedupe_rule":"cross-source only; priority = order of sources","sources_priority":["places","denue","osm"],"raw_by_source":{"places":53,"denue":81,"osm":24},"kept_by_primary_source":{"places":27,"denue":42},"confirmed_by_2plus_sources":10,"absorbed_by_existing_layer":77,"n":69,"by_subtype":{"bienestar":31,"azteca":20,"elektra":18}},"features":[{"type":"Feature","geometry":{"type":"Point","coordinates":[-100.324263,25.687327]},"properties":{"n":"Financiera para el bienestar","s":"places","t":"bienestar"}},{"type":"Feature","geometry":{"type":"Point","coordinates":[-100.100867,25.664218]},"properties":{"n":"Banco del Bienestar","s":"places,denue","t":"bienestar"}},{"type":"Feature","geometry":{"type":"Point","coordinates":[-100.329065,25.789792]},"properties":{"n":"Banco del Bienestar","s":"places","t":"bienestar"}},{"type":"Feature","geometry":{"type":"Point","coordinates":[-100.375105,25.849677]},"properties":{"n":"Elektra","s":"places","t":"elektra"}},{"type":"Feature","geometry":{"type":"Point","coordinates":[-100.2168,25.66794]},"properties":{"n":"Elektra","s":"places","t":"elektra"}},{"type":"Feature","geometry":{"type":"Point","coordinates":[-100.187622,25.656674]},"properties":{"n":"Elektra Santa maria","s":"places","t":"elektra"}},{"type":"Feature","geometry":{"type":"Point","coordinates":[-100.273183,25.681793]},"properties":{"n":"Banco del Bienestar","s":"places","t":"bienestar"}},{"type":"Feature","geometry":{"type":"Point","coordinates":[-100.505138,25.692972]},"properties":{"n":"Elektra","s":"places","t":"elektra"}},{"type":"Feature","geometry":{"type":"Point","coordinates":[-100.196791,25.730826]},"properties":{"n":"Banco del Bienestar La Noria","s":"places","t":"bienestar"}},{"type":"Feature","geometry":{"type":"Point","coordinates":[-100.389212,25.757705]},"properties":{"n":"Elektra del Milenio","s":"places","t":"elektra"}},{"type":"Feature","geometry":{"type":"Point","coordinates":[-100.105055,25.819658]},"properties":{"n":"Banco del Bienestar sucursal Colinas del Aeropuerto, Pesquería","s":"places,denue","t":"bienestar"}},{"type":"Feature","geometry":{"type":"Point","coordinates":[-100.10127,25.664625]},"properties":{"n":"Plaza Banco del Bienestar","s":"places","t":"bienestar"}},{"type":"Feature","geometry":{"type":"Point","coordinates":[-100.386436,25.846955]},"properties":{"n":"Banco del Bienestar","s":"places,denue","t":"bienestar"}},{"type":"Feature","geometry":{"type":"Point","coordinates":[-100.26413,25.680256]},"properties":{"n":"FINANCIERA DEL BIENESTAR antes TELECOM","s":"places","t":"bienestar"}},{"type":"Feature","geometry":{"type":"Point","coordinates":[-100.333322,25.67922]},"properties":{"n":"Banco del Bienestar Monterrey Centro","s":"places","t":"bienestar"}},{"type":"Feature","geometry":{"type":"Point","coordinates":[-100.278766,25.642702]},"properties":{"n":"Tienda Elektra","s":"places","t":"elektra"}},{"type":"Feature","geometry":{"type":"Point","coordinates":[-100.311842,25.667484]},"properties":{"n":"Banco del Bienestar","s":"places,denue","t":"bienestar"}},{"type":"Feature","geometry":{"type":"Point","coordinates":[-100.16219,25.755328]},"properties":{"n":"Banco del Bienestar","s":"places,denue","t":"bienestar"}},{"type":"Feature","geometry":{"type":"Point","coordinates":[-100.260803,25.680264]},"properties":{"n":"Banco del Bienestar","s":"places,denue","t":"bienestar"}},{"type":"Feature","geometry":{"type":"Point","coordinates":[-100.274786,25.627124]},"properties":{"n":"Relojería, Joyería \"ELEKTRA\"","s":"places","t":"elektra"}},{"type":"Feature","geometry":{"type":"Point","coordinates":[-100.484375,25.795506]},"properties":{"n":"Banco del Bienestar","s":"places","t":"bienestar"}},{"type":"Feature","geometry":{"type":"Point","coordinates":[-100.589179,25.779888]},"properties":{"n":"Banco del Bienestar","s":"places,denue","t":"bienestar"}},{"type":"Feature","geometry":{"type":"Point","coordinates":[-100.351571,25.700148]},"properties":{"n":"Banco del Bienestar","s":"places,denue","t":"bienestar"}},{"type":"Feature","geometry":{"type":"Point","coordinates":[-100.291428,25.75488]},"properties":{"n":"Banco del Bienestar","s":"places,denue","t":"bienestar"}},{"type":"Feature","geometry":{"type":"Point","coordinates":[-100.390239,25.785358]},"properties":{"n":"Banco del Bienestar","s":"places","t":"bienestar"}},{"type":"Feature","geometry":{"type":"Point","coordinates":[-100.276014,25.612044]},"properties":{"n":"Banco del Bienestar","s":"places","t":"bienestar"}},{"type":"Feature","geometry":{"type":"Point","coordinates":[-100.23721,25.58371]},"properties":{"n":"Banco del Bienestar","s":"places,denue","t":"bienestar"}},{"type":"Feature","geometry":{"type":"Point","coordinates":[-100.252761,25.680122]},"properties":{"n":"Modulo Elektra","s":"denue","t":"elektra"}},{"type":"Feature","geometry":{"type":"Point","coordinates":[-100.330867,25.683785]},"properties":{"n":"Banco Azteca","s":"denue","t":"azteca"}},{"type":"Feature","geometry":{"type":"Point","coordinates":[-100.351908,25.71504]},"properties":{"n":"Banco Azteca Unidad De Cobranza","s":"denue","t":"azteca"}},{"type":"Feature","geometry":{"type":"Point","coordinates":[-100.469791,25.677345]},"properties":{"n":"Banco Del Bienestar","s":"denue","t":"bienestar"}},{"type":"Feature","geometry":{"type":"Point","coordinates":[-100.373766,25.761684]},"properties":{"n":"Banco Del Bienestar","s":"denue","t":"bienestar"}},{"type":"Feature","geometry":{"type":"Point","coordinates":[-100.389798,25.785211]},"properties":{"n":"Banco Del Bienestar","s":"denue","t":"bienestar"}},{"type":"Feature","geometry":{"type":"Point","coordinates":[-100.276989,25.614222]},"properties":{"n":"Banco Del Bienestar 3969 Mederos Uanl","s":"denue","t":"bienestar"}},{"type":"Feature","geometry":{"type":"Point","coordinates":[-100.483236,25.795806]},"properties":{"n":"Banco Del Bienestar 3748 Valle De Lincoln","s":"denue","t":"bienestar"}},{"type":"Feature","geometry":{"type":"Point","coordinates":[-100.197139,25.73093]},"properties":{"n":"Banco Del Bienestar 3742 Guadalupe, Nuevo Leon","s":"denue","t":"bienestar"}},{"type":"Feature","geometry":{"type":"Point","coordinates":[-100.24699,25.862893]},"properties":{"n":"Banco Del Bienestar 3747 Entroque Laredo-Salinas","s":"denue","t":"bienestar"}},{"type":"Feature","geometry":{"type":"Point","coordinates":[-100.329313,25.787844]},"properties":{"n":"Banco Del Bienestar 1139 Escobedo, Sep","s":"denue","t":"bienestar"}},{"type":"Feature","geometry":{"type":"Point","coordinates":[-100.253051,25.780926]},"properties":{"n":"Banco Azteca","s":"denue","t":"azteca"}},{"type":"Feature","geometry":{"type":"Point","coordinates":[-100.213002,25.68956]},"properties":{"n":"Banco Azteca","s":"denue","t":"azteca"}},{"type":"Feature","geometry":{"type":"Point","coordinates":[-100.251525,25.679957]},"properties":{"n":"Banco Azteca","s":"denue","t":"azteca"}},{"type":"Feature","geometry":{"type":"Point","coordinates":[-100.248956,25.691208]},"properties":{"n":"Banco Azteca","s":"denue","t":"azteca"}},{"type":"Feature","geometry":{"type":"Point","coordinates":[-100.243794,25.68128]},"properties":{"n":"Prestamo Express Sucursal Azteca","s":"denue","t":"azteca"}},{"type":"Feature","geometry":{"type":"Point","coordinates":[-100.258059,25.713601]},"properties":{"n":"Banco Azteca","s":"denue","t":"azteca"}},{"type":"Feature","geometry":{"type":"Point","coordinates":[-100.594904,25.795705]},"properties":{"n":"6187 Ekt Villa Garcia Lerdo De Tejada","s":"denue","t":"elektra"}},{"type":"Feature","geometry":{"type":"Point","coordinates":[-100.188172,25.657502]},"properties":{"n":"835 Mega Santa Maria Monterrey","s":"denue","t":"elektra"}},{"type":"Feature","geometry":{"type":"Point","coordinates":[-100.258065,25.713597]},"properties":{"n":"3887 Ekt Constitucion De Queretaro","s":"denue","t":"elektra"}},{"type":"Feature","geometry":{"type":"Point","coordinates":[-100.467781,25.674284]},"properties":{"n":"2012 Ekt Nueva Santa Catarina","s":"denue","t":"elektra"}},{"type":"Feature","geometry":{"type":"Point","coordinates":[-100.214209,25.655465]},"properties":{"n":"4003 Ekt Eloy Cavazos","s":"denue","t":"elektra"}},{"type":"Feature","geometry":{"type":"Point","coordinates":[-100.385538,25.778137]},"properties":{"n":"148 Ekt M Mty Solidaridad","s":"denue","t":"elektra"}},{"type":"Feature","geometry":{"type":"Point","coordinates":[-100.367072,25.756133]},"properties":{"n":"3861 Ekt Aztlan","s":"denue","t":"elektra"}},{"type":"Feature","geometry":{"type":"Point","coordinates":[-100.199686,25.747576]},"properties":{"n":"Banco Azteca","s":"denue","t":"azteca"}},{"type":"Feature","geometry":{"type":"Point","coordinates":[-100.314651,25.799548]},"properties":{"n":"6070 Bdr Escobedo","s":"denue","t":"elektra"}},{"type":"Feature","geometry":{"type":"Point","coordinates":[-100.394977,25.728985]},"properties":{"n":"Azteca Divisas Centro Cambiario","s":"denue","t":"azteca"}},{"type":"Feature","geometry":{"type":"Point","coordinates":[-100.084196,25.64976]},"properties":{"n":"Banco Azteca","s":"denue","t":"azteca"}},{"type":"Feature","geometry":{"type":"Point","coordinates":[-100.311611,25.835113]},"properties":{"n":"Azteca Divisas","s":"denue","t":"azteca"}},{"type":"Feature","geometry":{"type":"Point","coordinates":[-100.172151,25.758371]},"properties":{"n":"Banco Azteca","s":"denue","t":"azteca"}},{"type":"Feature","geometry":{"type":"Point","coordinates":[-100.258915,25.772194]},"properties":{"n":"Banco Azteca","s":"denue","t":"azteca"}},{"type":"Feature","geometry":{"type":"Point","coordinates":[-100.58384,25.793716]},"properties":{"n":"Banco Azteca","s":"denue","t":"azteca"}},{"type":"Feature","geometry":{"type":"Point","coordinates":[-100.367073,25.756133]},"properties":{"n":"Banco Azteca","s":"denue","t":"azteca"}},{"type":"Feature","geometry":{"type":"Point","coordinates":[-100.386678,25.777288]},"properties":{"n":"Banco Azteca","s":"denue","t":"azteca"}},{"type":"Feature","geometry":{"type":"Point","coordinates":[-100.419898,25.673906]},"properties":{"n":"Banco Azteca","s":"denue","t":"azteca"}},{"type":"Feature","geometry":{"type":"Point","coordinates":[-100.46847,25.674238]},"properties":{"n":"Banco Azteca","s":"denue","t":"azteca"}},{"type":"Feature","geometry":{"type":"Point","coordinates":[-100.454478,25.690576]},"properties":{"n":"Banco Azteca","s":"denue","t":"azteca"}},{"type":"Feature","geometry":{"type":"Point","coordinates":[-100.488381,25.787884]},"properties":{"n":"Elektra","s":"denue","t":"elektra"}},{"type":"Feature","geometry":{"type":"Point","coordinates":[-100.311164,25.665743]},"properties":{"n":"Banco Del Bienestar 1840 Zaragoza Nuevo Leon","s":"denue","t":"bienestar"}},{"type":"Feature","geometry":{"type":"Point","coordinates":[-100.489117,25.788055]},"properties":{"n":"9692 Mega Av Lincoln Garcia Nl","s":"denue","t":"elektra"}},{"type":"Feature","geometry":{"type":"Point","coordinates":[-100.413139,25.661393]},"properties":{"n":"Banco Del Bienestar 1244 San Pedro","s":"denue","t":"bienestar"}},{"type":"Feature","geometry":{"type":"Point","coordinates":[-100.255079,25.728675]},"properties":{"n":"Banco Del Bienestar 1444 San Nicolas Ecocentro","s":"denue","t":"bienestar"}}]}
