{"type":"FeatureCollection","features":[{"type":"Feature","geometry":{"type":"Point","coordinates":[-100.38620224,25.77510288]},"properties":{"nombre":"AGUA ACUARIO","razon":"AGUA ACUARIO","estrato":"0 a 5 personas","colonia":"MIRASOL SEGUNDO SECTOR","cp":"64102","canal":"recarga de barrio","peso":1.0}},{"type":"Feature","geometry":{"type":"Point","coordinates":[-100.19474216,25.77912615]},"properties":{"nombre":"AGUA CLYVA","razon":"","estrato":"0 a 5 personas","colonia":"CABECERA MUNICIPAL (APODACA)","cp":"66600","canal":"recarga de barrio","peso":1.0}},{"type":"Feature","geometry":{"type":"Point","coordinates":[-100.33081589,25.66974801]},"properties":{"nombre":"AGUA DE GALES","razon":"","estrato":"0 a 5 personas","colonia":"MIRADOR","cp":"64000","canal":"recarga de barrio","peso":1.0}},{"type":"Feature","geometry":{"type":"Point","coordinates":[-100.29251777,25.66704847]},"properties":{"nombre":"AGUA DE MANANTIAL DEL EDEN","razon":"","estrato":"0 a 5 personas","colonia":"CARACOL","cp":"64818","canal":"recarga de barrio","peso":1.0}},{"type":"Feature","geometry":{"type":"Point","coordinates":[-100.32155727,25.69127934]},"properties":{"nombre":"AGUA DEL CIELO REGIO","razon":"AGUA DEL CIELO REGIO","estrato":"0 a 5 personas","colonia":"INDUSTRIAL","cp":"64440","canal":"industrial/embotellador","peso":0.15}},{"type":"Feature","geometry":{"type":"Point","coordinates":[-100.24543092,25.74196351]},"properties":{"nombre":"AGUA EL PILON","razon":"JOSE BERLANGA","estrato":"0 a 5 personas","colonia":"VALLE DEL MEZQUITAL (FOMERREY 30)","cp":"66445","canal":"recarga de barrio","peso":1.0}},{"type":"Feature","geometry":{"type":"Point","coordinates":[-100.28634166,25.73896458]},"properties":{"nombre":"AGUA INDUSTRIAL DE MONTERREY","razon":"AGUA INDUSTRIAL DE MONTERREY","estrato":"31 a 50 personas","colonia":"LAS PUENTES 2DO SECTOR","cp":"66460","canal":"industrial/embotellador","peso":0.15}},{"type":"Feature","geometry":{"type":"Point","coordinates":[-100.01413711,25.57140094]},"properties":{"nombre":"AGUA INMACULADA","razon":"AGUA INMACULADA","estrato":"0 a 5 personas","colonia":"LAS PALMAS","cp":"67485","canal":"recarga de barrio","peso":1.0}},{"type":"Feature","geometry":{"type":"Point","coordinates":[-100.55921741,25.79143816]},"properties":{"nombre":"AGUA INMACULADA","razon":"","estrato":"0 a 5 personas","colonia":"LOS HÉROES CAPELLANÍA SECTOR BOSQUES","cp":"66003","canal":"recarga de barrio","peso":1.0}},{"type":"Feature","geometry":{"type":"Point","coordinates":[-100.07930091,25.67582943]},"properties":{"nombre":"AGUA INMACULADA","razon":"","estrato":"0 a 5 personas","colonia":"VALLE SANTA ISABEL","cp":"67256","canal":"recarga de barrio","peso":1.0}},{"type":"Feature","geometry":{"type":"Point","coordinates":[-100.40259308,25.75264584]},"properties":{"nombre":"AGUA INMACULADA","razon":"LEOPOLDO LIMONES","estrato":"0 a 5 personas","colonia":"REAL CUMBRES PRIMER SECTOR","cp":"64346","canal":"recarga de barrio","peso":1.0}},{"type":"Feature","geometry":{"type":"Point","coordinates":[-100.39397938,25.77511844]},"properties":{"nombre":"AGUA INMACULADA","razon":"","estrato":"0 a 5 personas","colonia":"SANTA ISABEL","cp":"64102","canal":"recarga de barrio","peso":1.0}},{"type":"Feature","geometry":{"type":"Point","coordinates":[-100.42937864,25.78100846]},"properties":{"nombre":"AGUA INMACULADA MITRAS PONIENTE","razon":"","estrato":"0 a 5 personas","colonia":"MITRAS PONIENTE SECTOR LEONES","cp":"66023","canal":"recarga de barrio","peso":1.0}},{"type":"Feature","geometry":{"type":"Point","coordinates":[-100.31263207,25.76826559]},"properties":{"nombre":"AGUA INMACULADA NEXXUS","razon":"","estrato":"0 a 5 personas","colonia":"NEXXUS SECTOR CRISTAL","cp":"66055","canal":"recarga de barrio","peso":1.0}},{"type":"Feature","geometry":{"type":"Point","coordinates":[-100.0290685,25.87791297]},"properties":{"nombre":"AGUA LA NUEVA REGIA","razon":"","estrato":"0 a 5 personas","colonia":"CENTRO","cp":"66700","canal":"recarga de barrio","peso":1.0}},{"type":"Feature","geometry":{"type":"Point","coordinates":[-100.16995924,25.66118992]},"properties":{"nombre":"AGUA PURA LA SILLA","razon":"","estrato":"0 a 5 personas","colonia":"XOCHIMILCO","cp":"67196","canal":"recarga de barrio","peso":1.0}},{"type":"Feature","geometry":{"type":"Point","coordinates":[-100.39867419,25.76903328]},"properties":{"nombre":"AGUA PURIFICADA","razon":"","estrato":"0 a 5 personas","colonia":"ARCOS DEL SOL QUINTO SECTOR","cp":"64102","canal":"recarga de barrio","peso":1.0}},{"type":"Feature","geometry":{"type":"Point","coordinates":[-100.19398098,25.64255381]},"properties":{"nombre":"AGUA PURIFICADA ACUAMAN","razon":"","estrato":"0 a 5 personas","colonia":"NUEVA AURORA","cp":"67192","canal":"recarga de barrio","peso":1.0}},{"type":"Feature","geometry":{"type":"Point","coordinates":[-100.27867973,25.72075506]},"properties":{"nombre":"AGUA PURIFICADA ACUARIO","razon":"","estrato":"0 a 5 personas","colonia":"RESIDENCIAL NOGALAR","cp":"66486","canal":"recarga de barrio","peso":1.0}},{"type":"Feature","geometry":{"type":"Point","coordinates":[-100.28299786,25.76471397]},"properties":{"nombre":"AGUA PURIFICADA BLUE WATER","razon":"","estrato":"0 a 5 personas","colonia":"RESIDENCIAL ROBLE SEGUNDO SECTOR","cp":"66420","canal":"recarga de barrio","peso":1.0}},{"type":"Feature","geometry":{"type":"Point","coordinates":[-100.36937006,25.72036178]},"properties":{"nombre":"AGUA PURIFICADA CEDROS","razon":"","estrato":"0 a 5 personas","colonia":"LOS CEDROS","cp":"64370","canal":"recarga de barrio","peso":1.0}},{"type":"Feature","geometry":{"type":"Point","coordinates":[-100.16656945,25.96754656]},"properties":{"nombre":"AGUA PURIFICADA CIÉNEGA","razon":"","estrato":"11 a 30 personas","colonia":"TIERRA PROPIA 3 SECTOR","cp":"65564","canal":"industrial/embotellador","peso":0.15}},{"type":"Feature","geometry":{"type":"Point","coordinates":[-100.17032197,25.89526209]},"properties":{"nombre":"AGUA PURIFICADA COOL GEYSTR","razon":"","estrato":"6 a 10 personas","colonia":"LAGO DE PALMAS","cp":"65760","canal":"recarga de barrio","peso":1.0}},{"type":"Feature","geometry":{"type":"Point","coordinates":[-100.38246344,25.72057111]},"properties":{"nombre":"AGUA PURIFICADA CUMBRES","razon":"","estrato":"0 a 5 personas","colonia":"LAS CUMBRES CUARTO SECTOR A","cp":"64619","canal":"recarga de barrio","peso":1.0}},{"type":"Feature","geometry":{"type":"Point","coordinates":[-100.58773952,25.80173534]},"properties":{"nombre":"AGUA PURIFICADA DE LA VILLA","razon":"","estrato":"0 a 5 personas","colonia":"SAN MARTÍN","cp":"66005","canal":"recarga de barrio","peso":1.0}},{"type":"Feature","geometry":{"type":"Point","coordinates":[-100.25950948,25.82218686]},"properties":{"nombre":"AGUA PURIFICADA EL MANANTIAL","razon":"","estrato":"0 a 5 personas","colonia":"MOISÉS SÁENZ","cp":"66613","canal":"recarga de barrio","peso":1.0}},{"type":"Feature","geometry":{"type":"Point","coordinates":[-100.14912459,25.97245022]},"properties":{"nombre":"AGUA PURIFICADA LA PEÑITA","razon":"AGUA PURIFICADA LA PEÑITA","estrato":"51 a 100 personas","colonia":"CIENEGA DE FLORES","cp":"65550","canal":"industrial/embotellador","peso":0.15}},{"type":"Feature","geometry":{"type":"Point","coordinates":[-100.01876635,25.57296615]},"properties":{"nombre":"AGUA PURIFICADA MADRIGAL","razon":"","estrato":"6 a 10 personas","colonia":"INFONAVIT SABANITOS","cp":"67485","canal":"recarga de barrio","peso":1.0}},{"type":"Feature","geometry":{"type":"Point","coordinates":[-100.196479,25.7812853]},"properties":{"nombre":"AGUA PURIFICADA MONTE RIO","razon":"AGUA PURIFICADA MONTE RIO","estrato":"0 a 5 personas","colonia":"CABECERA MUNICIPAL (APODACA)","cp":"66600","canal":"recarga de barrio","peso":1.0}},{"type":"Feature","geometry":{"type":"Point","coordinates":[-100.16009309,25.90347121]},"properties":{"nombre":"AGUA PURIFICADA RICHWATE","razon":"","estrato":"0 a 5 personas","colonia":"PEDREGAL DE LAS PALMAS","cp":"65760","canal":"recarga de barrio","peso":1.0}},{"type":"Feature","geometry":{"type":"Point","coordinates":[-100.30203475,25.70824991]},"properties":{"nombre":"AGUA PURIFICADA SIN NOMBRE","razon":"AGUA PURIFICADA","estrato":"0 a 5 personas","colonia":"COLONIA DEL NORTE","cp":"64508","canal":"recarga de barrio","peso":1.0}},{"type":"Feature","geometry":{"type":"Point","coordinates":[-100.16229996,25.89929182]},"properties":{"nombre":"AGUA PURIFICADA UNIKA","razon":"","estrato":"0 a 5 personas","colonia":"LOMAS DE LAS PALMAS","cp":"65760","canal":"recarga de barrio","peso":1.0}},{"type":"Feature","geometry":{"type":"Point","coordinates":[-100.2173259,25.74250358]},"properties":{"nombre":"AGUA PURIFICADA VEVEY","razon":"","estrato":"0 a 5 personas","colonia":"PARQUE INDUSTRIAL J.M.","cp":"66633","canal":"recarga de barrio","peso":1.0}},{"type":"Feature","geometry":{"type":"Point","coordinates":[-100.34654246,25.69346859]},"properties":{"nombre":"AGUA PURIFICADA VITARA","razon":"","estrato":"0 a 5 personas","colonia":"MITRAS CENTRO","cp":"64460","canal":"recarga de barrio","peso":1.0}},{"type":"Feature","geometry":{"type":"Point","coordinates":[-100.46007348,25.66882927]},"properties":{"nombre":"AGUA PURIFICADORA","razon":"SANDRA HERNANDEZ","estrato":"0 a 5 personas","colonia":"CENTRO","cp":"66365","canal":"recarga de barrio","peso":1.0}},{"type":"Feature","geometry":{"type":"Point","coordinates":[-100.40332961,25.75419341]},"properties":{"nombre":"AGUA PURIFICADORA CUMBRES","razon":"AGUA PURIFICADORA CUMBRES","estrato":"0 a 5 personas","colonia":"REAL CUMBRES PRIMER SECTOR","cp":"64346","canal":"recarga de barrio","peso":1.0}},{"type":"Feature","geometry":{"type":"Point","coordinates":[-100.00664537,25.60147029]},"properties":{"nombre":"AGUA PURIFICADORA LA SUPREMA","razon":"","estrato":"0 a 5 personas","colonia":"EJIDO CADEREYTA","cp":"67485","canal":"recarga de barrio","peso":1.0}},{"type":"Feature","geometry":{"type":"Point","coordinates":[-100.45692099,25.65990206]},"properties":{"nombre":"AGUA SANTA","razon":"","estrato":"0 a 5 personas","colonia":"INFONAVIT SANTA CATARINA","cp":"66354","canal":"recarga de barrio","peso":1.0}},{"type":"Feature","geometry":{"type":"Point","coordinates":[-100.29519618,25.67941465]},"properties":{"nombre":"AGUA SOTELO","razon":"","estrato":"0 a 5 personas","colonia":"OBRERA","cp":"64010","canal":"recarga de barrio","peso":1.0}},{"type":"Feature","geometry":{"type":"Point","coordinates":[-100.00252475,25.58402949]},"properties":{"nombre":"AGUA STAR","razon":"GARZA ELIZONDO Y COMPAÑÍA","estrato":"251 y más personas","colonia":"ZONA CENTRO","cp":"67450","canal":"industrial/embotellador","peso":0.15}},{"type":"Feature","geometry":{"type":"Point","coordinates":[-100.2720632,25.75030539]},"properties":{"nombre":"AGUAPLUS AGUA PURIFICADA","razon":"","estrato":"0 a 5 personas","colonia":"LAS PUENTES SÉPTIMO SECTOR","cp":"66460","canal":"recarga de barrio","peso":1.0}},{"type":"Feature","geometry":{"type":"Point","coordinates":[-100.27400563,25.67348623]},"properties":{"nombre":"AQUA FINA","razon":"AQUA FINA","estrato":"11 a 30 personas","colonia":"PARAÍSO","cp":"67140","canal":"industrial/embotellador","peso":0.15}},{"type":"Feature","geometry":{"type":"Point","coordinates":[-100.18472463,25.77815058]},"properties":{"nombre":"AQUA ONE","razon":"","estrato":"0 a 5 personas","colonia":"MODERNO APODACA PRIMER SECTOR","cp":"66600","canal":"recarga de barrio","peso":1.0}},{"type":"Feature","geometry":{"type":"Point","coordinates":[-100.32597811,25.6722832]},"properties":{"nombre":"AQUA REY","razon":"","estrato":"6 a 10 personas","colonia":"CENTRO","cp":"64000","canal":"recarga de barrio","peso":1.0}},{"type":"Feature","geometry":{"type":"Point","coordinates":[-100.27962149,25.72248366]},"properties":{"nombre":"AQUA VENDING","razon":"ROLANDO CAVAZOS","estrato":"0 a 5 personas","colonia":"RESIDENCIAL NOGALAR","cp":"66486","canal":"recarga de barrio","peso":1.0}},{"type":"Feature","geometry":{"type":"Point","coordinates":[-100.17647057,25.65417309]},"properties":{"nombre":"BONAFONT - BEC MONTERREY CEDIS","razon":"BONAFONT","estrato":"0 a 5 personas","colonia":"LA SILLA","cp":"67195","canal":"industrial/embotellador","peso":0.15}},{"type":"Feature","geometry":{"type":"Point","coordinates":[-100.16168208,25.77602362]},"properties":{"nombre":"BONAFONT - BEC MONTERREY CEDIS","razon":"BONAFONT","estrato":"101 a 250 personas","colonia":"PARQUE INDUSTRIAL KRONOS","cp":"67190","canal":"industrial/embotellador","peso":0.15}},{"type":"Feature","geometry":{"type":"Point","coordinates":[-100.29283476,25.81667]},"properties":{"nombre":"BONAFONT - BEC NUEVA ESPERANZA CEDIS","razon":"BONAFONT","estrato":"0 a 5 personas","colonia":"NUEVA ESPERANZA","cp":"66064","canal":"industrial/embotellador","peso":0.15}},{"type":"Feature","geometry":{"type":"Point","coordinates":[-100.50909706,25.71711756]},"properties":{"nombre":"BONAFONT - BEC SANTA CATARINA CEDIS","razon":"BONAFONT","estrato":"0 a 5 personas","colonia":"PARQUE INDUSTRIAL 1ER SECTOR","cp":"66367","canal":"industrial/embotellador","peso":0.15}},{"type":"Feature","geometry":{"type":"Point","coordinates":[-100.3208328,25.7027004]},"properties":{"nombre":"COMERZIALIZADORA GARDUÑO","razon":"COMERCIALIZADORA GARDUÑO GUERRERO","estrato":"0 a 5 personas","colonia":"BELLA VISTA","cp":"64410","canal":"recarga de barrio","peso":1.0}},{"type":"Feature","geometry":{"type":"Point","coordinates":[-100.29494074,25.79353837]},"properties":{"nombre":"DESARROLLO E INOVACION JC","razon":"DESARROLLO E INOVACION JC","estrato":"0 a 5 personas","colonia":"LAS MALVINAS","cp":"66058","canal":"recarga de barrio","peso":1.0}},{"type":"Feature","geometry":{"type":"Point","coordinates":[-100.37498928,25.75187179]},"properties":{"nombre":"DISTRIBUIDORA DE AGUA","razon":"","estrato":"0 a 5 personas","colonia":"SAN BERNABÉ TOPO CHICO","cp":"64100","canal":"recarga de barrio","peso":1.0}},{"type":"Feature","geometry":{"type":"Point","coordinates":[-100.16720208,25.76934254]},"properties":{"nombre":"ELECTROPURA","razon":"ELECTROPURA","estrato":"51 a 100 personas","colonia":"PARQUE INDUSTRIAL MONTERREY","cp":"66603","canal":"industrial/embotellador","peso":0.15}},{"type":"Feature","geometry":{"type":"Point","coordinates":[-100.21442126,25.70779957]},"properties":{"nombre":"EMBOLLETADORA PUREVITE","razon":"EMBOLLETADORA PUREVITE","estrato":"0 a 5 personas","colonia":"VILLA DE SAN MIGUEL","cp":"67110","canal":"recarga de barrio","peso":1.0}},{"type":"Feature","geometry":{"type":"Point","coordinates":[-100.17757556,25.65485656]},"properties":{"nombre":"ENVASADORA DE AGUAS EN MEXICO MONTERREY PLANTA ","razon":"ENVASADORA DE AGUAS EN MEXICO","estrato":"251 y más personas","colonia":"LA SILLA","cp":"67190","canal":"industrial/embotellador","peso":0.15}},{"type":"Feature","geometry":{"type":"Point","coordinates":[-100.28836945,25.8140246]},"properties":{"nombre":"ENVASADORA DE AGUAS EN MEXICO SANTA CATARINA NUEVO LEON PLANTA ","razon":"ENVASADORA DE AGUAS EN MEXICO","estrato":"31 a 50 personas","colonia":"AGROPECUARIA EMILIANO ZAPATA","cp":"66052","canal":"industrial/embotellador","peso":0.15}},{"type":"Feature","geometry":{"type":"Point","coordinates":[-100.00497832,25.58473973]},"properties":{"nombre":"ESTACIONAMIENTO SIN NOMBRE","razon":"HIDRO PURIFICADORA STAR","estrato":"0 a 5 personas","colonia":"ZONA CENTRO","cp":"67480","canal":"recarga de barrio","peso":1.0}},{"type":"Feature","geometry":{"type":"Point","coordinates":[-100.39454562,25.75107495]},"properties":{"nombre":"EVERLONG","razon":"EVERLONG","estrato":"0 a 5 personas","colonia":"PLUTARCO ELIAS CALLES","cp":"64108","canal":"recarga de barrio","peso":1.0}},{"type":"Feature","geometry":{"type":"Point","coordinates":[-100.30051078,25.70572964]},"properties":{"nombre":"EXPENDEDOR DE AGUA SIN NOMBRE","razon":"","estrato":"0 a 5 personas","colonia":"VIDRIERA","cp":"64500","canal":"recarga de barrio","peso":1.0}},{"type":"Feature","geometry":{"type":"Point","coordinates":[-100.31326922,25.69371573]},"properties":{"nombre":"FINE WATER","razon":"FINE WATER","estrato":"6 a 10 personas","colonia":"LARRALDE","cp":"64450","canal":"recarga de barrio","peso":1.0}},{"type":"Feature","geometry":{"type":"Point","coordinates":[-100.38481472,25.75236611]},"properties":{"nombre":"FONTE NUEBA AGUA PURIFICADA","razon":"","estrato":"0 a 5 personas","colonia":"PLUTARCO ELÍAS CALLES 1-2","cp":"64108","canal":"recarga de barrio","peso":1.0}},{"type":"Feature","geometry":{"type":"Point","coordinates":[-100.2734319,25.67337818]},"properties":{"nombre":"GRUPO VEBIAR","razon":"GRUPO VEBIAR","estrato":"11 a 30 personas","colonia":"PARAÍSO","cp":"67140","canal":"industrial/embotellador","peso":0.15}},{"type":"Feature","geometry":{"type":"Point","coordinates":[-100.1893233,25.78345264]},"properties":{"nombre":"HIDRO VITA AGUA PURIFICADA","razon":"","estrato":"0 a 5 personas","colonia":"CABECERA MUNICIPAL (APODACA)","cp":"66600","canal":"recarga de barrio","peso":1.0}},{"type":"Feature","geometry":{"type":"Point","coordinates":[-100.25513761,25.81151566]},"properties":{"nombre":"HIDROMAXI","razon":"","estrato":"0 a 5 personas","colonia":"FUNDADORES","cp":"66613","canal":"recarga de barrio","peso":1.0}},{"type":"Feature","geometry":{"type":"Point","coordinates":[-100.00283864,25.58486252]},"properties":{"nombre":"HIDROPURIFICADORA STAR","razon":"HIDROPURIFICADORA STAR","estrato":"101 a 250 personas","colonia":"ZONA CENTRO","cp":"67480","canal":"industrial/embotellador","peso":0.15}},{"type":"Feature","geometry":{"type":"Point","coordinates":[-100.44430713,25.68261875]},"properties":{"nombre":"IDRATARE FIT","razon":"IDEATARE FIT","estrato":"0 a 5 personas","colonia":"CUAUHTÉMOC","cp":"66360","canal":"recarga de barrio","peso":1.0}},{"type":"Feature","geometry":{"type":"Point","coordinates":[-100.29821295,25.67533461]},"properties":{"nombre":"KAWA AGUA PURIFICADA","razon":"","estrato":"0 a 5 personas","colonia":"CENTRO","cp":"64000","canal":"recarga de barrio","peso":1.0}},{"type":"Feature","geometry":{"type":"Point","coordinates":[-100.27888596,25.67079382]},"properties":{"nombre":"LABORATORIOS MONTERREY","razon":"LABORATORIOS MONTERREY","estrato":"31 a 50 personas","colonia":"BUENOS AIRES","cp":"64800","canal":"industrial/embotellador","peso":0.15}},{"type":"Feature","geometry":{"type":"Point","coordinates":[-100.19487628,25.67990566]},"properties":{"nombre":"LACERTAE","razon":"LACERTAE","estrato":"0 a 5 personas","colonia":"LOS LERMAS","cp":"67190","canal":"recarga de barrio","peso":1.0}},{"type":"Feature","geometry":{"type":"Point","coordinates":[-100.31094294,25.70788039]},"properties":{"nombre":"LAKE SUPPLY GROUP MONTERREY","razon":"LAKE SUPPLY GROUP MONTERREY","estrato":"0 a 5 personas","colonia":"REGINA","cp":"64290","canal":"recarga de barrio","peso":1.0}},{"type":"Feature","geometry":{"type":"Point","coordinates":[-100.31020563,25.80002386]},"properties":{"nombre":"LIQUITEK DE MEXICO","razon":"LIQUITEK DE MEXICO","estrato":"11 a 30 personas","colonia":"LAS ENCINAS","cp":"66050","canal":"industrial/embotellador","peso":0.15}},{"type":"Feature","geometry":{"type":"Point","coordinates":[-100.38477386,25.77321032]},"properties":{"nombre":"MAQUILADORA DE AGUA","razon":"ISMAEL SANCHEZ","estrato":"0 a 5 personas","colonia":"MIRASOL SEGUNDO SECTOR","cp":"64102","canal":"recarga de barrio","peso":1.0}},{"type":"Feature","geometry":{"type":"Point","coordinates":[-100.34325035,25.7150343]},"properties":{"nombre":"NATURAL DRINK","razon":"","estrato":"6 a 10 personas","colonia":"CENTRAL","cp":"64320","canal":"recarga de barrio","peso":1.0}},{"type":"Feature","geometry":{"type":"Point","coordinates":[-100.25442364,25.69537935]},"properties":{"nombre":"OLIMAR WATER","razon":"","estrato":"0 a 5 personas","colonia":"LINDA VISTA","cp":"67130","canal":"recarga de barrio","peso":1.0}},{"type":"Feature","geometry":{"type":"Point","coordinates":[-100.38680837,25.74459876]},"properties":{"nombre":"OXIPURA AGUA PURIFICADA","razon":"","estrato":"0 a 5 personas","colonia":"PORTAL DE CUMBRES PRIMER SECTOR SEGUNDA ETAPA","cp":"64348","canal":"recarga de barrio","peso":1.0}},{"type":"Feature","geometry":{"type":"Point","coordinates":[-100.32905316,25.78139557]},"properties":{"nombre":"PROCESADORA DE AGUA PURIFICADA ISA","razon":"","estrato":"0 a 5 personas","colonia":"SOLIDARIDAD SOCIAL (FOMERREY 9)","cp":"66050","canal":"recarga de barrio","peso":1.0}},{"type":"Feature","geometry":{"type":"Point","coordinates":[-100.2861108,25.74284277]},"properties":{"nombre":"PURIFICADOR DE AGUA","razon":"","estrato":"0 a 5 personas","colonia":"LAS PUENTES SEGUNDO SECTOR","cp":"66460","canal":"recarga de barrio","peso":1.0}},{"type":"Feature","geometry":{"type":"Point","coordinates":[-99.98487912,25.59109884]},"properties":{"nombre":"PURIFICADORA","razon":"","estrato":"6 a 10 personas","colonia":"LÁZARO CÁRDENAS SEGUNDO SECTOR","cp":"67484","canal":"recarga de barrio","peso":1.0}},{"type":"Feature","geometry":{"type":"Point","coordinates":[-100.26609765,25.78094228]},"properties":{"nombre":"PURIFICADORA DE AGUA FRESH WATER","razon":"","estrato":"0 a 5 personas","colonia":"PASEO DE LAS PALMAS CUARTO SECTOR","cp":"66635","canal":"recarga de barrio","peso":1.0}},{"type":"Feature","geometry":{"type":"Point","coordinates":[-100.30662044,25.85749967]},"properties":{"nombre":"PURIFICADORA EDEN PURA","razon":"","estrato":"0 a 5 personas","colonia":"PRIVADA LOS PRADOS","cp":"66580","canal":"recarga de barrio","peso":1.0}},{"type":"Feature","geometry":{"type":"Point","coordinates":[-100.47725111,25.75725024]},"properties":{"nombre":"PURIFICADORA SANARIS","razon":"","estrato":"6 a 10 personas","colonia":"DOMINIOS","cp":"66036","canal":"recarga de barrio","peso":1.0}},{"type":"Feature","geometry":{"type":"Point","coordinates":[-100.30231298,25.7530466]},"properties":{"nombre":"RAIN WATER","razon":"","estrato":"0 a 5 personas","colonia":"NUEVO PERIFERICO PRIMER SECTOR","cp":"66423","canal":"recarga de barrio","peso":1.0}},{"type":"Feature","geometry":{"type":"Point","coordinates":[-100.2937577,25.7463832]},"properties":{"nombre":"REGIO BLUE","razon":"","estrato":"6 a 10 personas","colonia":"LAS PUENTES PRIMER SECTOR","cp":"66460","canal":"recarga de barrio","peso":1.0}},{"type":"Feature","geometry":{"type":"Point","coordinates":[-100.30377209,25.74699895]},"properties":{"nombre":"SAPPHIRE WATER AND ICE","razon":"","estrato":"0 a 5 personas","colonia":"VILLA UNIVERSIDAD","cp":"66420","canal":"recarga de barrio","peso":1.0}},{"type":"Feature","geometry":{"type":"Point","coordinates":[-100.56371396,25.79835462]},"properties":{"nombre":"SERVICIO DE ABASTECIMIENTO DE AGUA EN GARRAFONES AGUA INMACULADA","razon":"AUTOTRANSPORTES TRASEMAC","estrato":"0 a 5 personas","colonia":"VALLE DE SAN BLAS SEGUNDO SECTOR","cp":"66025","canal":"recarga de barrio","peso":1.0}},{"type":"Feature","geometry":{"type":"Point","coordinates":[-100.32923527,25.70320795]},"properties":{"nombre":"SERVICIOS INTEGRALES EU SOU A LENDA","razon":"SERVICIOS INTEGRALES EU SOU A LENDA","estrato":"0 a 5 personas","colonia":"ESTRELLA","cp":"64420","canal":"recarga de barrio","peso":1.0}},{"type":"Feature","geometry":{"type":"Point","coordinates":[-100.49820496,25.7015435]},"properties":{"nombre":"SOY SANNA","razon":"SOY SANNA","estrato":"11 a 30 personas","colonia":"REGIO PARQUE INDUSTRIAL PRIMER SECTOR","cp":"66367","canal":"industrial/embotellador","peso":0.15}},{"type":"Feature","geometry":{"type":"Point","coordinates":[-100.3309329,25.69802866]},"properties":{"nombre":"UNO A UNO TALLER PROTEGIDO","razon":"UNO A UNO TALLER PROTEGIDO","estrato":"6 a 10 personas","colonia":"PROGRESO","cp":"64440","canal":"recarga de barrio","peso":1.0}},{"type":"Feature","geometry":{"type":"Point","coordinates":[-100.3853059,25.84513078]},"properties":{"nombre":"VENTA DE AGUA EN GARRAFON SIN NOMBRE","razon":"","estrato":"0 a 5 personas","colonia":"MÉXICO","cp":"66084","canal":"recarga de barrio","peso":1.0}},{"type":"Feature","geometry":{"type":"Point","coordinates":[-100.29754775,25.95885584]},"properties":{"nombre":"VENTA DE AGUA EXTRAPURA","razon":"","estrato":"6 a 10 personas","colonia":"CENTRO DE SALINAS VICTORIA","cp":"65500","canal":"recarga de barrio","peso":1.0}},{"type":"Feature","geometry":{"type":"Point","coordinates":[-100.34099438,25.71545124]},"properties":{"nombre":"VODAPURA AGUA PURIFICADA","razon":"","estrato":"0 a 5 personas","colonia":"BERNARDO REYES","cp":"64190","canal":"recarga de barrio","peso":1.0}},{"type":"Feature","geometry":{"type":"Point","coordinates":[-100.33291737,25.70523151]},"properties":{"nombre":"WATER HOUSE","razon":"PURIFICADORA SALBA ","estrato":"0 a 5 personas","colonia":"INDUSTRIAL","cp":"64440","canal":"recarga de barrio","peso":1.0}},{"type":"Feature","geometry":{"type":"Point","coordinates":[-100.27148587,25.71139415]},"properties":{"nombre":"WATER HOUSE","razon":"PURIFICADORA SALBA","estrato":"11 a 30 personas","colonia":"DIAZ ORDAZ","cp":"66480","canal":"industrial/embotellador","peso":0.15}}]}