{"type":"FeatureCollection","features":[{"type":"Feature","properties":{"nom":"Apodaca","nucleo":true},"geometry":{"type":"Polygon","coordinates":[[[-100.1439,25.8526],[-100.1406,25.8502],[-100.1347,25.8458],[-100.1275,25.8476],[-100.1234,25.8471],[-100.1234,25.8457],[-100.1174,25.8451],[-100.1163,25.8436],[-100.1166,25.8419],[-100.1147,25.8403],[-100.1141,25.8369],[-100.1147,25.8365],[-100.1161,25.8353],[-100.1192,25.8344],[-100.1302,25.8303],[-100.1297,25.827],[-100.1313,25.8243],[-100.1319,25.8211],[-100.1308,25.8173],[-100.1281,25.8146],[-100.1239,25.8134],[-100.1224,25.8143],[-100.1207,25.8135],[-100.1174,25.8103],[-100.1123,25.8074],[-100.1079,25.8043],[-100.1075,25.8036],[-100.1065,25.8027],[-100.1057,25.8024],[-100.1012,25.8004],[-100.1015,25.7997],[-100.1021,25.7982],[-100.1023,25.7979],[-100.1051,25.7959],[-100.1057,25.7924],[-100.1019,25.7904],[-100.1012,25.7851],[-100.101,25.7784],[-100.1049,25.7678],[-100.1128,25.7596],[-100.1352,25.7433],[-100.1356,25.7381],[-100.1389,25.7384],[-100.1486,25.7311],[-100.1369,25.7328],[-100.1341,25.7333],[-100.131,25.7327],[-100.1243,25.7346],[-100.1242,25.717],[-100.1249,25.7162],[-100.1167,25.7155],[-100.115,25.7157],[-100.1156,25.7091],[-100.1123,25.71],[-100.1097,25.7082],[-100.1068,25.7014],[-100.1125,25.7025],[-100.1164,25.7032],[-100.1168,25.6986],[-100.117,25.6966],[-100.1192,25.6971],[-100.1206,25.6974],[-100.1216,25.6977],[-100.1226,25.6979],[-100.1205,25.6967],[-100.1231,25.6941],[-100.1271,25.6971],[-100.1311,25.6973],[-100.1304,25.6994],[-100.133,25.7007],[-100.1334,25.7008],[-100.1387,25.7015],[-100.1389,25.7049],[-100.1408,25.7031],[-100.141,25.7031],[-100.1413,25.7019],[-100.1465,25.7025],[-100.1463,25.7031],[-100.1529,25.7043],[-100.1529,25.7045],[-100.1547,25.705],[-100.1547,25.705],[-100.155,25.7043],[-100.155,25.7044],[-100.1545,25.7083],[-100.1569,25.7081],[-100.1583,25.7058],[-100.1618,25.7066],[-100.1619,25.7066],[-100.164,25.7071],[-100.1641,25.7071],[-100.1641,25.7072],[-100.1648,25.7074],[-100.1651,25.7074],[-100.1654,25.7074],[-100.1657,25.7075],[-100.168,25.7077],[-100.1681,25.7078],[-100.1681,25.7079],[-100.1685,25.7079],[-100.1714,25.7088],[-100.1717,25.7088],[-100.1721,25.709],[-100.1723,25.7088],[-100.1725,25.7086],[-100.1729,25.7081],[-100.173,25.7081],[-100.173,25.7081],[-100.173,25.7081],[-100.173,25.708],[-100.173,25.708],[-100.173,25.708],[-100.173,25.708],[-100.1731,25.7079],[-100.1733,25.7077],[-100.1737,25.7074],[-100.1737,25.7075],[-100.1741,25.7079],[-100.1742,25.7082],[-100.1742,25.7084],[-100.1742,25.7085],[-100.174,25.7087],[-100.1739,25.7088],[-100.1738,25.7089],[-100.1731,25.7091],[-100.173,25.7091],[-100.1767,25.71],[-100.1779,25.7102],[-100.1778,25.7104],[-100.1777,25.7107],[-100.1776,25.7107],[-100.1773,25.7111],[-100.1768,25.7115],[-100.1765,25.7116],[-100.1772,25.7118],[-100.1783,25.7119],[-100.1785,25.7118],[-100.1787,25.7119],[-100.1788,25.712],[-100.1791,25.7121],[-100.1813,25.7131],[-100.1846,25.7124],[-100.1837,25.7172],[-100.1837,25.7175],[-100.183,25.7205],[-100.1823,25.7201],[-100.1806,25.7193],[-100.18,25.7221],[-100.1799,25.7221],[-100.1789,25.7271],[-100.1789,25.7272],[-100.1784,25.7294],[-100.1886,25.7302],[-100.189,25.7302],[-100.19,25.7302],[-100.1899,25.7304],[-100.1928,25.7306],[-100.1933,25.7307],[-100.1952,25.7308],[-100.1966,25.7309],[-100.204,25.7315],[-100.2042,25.7316],[-100.2069,25.7318],[-100.2067,25.7328],[-100.2094,25.7332],[-100.2196,25.7383],[-100.2194,25.7396],[-100.2256,25.7406],[-100.2253,25.7413],[-100.2376,25.7477],[-100.238,25.746],[-100.2405,25.7503],[-100.2449,25.7556],[-100.2478,25.7561],[-100.2495,25.7574],[-100.2609,25.7632],[-100.2671,25.7643],[-100.2666,25.766],[-100.267,25.7705],[-100.27,25.8009],[-100.2688,25.804],[-100.2672,25.804],[-100.2613,25.802],[-100.2645,25.8211],[-100.2659,25.8302],[-100.2675,25.83],[-100.2688,25.8384],[-100.2706,25.8457],[-100.2728,25.8494],[-100.2717,25.8495],[-100.2717,25.8688],[-100.2717,25.8695],[-100.2717,25.8706],[-100.2717,25.871],[-100.2717,25.8718],[-100.254,25.8793],[-100.2534,25.8779],[-100.2524,25.8755],[-100.2429,25.8524],[-100.2353,25.8632],[-100.2141,25.8631],[-100.1746,25.8626],[-100.1724,25.8604],[-100.17,25.8624],[-100.1575,25.8565],[-100.1572,25.8568],[-100.1459,25.854],[-100.1439,25.8526]]]}},{"type":"Feature","properties":{"nom":"General Escobedo","nucleo":true},"geometry":{"type":"Polygon","coordinates":[[[-100.4276,25.8957],[-100.4258,25.8934],[-100.4072,25.865],[-100.4074,25.864],[-100.3973,25.8536],[-100.3796,25.8485],[-100.3627,25.8479],[-100.3603,25.8478],[-100.3563,25.8477],[-100.3272,25.8466],[-100.3273,25.8486],[-100.32,25.8487],[-100.3163,25.8487],[-100.3094,25.8488],[-100.2982,25.849],[-100.2868,25.849],[-100.2728,25.8494],[-100.2706,25.8457],[-100.2688,25.8384],[-100.2675,25.83],[-100.2659,25.8302],[-100.2645,25.8211],[-100.2613,25.802],[-100.2672,25.804],[-100.2688,25.804],[-100.27,25.8009],[-100.267,25.7705],[-100.2899,25.7679],[-100.3063,25.7657],[-100.3154,25.7646],[-100.3368,25.7627],[-100.3405,25.7622],[-100.3416,25.7655],[-100.3443,25.7701],[-100.3464,25.7711],[-100.3502,25.7785],[-100.3516,25.7793],[-100.3559,25.7851],[-100.3588,25.786],[-100.3631,25.7894],[-100.3662,25.7894],[-100.3673,25.7914],[-100.372,25.7929],[-100.3872,25.7973],[-100.3908,25.7938],[-100.394,25.7928],[-100.3971,25.7935],[-100.3992,25.7951],[-100.4029,25.7965],[-100.4049,25.7958],[-100.4111,25.7903],[-100.4154,25.7894],[-100.4175,25.7897],[-100.4184,25.7909],[-100.4213,25.7981],[-100.4261,25.8091],[-100.4271,25.8098],[-100.4281,25.8145],[-100.4292,25.8151],[-100.4475,25.8557],[-100.4581,25.8803],[-100.4685,25.8983],[-100.4642,25.8985],[-100.4542,25.8964],[-100.4482,25.8941],[-100.4445,25.8932],[-100.4423,25.8918],[-100.4428,25.8905],[-100.4385,25.8925],[-100.4322,25.8935],[-100.4276,25.8957]]]}},{"type":"Feature","properties":{"nom":"Guadalupe","nucleo":true},"geometry":{"type":"Polygon","coordinates":[[[-100.2042,25.7316],[-100.204,25.7315],[-100.1966,25.7309],[-100.1952,25.7308],[-100.1933,25.7307],[-100.1928,25.7306],[-100.1899,25.7304],[-100.19,25.7302],[-100.189,25.7302],[-100.1886,25.7302],[-100.1784,25.7294],[-100.1789,25.7272],[-100.1789,25.7271],[-100.1799,25.7221],[-100.18,25.7221],[-100.1806,25.7193],[-100.1823,25.7201],[-100.183,25.7205],[-100.1837,25.7175],[-100.1837,25.7172],[-100.1846,25.7124],[-100.1813,25.7131],[-100.1791,25.7121],[-100.1788,25.712],[-100.1787,25.7119],[-100.1785,25.7118],[-100.1783,25.7119],[-100.1772,25.7118],[-100.1765,25.7116],[-100.1768,25.7115],[-100.1773,25.7111],[-100.1776,25.7107],[-100.1777,25.7107],[-100.1778,25.7104],[-100.1779,25.7102],[-100.1767,25.71],[-100.173,25.7091],[-100.1731,25.7091],[-100.1738,25.7089],[-100.1739,25.7088],[-100.174,25.7087],[-100.1742,25.7085],[-100.1742,25.7084],[-100.1742,25.7082],[-100.1741,25.7079],[-100.1737,25.7075],[-100.1737,25.7074],[-100.1733,25.7077],[-100.1731,25.7079],[-100.173,25.708],[-100.173,25.708],[-100.173,25.708],[-100.173,25.708],[-100.173,25.7081],[-100.173,25.7081],[-100.173,25.7081],[-100.1729,25.7081],[-100.1725,25.7086],[-100.1723,25.7088],[-100.1721,25.709],[-100.1717,25.7088],[-100.1714,25.7088],[-100.1685,25.7079],[-100.1681,25.7079],[-100.1681,25.7078],[-100.168,25.7077],[-100.1657,25.7075],[-100.1654,25.7074],[-100.1651,25.7074],[-100.1648,25.7074],[-100.1641,25.7072],[-100.1641,25.7071],[-100.164,25.7071],[-100.1619,25.7066],[-100.1618,25.7066],[-100.1583,25.7058],[-100.1569,25.7081],[-100.1545,25.7083],[-100.155,25.7044],[-100.155,25.7043],[-100.1547,25.705],[-100.1547,25.705],[-100.1529,25.7045],[-100.1529,25.7043],[-100.1463,25.7031],[-100.1465,25.7025],[-100.1413,25.7019],[-100.141,25.7031],[-100.1408,25.7031],[-100.1389,25.7049],[-100.1387,25.7015],[-100.1334,25.7008],[-100.133,25.7007],[-100.1304,25.6994],[-100.1311,25.6973],[-100.1271,25.6971],[-100.1231,25.6941],[-100.1205,25.6967],[-100.1226,25.6979],[-100.1216,25.6977],[-100.1206,25.6974],[-100.1192,25.6971],[-100.117,25.6966],[-100.1171,25.6962],[-100.1171,25.6961],[-100.1184,25.6908],[-100.1192,25.691],[-100.1217,25.6833],[-100.1252,25.6752],[-100.1252,25.6737],[-100.1272,25.6725],[-100.1274,25.6711],[-100.1297,25.6711],[-100.1309,25.6697],[-100.1359,25.6667],[-100.1551,25.6546],[-100.1592,25.6522],[-100.1706,25.6448],[-100.1712,25.6446],[-100.1855,25.6356],[-100.1872,25.6364],[-100.1876,25.6343],[-100.1951,25.6295],[-100.1954,25.6298],[-100.2092,25.6231],[-100.2421,25.6248],[-100.2433,25.6261],[-100.2616,25.6232],[-100.2664,25.6222],[-100.2668,25.6221],[-100.2669,25.622],[-100.2695,25.6215],[-100.27,25.6233],[-100.2728,25.6258],[-100.2708,25.6281],[-100.2715,25.6337],[-100.2698,25.6364],[-100.2692,25.6395],[-100.2707,25.6423],[-100.2733,25.6429],[-100.2734,25.643],[-100.2743,25.647],[-100.272,25.6486],[-100.2689,25.6493],[-100.2681,25.651],[-100.2732,25.6545],[-100.2733,25.6567],[-100.2705,25.6593],[-100.2698,25.661],[-100.2702,25.6663],[-100.2714,25.6663],[-100.2714,25.6699],[-100.2714,25.6702],[-100.2728,25.6709],[-100.2739,25.6747],[-100.2719,25.6763],[-100.2717,25.6764],[-100.2759,25.6763],[-100.2737,25.6799],[-100.271,25.6814],[-100.263,25.682],[-100.2613,25.6827],[-100.2619,25.6858],[-100.2619,25.6876],[-100.2619,25.6962],[-100.2619,25.6962],[-100.2619,25.697],[-100.2618,25.6987],[-100.2618,25.6988],[-100.2618,25.6998],[-100.2618,25.6998],[-100.2618,25.6998],[-100.2618,25.7],[-100.2618,25.7002],[-100.2618,25.7003],[-100.2618,25.7012],[-100.26,25.7013],[-100.2583,25.7045],[-100.256,25.7041],[-100.2542,25.7062],[-100.2513,25.705],[-100.2464,25.7059],[-100.2434,25.7082],[-100.2325,25.7108],[-100.2323,25.7131],[-100.2297,25.7127],[-100.2284,25.7115],[-100.2213,25.7125],[-100.2189,25.7117],[-100.2126,25.7153],[-100.2078,25.7163],[-100.207,25.7176],[-100.2038,25.7182],[-100.2027,25.7222],[-100.2057,25.7226],[-100.2055,25.7264],[-100.2069,25.7318],[-100.2042,25.7316]]]}},{"type":"Feature","properties":{"nom":"García","nucleo":true},"geometry":{"type":"Polygon","coordinates":[[[-100.4978,25.9028],[-100.4942,25.9013],[-100.4902,25.8991],[-100.4685,25.8983],[-100.4581,25.8803],[-100.4475,25.8557],[-100.4292,25.8151],[-100.4281,25.8145],[-100.4271,25.8098],[-100.4261,25.8091],[-100.4213,25.7981],[-100.4184,25.7909],[-100.4175,25.7897],[-100.4154,25.7894],[-100.4179,25.7823],[-100.4184,25.7809],[-100.4184,25.7809],[-100.4187,25.7803],[-100.4304,25.7503],[-100.4416,25.7205],[-100.4451,25.7206],[-100.4578,25.7266],[-100.4631,25.7283],[-100.467,25.7285],[-100.4726,25.7314],[-100.4766,25.7319],[-100.4791,25.735],[-100.4837,25.7365],[-100.488,25.7371],[-100.4954,25.7405],[-100.4988,25.744],[-100.5069,25.75],[-100.5098,25.75],[-100.5127,25.7442],[-100.5139,25.743],[-100.534,25.728],[-100.5354,25.7267],[-100.5495,25.7101],[-100.5545,25.7136],[-100.5614,25.7074],[-100.5633,25.7039],[-100.5655,25.7012],[-100.5672,25.7022],[-100.5757,25.7192],[-100.5792,25.7186],[-100.5835,25.72],[-100.5849,25.7193],[-100.5879,25.72],[-100.5919,25.7221],[-100.5996,25.7151],[-100.6025,25.7136],[-100.6025,25.7044],[-100.6048,25.7041],[-100.6193,25.7009],[-100.6249,25.6973],[-100.6453,25.6932],[-100.6473,25.6916],[-100.6695,25.6622],[-100.6757,25.6604],[-100.6846,25.6605],[-100.6957,25.6599],[-100.7091,25.6584],[-100.6999,25.6388],[-100.7234,25.627],[-100.7298,25.6339],[-100.7812,25.6386],[-100.7834,25.6397],[-100.7804,25.6457],[-100.7878,25.6836],[-100.8037,25.7088],[-100.8056,25.7243],[-100.8251,25.7517],[-100.8619,25.8185],[-100.8471,25.8579],[-100.8464,25.8587],[-100.84,25.8619],[-100.8371,25.8638],[-100.8358,25.8666],[-100.834,25.8736],[-100.8324,25.882],[-100.8227,25.9169],[-100.8272,25.9205],[-100.8344,25.945],[-100.8243,25.9441],[-100.8183,25.9501],[-100.8162,25.94],[-100.775,25.9502],[-100.7539,25.9604],[-100.7374,25.9835],[-100.7204,25.9447],[-100.7013,25.9458],[-100.6768,25.95],[-100.6747,25.9505],[-100.6725,25.9499],[-100.6693,25.9467],[-100.6666,25.9494],[-100.6657,25.9519],[-100.6627,25.952],[-100.6592,25.9512],[-100.6579,25.9501],[-100.6537,25.9527],[-100.6502,25.954],[-100.6475,25.9587],[-100.6412,25.9589],[-100.6388,25.9607],[-100.6372,25.9596],[-100.6218,25.9641],[-100.6174,25.9671],[-100.612,25.9477],[-100.6113,25.9221],[-100.6117,25.8632],[-100.6084,25.8637],[-100.6078,25.8653],[-100.6046,25.8701],[-100.6005,25.8733],[-100.5955,25.8754],[-100.5912,25.8765],[-100.5883,25.8783],[-100.5812,25.8788],[-100.5793,25.8801],[-100.5716,25.8828],[-100.568,25.8853],[-100.5236,25.9059],[-100.5173,25.9035],[-100.504,25.9008],[-100.4978,25.9028]]]}},{"type":"Feature","properties":{"nom":"San Pedro Garza García","nucleo":false},"geometry":{"type":"Polygon","coordinates":[[[-100.3976,25.6784],[-100.3976,25.6782],[-100.3976,25.6782],[-100.3976,25.6781],[-100.3979,25.6782],[-100.398,25.6779],[-100.3976,25.6746],[-100.3954,25.6732],[-100.3887,25.6716],[-100.383,25.6698],[-100.3827,25.6685],[-100.38,25.6677],[-100.3671,25.668],[-100.3659,25.6684],[-100.3635,25.6711],[-100.3595,25.6681],[-100.3518,25.6642],[-100.3506,25.6648],[-100.3474,25.6634],[-100.3475,25.6634],[-100.3469,25.6628],[-100.3468,25.6628],[-100.3422,25.6615],[-100.3334,25.6568],[-100.3315,25.6551],[-100.3271,25.6536],[-100.3273,25.6532],[-100.3271,25.6531],[-100.3257,25.6539],[-100.3216,25.6528],[-100.3188,25.6503],[-100.3129,25.647],[-100.3126,25.6463],[-100.3132,25.645],[-100.3146,25.6424],[-100.3149,25.642],[-100.3182,25.6382],[-100.3224,25.6282],[-100.3266,25.6201],[-100.3325,25.6144],[-100.3336,25.6079],[-100.3441,25.5898],[-100.3607,25.5999],[-100.3621,25.6],[-100.3691,25.6048],[-100.3686,25.6054],[-100.3778,25.6102],[-100.3866,25.6142],[-100.3916,25.6174],[-100.3918,25.6185],[-100.396,25.6204],[-100.3962,25.6213],[-100.3995,25.6223],[-100.4093,25.6273],[-100.4204,25.6344],[-100.4246,25.6366],[-100.4257,25.6384],[-100.4241,25.643],[-100.4239,25.6461],[-100.4211,25.6648],[-100.4196,25.6685],[-100.4202,25.6711],[-100.4194,25.6743],[-100.4206,25.6741],[-100.418,25.6788],[-100.4173,25.6846],[-100.416,25.6913],[-100.423,25.6952],[-100.4225,25.6955],[-100.4275,25.7157],[-100.423,25.7136],[-100.4232,25.7124],[-100.4194,25.711],[-100.4189,25.7102],[-100.4135,25.7079],[-100.4114,25.7076],[-100.4096,25.7046],[-100.4069,25.7046],[-100.4037,25.7025],[-100.4016,25.6989],[-100.3977,25.6945],[-100.3976,25.6784]]]}},{"type":"Feature","properties":{"nom":"Juárez","nucleo":true},"geometry":{"type":"Polygon","coordinates":[[[-99.9901,25.6823],[-99.9941,25.6793],[-100.0013,25.6704],[-100.0036,25.6668],[-99.9962,25.6665],[-100.009,25.6522],[-100.0232,25.654],[-100.0297,25.6542],[-100.0464,25.6577],[-100.0559,25.6614],[-100.0643,25.6526],[-100.066,25.6527],[-100.0402,25.6377],[-100.0424,25.6201],[-100.0478,25.6231],[-100.0525,25.6266],[-100.0558,25.6281],[-100.057,25.6269],[-100.0562,25.623],[-100.0583,25.6214],[-100.0597,25.6179],[-100.0604,25.6166],[-100.0626,25.6118],[-100.0627,25.6116],[-100.0627,25.6116],[-100.0628,25.6114],[-100.0631,25.6113],[-100.0636,25.6111],[-100.0642,25.6109],[-100.0647,25.6108],[-100.0651,25.6108],[-100.0674,25.6111],[-100.0678,25.6112],[-100.0682,25.6113],[-100.0684,25.6112],[-100.0691,25.6111],[-100.0697,25.6109],[-100.0703,25.6107],[-100.0709,25.6105],[-100.0725,25.6098],[-100.0726,25.6099],[-100.0729,25.61],[-100.0732,25.6101],[-100.0735,25.6102],[-100.0749,25.6099],[-100.0753,25.6095],[-100.0758,25.6089],[-100.0759,25.6088],[-100.0762,25.6087],[-100.0764,25.6085],[-100.0766,25.6084],[-100.0769,25.6081],[-100.0771,25.608],[-100.0774,25.6077],[-100.0794,25.6057],[-100.0795,25.6054],[-100.0797,25.6053],[-100.0801,25.6052],[-100.0804,25.6051],[-100.0807,25.6051],[-100.081,25.6051],[-100.0814,25.6051],[-100.082,25.6054],[-100.0822,25.6056],[-100.0827,25.606],[-100.0832,25.6064],[-100.0835,25.6066],[-100.0842,25.6069],[-100.0847,25.607],[-100.0851,25.607],[-100.0854,25.607],[-100.0856,25.607],[-100.0858,25.6069],[-100.0859,25.6067],[-100.0861,25.6065],[-100.0864,25.6058],[-100.0863,25.6053],[-100.0862,25.6047],[-100.0861,25.6044],[-100.0861,25.6043],[-100.086,25.6039],[-100.0866,25.6014],[-100.0899,25.5995],[-100.0923,25.5994],[-100.0942,25.5983],[-100.1044,25.5845],[-100.0905,25.5717],[-100.0919,25.5705],[-100.0985,25.5766],[-100.1018,25.5736],[-100.0979,25.5699],[-100.1018,25.5661],[-100.0958,25.5606],[-100.0969,25.5597],[-100.1068,25.5687],[-100.1107,25.5648],[-100.1042,25.5589],[-100.0773,25.5339],[-100.0731,25.5376],[-100.075,25.5393],[-100.0739,25.5403],[-100.049,25.5173],[-100.0501,25.5163],[-100.0553,25.5211],[-100.0606,25.5152],[-100.0719,25.5256],[-100.0721,25.5255],[-100.0725,25.5252],[-100.0725,25.5252],[-100.0732,25.5247],[-100.0741,25.5242],[-100.0759,25.5234],[-100.0747,25.5223],[-100.0734,25.5211],[-100.077,25.5181],[-100.0812,25.5183],[-100.0806,25.5154],[-100.0843,25.5151],[-100.0879,25.5131],[-100.0918,25.5136],[-100.0953,25.5155],[-100.1016,25.5139],[-100.1034,25.5162],[-100.1071,25.5166],[-100.1073,25.5187],[-100.1114,25.5243],[-100.1135,25.5236],[-100.1151,25.5255],[-100.1197,25.5228],[-100.1201,25.522],[-100.1234,25.522],[-100.122,25.524],[-100.1226,25.5271],[-100.1251,25.5278],[-100.1277,25.5307],[-100.1252,25.5321],[-100.1278,25.5336],[-100.1271,25.5351],[-100.1315,25.5357],[-100.1326,25.5351],[-100.1353,25.5365],[-100.1425,25.5334],[-100.1531,25.5268],[-100.1625,25.525],[-100.1627,25.5288],[-100.1658,25.5294],[-100.1693,25.5311],[-100.1712,25.5359],[-100.1736,25.538],[-100.1788,25.5303],[-100.1857,25.5387],[-100.1884,25.5397],[-100.1913,25.5431],[-100.1936,25.5443],[-100.1953,25.5462],[-100.198,25.5509],[-100.2,25.5517],[-100.2014,25.5556],[-100.2039,25.5591],[-100.2053,25.5599],[-100.2055,25.5624],[-100.2087,25.5677],[-100.2098,25.5684],[-100.2128,25.5728],[-100.2135,25.5755],[-100.2147,25.5767],[-100.2164,25.5812],[-100.2199,25.5842],[-100.2227,25.5888],[-100.225,25.5898],[-100.227,25.5952],[-100.2287,25.5964],[-100.2319,25.6012],[-100.2346,25.6031],[-100.2361,25.6054],[-100.2367,25.6096],[-100.2397,25.6113],[-100.2432,25.617],[-100.2421,25.6248],[-100.2092,25.6231],[-100.1954,25.6298],[-100.1951,25.6295],[-100.1876,25.6343],[-100.1872,25.6364],[-100.1855,25.6356],[-100.1712,25.6446],[-100.1706,25.6448],[-100.1592,25.6522],[-100.1551,25.6546],[-100.1359,25.6667],[-100.1309,25.6697],[-100.1297,25.6711],[-100.1274,25.6711],[-100.1272,25.6725],[-100.1252,25.6737],[-100.1252,25.6752],[-100.1217,25.6833],[-100.1192,25.691],[-100.1184,25.6908],[-100.1171,25.6961],[-100.1171,25.6962],[-100.117,25.6966],[-100.1168,25.6986],[-100.1164,25.7032],[-100.1125,25.7025],[-100.1068,25.7014],[-100.1001,25.7004],[-100.0981,25.7002],[-100.0864,25.6995],[-100.0858,25.7004],[-100.0729,25.7005],[-100.071,25.6999],[-100.0672,25.7001],[-100.0606,25.6995],[-100.058,25.698],[-100.053,25.6975],[-100.0525,25.7033],[-100.0424,25.7021],[-100.0365,25.6992],[-100.0391,25.6953],[-99.9983,25.6908],[-99.9977,25.6918],[-99.9943,25.6891],[-99.9975,25.6861],[-99.9982,25.6832],[-99.9963,25.6845],[-99.9932,25.6845],[-99.9929,25.6831],[-99.9901,25.6823]]]}},{"type":"Feature","properties":{"nom":"Monterrey","nucleo":true},"geometry":{"type":"Polygon","coordinates":[[[-100.3368,25.7627],[-100.3221,25.7501],[-100.3224,25.745],[-100.321,25.7453],[-100.3236,25.74],[-100.3239,25.7377],[-100.3183,25.7373],[-100.3183,25.7355],[-100.3171,25.7349],[-100.3178,25.7323],[-100.316,25.7318],[-100.3172,25.7281],[-100.3171,25.7241],[-100.3171,25.7238],[-100.3171,25.7227],[-100.3096,25.7205],[-100.3103,25.7185],[-100.307,25.7172],[-100.3021,25.7152],[-100.2877,25.7093],[-100.2829,25.7081],[-100.2818,25.7081],[-100.2686,25.7082],[-100.2681,25.7075],[-100.2681,25.7075],[-100.2682,25.7033],[-100.2674,25.7028],[-100.2668,25.7023],[-100.2618,25.7012],[-100.2618,25.7003],[-100.2618,25.7002],[-100.2618,25.7],[-100.2618,25.6998],[-100.2618,25.6998],[-100.2618,25.6998],[-100.2618,25.6988],[-100.2618,25.6987],[-100.2619,25.697],[-100.2619,25.6962],[-100.2619,25.6962],[-100.2619,25.6876],[-100.2619,25.6858],[-100.2613,25.6827],[-100.263,25.682],[-100.271,25.6814],[-100.2737,25.6799],[-100.2759,25.6763],[-100.2717,25.6764],[-100.2719,25.6763],[-100.2739,25.6747],[-100.2728,25.6709],[-100.2714,25.6702],[-100.2714,25.6699],[-100.2714,25.6663],[-100.2702,25.6663],[-100.2698,25.661],[-100.2705,25.6593],[-100.2733,25.6567],[-100.2732,25.6545],[-100.2681,25.651],[-100.2689,25.6493],[-100.272,25.6486],[-100.2743,25.647],[-100.2734,25.643],[-100.2733,25.6429],[-100.2707,25.6423],[-100.2692,25.6395],[-100.2698,25.6364],[-100.2715,25.6337],[-100.2708,25.6281],[-100.2728,25.6258],[-100.27,25.6233],[-100.2695,25.6215],[-100.2669,25.622],[-100.2668,25.6221],[-100.2664,25.6222],[-100.2616,25.6232],[-100.2433,25.6261],[-100.2421,25.6248],[-100.2432,25.617],[-100.2397,25.6113],[-100.2367,25.6096],[-100.2361,25.6054],[-100.2346,25.6031],[-100.2319,25.6012],[-100.2287,25.5964],[-100.227,25.5952],[-100.225,25.5898],[-100.2227,25.5888],[-100.2199,25.5842],[-100.2164,25.5812],[-100.2147,25.5767],[-100.2135,25.5755],[-100.2128,25.5728],[-100.2098,25.5684],[-100.2087,25.5677],[-100.2055,25.5624],[-100.2053,25.5599],[-100.2039,25.5591],[-100.2014,25.5556],[-100.2,25.5517],[-100.198,25.5509],[-100.1953,25.5462],[-100.1936,25.5443],[-100.1913,25.5431],[-100.1884,25.5397],[-100.1857,25.5387],[-100.1788,25.5303],[-100.1771,25.5271],[-100.1729,25.5211],[-100.1695,25.5191],[-100.1674,25.5169],[-100.1709,25.5142],[-100.1748,25.5129],[-100.1762,25.5131],[-100.1772,25.5169],[-100.1806,25.5186],[-100.1826,25.5181],[-100.1832,25.5197],[-100.1868,25.5211],[-100.1873,25.5207],[-100.1875,25.5194],[-100.1901,25.519],[-100.1916,25.5205],[-100.1934,25.5187],[-100.1934,25.5169],[-100.1954,25.5169],[-100.1971,25.5147],[-100.202,25.5167],[-100.2061,25.5161],[-100.2068,25.5132],[-100.2109,25.5096],[-100.2136,25.5066],[-100.2153,25.5064],[-100.2191,25.5028],[-100.2228,25.5004],[-100.2249,25.5002],[-100.23,25.5076],[-100.2332,25.5054],[-100.2294,25.5002],[-100.2294,25.4986],[-100.2331,25.4961],[-100.2352,25.4964],[-100.2388,25.4951],[-100.2419,25.4928],[-100.2447,25.4897],[-100.2496,25.4878],[-100.2522,25.4846],[-100.2553,25.4836],[-100.2576,25.4821],[-100.2602,25.4856],[-100.2607,25.4883],[-100.2661,25.4979],[-100.2704,25.4994],[-100.2734,25.5019],[-100.2729,25.505],[-100.2711,25.506],[-100.2722,25.5097],[-100.2756,25.5136],[-100.2781,25.5195],[-100.2854,25.5229],[-100.2878,25.5252],[-100.288,25.5283],[-100.2899,25.5298],[-100.2925,25.5298],[-100.2944,25.5289],[-100.3002,25.5334],[-100.2996,25.5362],[-100.3032,25.5393],[-100.3128,25.5437],[-100.3142,25.5458],[-100.3183,25.5472],[-100.3147,25.5589],[-100.3188,25.5608],[-100.3184,25.564],[-100.3193,25.5668],[-100.3165,25.5697],[-100.317,25.5718],[-100.3215,25.5748],[-100.3232,25.5749],[-100.3293,25.5768],[-100.3304,25.5786],[-100.3356,25.5813],[-100.3386,25.5849],[-100.3419,25.5862],[-100.3419,25.587],[-100.3444,25.5889],[-100.3441,25.5898],[-100.3336,25.6079],[-100.3325,25.6144],[-100.3266,25.6201],[-100.3224,25.6282],[-100.3182,25.6382],[-100.3149,25.642],[-100.3146,25.6424],[-100.3132,25.645],[-100.3126,25.6463],[-100.3129,25.647],[-100.3188,25.6503],[-100.3216,25.6528],[-100.3257,25.6539],[-100.3271,25.6531],[-100.3273,25.6532],[-100.3271,25.6536],[-100.3315,25.6551],[-100.3334,25.6568],[-100.3422,25.6615],[-100.3468,25.6628],[-100.3469,25.6628],[-100.3475,25.6634],[-100.3474,25.6634],[-100.3506,25.6648],[-100.3518,25.6642],[-100.3595,25.6681],[-100.3635,25.6711],[-100.3659,25.6684],[-100.3671,25.668],[-100.38,25.6677],[-100.3827,25.6685],[-100.383,25.6698],[-100.3887,25.6716],[-100.3954,25.6732],[-100.3976,25.6746],[-100.398,25.6779],[-100.3979,25.6782],[-100.3976,25.6781],[-100.3976,25.6782],[-100.3976,25.6782],[-100.3976,25.6784],[-100.3977,25.6945],[-100.4016,25.6989],[-100.4037,25.7025],[-100.4069,25.7046],[-100.4096,25.7046],[-100.4114,25.7076],[-100.4135,25.7079],[-100.4189,25.7102],[-100.4194,25.711],[-100.4232,25.7124],[-100.423,25.7136],[-100.4275,25.7157],[-100.4319,25.7163],[-100.4395,25.72],[-100.4416,25.7205],[-100.4304,25.7503],[-100.4187,25.7803],[-100.4184,25.7809],[-100.4184,25.7809],[-100.4179,25.7823],[-100.4154,25.7894],[-100.4111,25.7903],[-100.4049,25.7958],[-100.4029,25.7965],[-100.3992,25.7951],[-100.3971,25.7935],[-100.394,25.7928],[-100.3908,25.7938],[-100.3872,25.7973],[-100.372,25.7929],[-100.3673,25.7914],[-100.3662,25.7894],[-100.3631,25.7894],[-100.3588,25.786],[-100.3559,25.7851],[-100.3516,25.7793],[-100.3502,25.7785],[-100.3464,25.7711],[-100.3443,25.7701],[-100.3416,25.7655],[-100.3405,25.7622],[-100.3368,25.7627]]]}},{"type":"Feature","properties":{"nom":"San Nicolás de los Garza","nucleo":true},"geometry":{"type":"Polygon","coordinates":[[[-100.2069,25.7318],[-100.2055,25.7264],[-100.2057,25.7226],[-100.2027,25.7222],[-100.2038,25.7182],[-100.207,25.7176],[-100.2078,25.7163],[-100.2126,25.7153],[-100.2189,25.7117],[-100.2213,25.7125],[-100.2284,25.7115],[-100.2297,25.7127],[-100.2323,25.7131],[-100.2325,25.7108],[-100.2434,25.7082],[-100.2464,25.7059],[-100.2513,25.705],[-100.2542,25.7062],[-100.256,25.7041],[-100.2583,25.7045],[-100.26,25.7013],[-100.2618,25.7012],[-100.2668,25.7023],[-100.2674,25.7028],[-100.2682,25.7033],[-100.2681,25.7075],[-100.2681,25.7075],[-100.2686,25.7082],[-100.2818,25.7081],[-100.2829,25.7081],[-100.2877,25.7093],[-100.3021,25.7152],[-100.307,25.7172],[-100.3103,25.7185],[-100.3096,25.7205],[-100.3171,25.7227],[-100.3171,25.7238],[-100.3171,25.7241],[-100.3172,25.7281],[-100.316,25.7318],[-100.3178,25.7323],[-100.3171,25.7349],[-100.3183,25.7355],[-100.3183,25.7373],[-100.3239,25.7377],[-100.3236,25.74],[-100.321,25.7453],[-100.3224,25.745],[-100.3221,25.7501],[-100.3368,25.7627],[-100.3154,25.7646],[-100.3063,25.7657],[-100.2899,25.7679],[-100.267,25.7705],[-100.2666,25.766],[-100.2671,25.7643],[-100.2609,25.7632],[-100.2495,25.7574],[-100.2478,25.7561],[-100.2449,25.7556],[-100.2405,25.7503],[-100.238,25.746],[-100.2376,25.7477],[-100.2253,25.7413],[-100.2256,25.7406],[-100.2194,25.7396],[-100.2196,25.7383],[-100.2094,25.7332],[-100.2067,25.7328],[-100.2069,25.7318]]]}},{"type":"Feature","properties":{"nom":"Santa Catarina","nucleo":true},"geometry":{"type":"Polygon","coordinates":[[[-100.4416,25.7205],[-100.4395,25.72],[-100.4319,25.7163],[-100.4275,25.7157],[-100.4225,25.6955],[-100.423,25.6952],[-100.416,25.6913],[-100.4173,25.6846],[-100.418,25.6788],[-100.4206,25.6741],[-100.4194,25.6743],[-100.4202,25.6711],[-100.4196,25.6685],[-100.4211,25.6648],[-100.4239,25.6461],[-100.4241,25.643],[-100.4257,25.6384],[-100.4246,25.6366],[-100.4204,25.6344],[-100.4093,25.6273],[-100.3995,25.6223],[-100.3962,25.6213],[-100.396,25.6204],[-100.3918,25.6185],[-100.3916,25.6174],[-100.3866,25.6142],[-100.3778,25.6102],[-100.3686,25.6054],[-100.3691,25.6048],[-100.3621,25.6],[-100.3607,25.5999],[-100.3441,25.5898],[-100.3444,25.5889],[-100.3419,25.587],[-100.3419,25.5862],[-100.3386,25.5849],[-100.3356,25.5813],[-100.3304,25.5786],[-100.3293,25.5768],[-100.3232,25.5749],[-100.3215,25.5748],[-100.317,25.5718],[-100.3165,25.5697],[-100.3193,25.5668],[-100.3184,25.564],[-100.3188,25.5608],[-100.3147,25.5589],[-100.3183,25.5472],[-100.3142,25.5458],[-100.3128,25.5437],[-100.3032,25.5393],[-100.2996,25.5362],[-100.3002,25.5334],[-100.2944,25.5289],[-100.2925,25.5298],[-100.2899,25.5298],[-100.288,25.5283],[-100.2878,25.5252],[-100.2854,25.5229],[-100.2781,25.5195],[-100.2756,25.5136],[-100.2722,25.5097],[-100.2711,25.506],[-100.2729,25.505],[-100.2734,25.5019],[-100.2704,25.4994],[-100.2661,25.4979],[-100.2607,25.4883],[-100.2602,25.4856],[-100.2576,25.4821],[-100.2557,25.4735],[-100.2499,25.4453],[-100.2387,25.4295],[-100.2504,25.4251],[-100.2601,25.4223],[-100.2719,25.4193],[-100.2759,25.4199],[-100.2749,25.4232],[-100.2753,25.4244],[-100.2961,25.4135],[-100.2987,25.4154],[-100.3091,25.4189],[-100.3101,25.4212],[-100.3178,25.4237],[-100.3213,25.4257],[-100.3246,25.4295],[-100.3277,25.4306],[-100.3306,25.4304],[-100.3332,25.4313],[-100.3427,25.4354],[-100.345,25.4357],[-100.3867,25.4558],[-100.4036,25.469],[-100.4142,25.4514],[-100.4175,25.4519],[-100.4232,25.4445],[-100.4195,25.4422],[-100.4255,25.4358],[-100.4437,25.435],[-100.4577,25.4379],[-100.4658,25.4453],[-100.4694,25.4483],[-100.4721,25.4538],[-100.4771,25.4514],[-100.5002,25.4554],[-100.5309,25.4635],[-100.5451,25.4646],[-100.561,25.4645],[-100.5718,25.4681],[-100.5786,25.4698],[-100.5849,25.4708],[-100.5795,25.4945],[-100.6191,25.5057],[-100.6086,25.5134],[-100.5998,25.52],[-100.5297,25.5144],[-100.5384,25.5319],[-100.5442,25.5335],[-100.5483,25.5343],[-100.56,25.5349],[-100.5626,25.536],[-100.5738,25.5392],[-100.5779,25.5401],[-100.5853,25.5427],[-100.5963,25.5445],[-100.612,25.542],[-100.6147,25.5423],[-100.615,25.5466],[-100.6126,25.5491],[-100.612,25.5514],[-100.6329,25.5713],[-100.6409,25.5727],[-100.6443,25.5725],[-100.6537,25.57],[-100.6585,25.568],[-100.6618,25.5683],[-100.6643,25.5694],[-100.668,25.5692],[-100.6783,25.5677],[-100.681,25.5682],[-100.6903,25.5671],[-100.7199,25.6031],[-100.7247,25.6198],[-100.7298,25.6339],[-100.7234,25.627],[-100.6999,25.6388],[-100.7091,25.6584],[-100.6957,25.6599],[-100.6846,25.6605],[-100.6757,25.6604],[-100.6695,25.6622],[-100.6473,25.6916],[-100.6453,25.6932],[-100.6249,25.6973],[-100.6193,25.7009],[-100.6048,25.7041],[-100.6025,25.7044],[-100.6025,25.7136],[-100.5996,25.7151],[-100.5919,25.7221],[-100.5879,25.72],[-100.5849,25.7193],[-100.5835,25.72],[-100.5792,25.7186],[-100.5757,25.7192],[-100.5672,25.7022],[-100.5655,25.7012],[-100.5633,25.7039],[-100.5614,25.7074],[-100.5545,25.7136],[-100.5495,25.7101],[-100.5354,25.7267],[-100.534,25.728],[-100.5139,25.743],[-100.5127,25.7442],[-100.5098,25.75],[-100.5069,25.75],[-100.4988,25.744],[-100.4954,25.7405],[-100.488,25.7371],[-100.4837,25.7365],[-100.4791,25.735],[-100.4766,25.7319],[-100.4726,25.7314],[-100.467,25.7285],[-100.4631,25.7283],[-100.4578,25.7266],[-100.4451,25.7206],[-100.4416,25.7205]]]}}]}