{"type":"FeatureCollection","features":[{"type":"Feature","geometry":{"type":"Point","coordinates":[-100.157802,25.7086602]},"properties":{"name":"Bodega Aurrera Express","tipo":"retail_banco","subtipo":"aurrera_express","fuente":"OpenStreetMap Overpass","osm_tag":"node/1798878575","proxy":null}},{"type":"Feature","geometry":{"type":"Point","coordinates":[-100.4901763,25.7923063]},"properties":{"name":"Bodega Aurrera Express","tipo":"retail_banco","subtipo":"aurrera_express","fuente":"OpenStreetMap Overpass","osm_tag":"node/1806324629","proxy":null}},{"type":"Feature","geometry":{"type":"Point","coordinates":[-100.192916,25.687091]},"properties":{"name":"Modelorama","tipo":"retail_banco","subtipo":"modelorama_six_cerveza","fuente":"OpenStreetMap Overpass","osm_tag":"node/3241259961","proxy":null}},{"type":"Feature","geometry":{"type":"Point","coordinates":[-100.25843,25.7724026]},"properties":{"name":"Banco Azteca","tipo":"retail_banco","subtipo":"banco_azteca","fuente":"OpenStreetMap Overpass","osm_tag":"node/3789285007","proxy":null}},{"type":"Feature","geometry":{"type":"Point","coordinates":[-100.2480135,25.772838]},"properties":{"name":"Modelorama","tipo":"retail_banco","subtipo":"modelorama_six_cerveza","fuente":"OpenStreetMap Overpass","osm_tag":"node/4085481506","proxy":null}},{"type":"Feature","geometry":{"type":"Point","coordinates":[-100.252947,25.7853714]},"properties":{"name":"Bodega Aurrera Express","tipo":"retail_banco","subtipo":"aurrera_express","fuente":"OpenStreetMap Overpass","osm_tag":"node/4088705313","proxy":null}},{"type":"Feature","geometry":{"type":"Point","coordinates":[-100.222636,25.6757386]},"properties":{"name":"Bodega Aurrera Express","tipo":"retail_banco","subtipo":"aurrera_express","fuente":"OpenStreetMap Overpass","osm_tag":"node/4100024750","proxy":null}},{"type":"Feature","geometry":{"type":"Point","coordinates":[-100.3508271,25.714319]},"properties":{"name":"Modelorama","tipo":"retail_banco","subtipo":"modelorama_six_cerveza","fuente":"OpenStreetMap Overpass","osm_tag":"node/4121804270","proxy":null}},{"type":"Feature","geometry":{"type":"Point","coordinates":[-100.224121,25.6844159]},"properties":{"name":"Bodega Aurrera Express","tipo":"retail_banco","subtipo":"aurrera_express","fuente":"OpenStreetMap Overpass","osm_tag":"node/4404890190","proxy":null}},{"type":"Feature","geometry":{"type":"Point","coordinates":[-100.179914,25.6834461]},"properties":{"name":"Bodega Aurrera Express","tipo":"retail_banco","subtipo":"aurrera_express","fuente":"OpenStreetMap Overpass","osm_tag":"node/4611161207","proxy":null}},{"type":"Feature","geometry":{"type":"Point","coordinates":[-100.460803,25.9691284]},"properties":{"name":"Modelorama","tipo":"retail_banco","subtipo":"modelorama_six_cerveza","fuente":"OpenStreetMap Overpass","osm_tag":"node/5805220353","proxy":null}},{"type":"Feature","geometry":{"type":"Point","coordinates":[-100.0754035,25.5983143]},"properties":{"name":"Bodega Aurrera Express","tipo":"retail_banco","subtipo":"aurrera_express","fuente":"OpenStreetMap Overpass","osm_tag":"node/5849662515","proxy":null}},{"type":"Feature","geometry":{"type":"Point","coordinates":[-100.195074,25.7358139]},"properties":{"name":"Six","tipo":"retail_banco","subtipo":"modelorama_six_cerveza","fuente":"OpenStreetMap Overpass","osm_tag":"node/6003621387","proxy":null}},{"type":"Feature","geometry":{"type":"Point","coordinates":[-100.325989,25.7212743]},"properties":{"name":"Bodega Aurrera Express","tipo":"retail_banco","subtipo":"aurrera_express","fuente":"OpenStreetMap Overpass","osm_tag":"node/6589338956","proxy":null}},{"type":"Feature","geometry":{"type":"Point","coordinates":[-100.172093,25.730648]},"properties":{"name":"Bodega Aurrera Express","tipo":"retail_banco","subtipo":"aurrera_express","fuente":"OpenStreetMap Overpass","osm_tag":"node/8401361417","proxy":null}},{"type":"Feature","geometry":{"type":"Point","coordinates":[-100.17428,25.7247653]},"properties":{"name":"Bodega Aurrera Express","tipo":"retail_banco","subtipo":"aurrera_express","fuente":"OpenStreetMap Overpass","osm_tag":"node/8401365819","proxy":null}},{"type":"Feature","geometry":{"type":"Point","coordinates":[-100.344213,25.7481207]},"properties":{"name":"Bodega Aurrera Express","tipo":"retail_banco","subtipo":"aurrera_express","fuente":"OpenStreetMap Overpass","osm_tag":"node/8402318020","proxy":null}},{"type":"Feature","geometry":{"type":"Point","coordinates":[-100.353983,25.7411961]},"properties":{"name":"Bodega Aurrera Express","tipo":"retail_banco","subtipo":"aurrera_express","fuente":"OpenStreetMap Overpass","osm_tag":"node/8402354617","proxy":null}},{"type":"Feature","geometry":{"type":"Point","coordinates":[-100.2671375,25.7893841]},"properties":{"name":"Modelorama","tipo":"retail_banco","subtipo":"modelorama_six_cerveza","fuente":"OpenStreetMap Overpass","osm_tag":"node/8446348953","proxy":null}},{"type":"Feature","geometry":{"type":"Point","coordinates":[-100.166654,25.7411144]},"properties":{"name":"Bodega Aurrera Express","tipo":"retail_banco","subtipo":"aurrera_express","fuente":"OpenStreetMap Overpass","osm_tag":"node/8454701017","proxy":null}},{"type":"Feature","geometry":{"type":"Point","coordinates":[-100.1667051,25.7373808]},"properties":{"name":"Six","tipo":"retail_banco","subtipo":"modelorama_six_cerveza","fuente":"OpenStreetMap Overpass","osm_tag":"node/8454701117","proxy":null}},{"type":"Feature","geometry":{"type":"Point","coordinates":[-100.160038,25.6678591]},"properties":{"name":"Bodega Aurrera Express","tipo":"retail_banco","subtipo":"aurrera_express","fuente":"OpenStreetMap Overpass","osm_tag":"node/8454701220","proxy":null}},{"type":"Feature","geometry":{"type":"Point","coordinates":[-100.059358,25.6431614]},"properties":{"name":"Bodega Aurrera Express","tipo":"retail_banco","subtipo":"aurrera_express","fuente":"OpenStreetMap Overpass","osm_tag":"node/8454763218","proxy":null}},{"type":"Feature","geometry":{"type":"Point","coordinates":[-100.1375023,25.7611716]},"properties":{"name":"SIX","tipo":"retail_banco","subtipo":"modelorama_six_cerveza","fuente":"OpenStreetMap Overpass","osm_tag":"node/8454763618","proxy":null}},{"type":"Feature","geometry":{"type":"Point","coordinates":[-100.1587044,25.7525222]},"properties":{"name":"SIX","tipo":"retail_banco","subtipo":"modelorama_six_cerveza","fuente":"OpenStreetMap Overpass","osm_tag":"node/8454763819","proxy":null}},{"type":"Feature","geometry":{"type":"Point","coordinates":[-100.1885979,25.7373499]},"properties":{"name":"SIX","tipo":"retail_banco","subtipo":"modelorama_six_cerveza","fuente":"OpenStreetMap Overpass","osm_tag":"node/8454763823","proxy":null}},{"type":"Feature","geometry":{"type":"Point","coordinates":[-100.1825743,25.7176636]},"properties":{"name":"SIX","tipo":"retail_banco","subtipo":"modelorama_six_cerveza","fuente":"OpenStreetMap Overpass","osm_tag":"node/8454765217","proxy":null}},{"type":"Feature","geometry":{"type":"Point","coordinates":[-100.2356883,25.7943112]},"properties":{"name":"Modelorama","tipo":"retail_banco","subtipo":"modelorama_six_cerveza","fuente":"OpenStreetMap Overpass","osm_tag":"node/8458300166","proxy":null}},{"type":"Feature","geometry":{"type":"Point","coordinates":[-100.37268,25.8540364]},"properties":{"name":"Bodega Aurrera Express","tipo":"retail_banco","subtipo":"aurrera_express","fuente":"OpenStreetMap Overpass","osm_tag":"node/8504586420","proxy":null}},{"type":"Feature","geometry":{"type":"Point","coordinates":[-100.205297,25.642832]},"properties":{"name":"Bodega Aurrera Express","tipo":"retail_banco","subtipo":"aurrera_express","fuente":"OpenStreetMap Overpass","osm_tag":"node/8504586454","proxy":null}},{"type":"Feature","geometry":{"type":"Point","coordinates":[-100.2191303,25.8074454]},"properties":{"name":"Bodega Aurrera Express","tipo":"retail_banco","subtipo":"aurrera_express","fuente":"OpenStreetMap Overpass","osm_tag":"node/8504656818","proxy":null}},{"type":"Feature","geometry":{"type":"Point","coordinates":[-100.2936223,25.9600887]},"properties":{"name":"Mi Bodega Aurrera","tipo":"retail_banco","subtipo":"aurrera_express","fuente":"OpenStreetMap Overpass","osm_tag":"node/8504656932","proxy":null}},{"type":"Feature","geometry":{"type":"Point","coordinates":[-100.213833,25.6475272]},"properties":{"name":"Bodega Aurrera Express","tipo":"retail_banco","subtipo":"aurrera_express","fuente":"OpenStreetMap Overpass","osm_tag":"node/8504656936","proxy":null}},{"type":"Feature","geometry":{"type":"Point","coordinates":[-100.0937932,25.679562]},"properties":{"name":"Six","tipo":"retail_banco","subtipo":"modelorama_six_cerveza","fuente":"OpenStreetMap Overpass","osm_tag":"node/8530581020","proxy":null}},{"type":"Feature","geometry":{"type":"Point","coordinates":[-100.1928798,25.7307313]},"properties":{"name":"Six","tipo":"retail_banco","subtipo":"modelorama_six_cerveza","fuente":"OpenStreetMap Overpass","osm_tag":"node/9163849656","proxy":null}},{"type":"Feature","geometry":{"type":"Point","coordinates":[-100.155289,25.714311]},"properties":{"name":"Bodega Aurrera Express Haciendas De Las Margaritas","tipo":"retail_banco","subtipo":"aurrera_express","fuente":"OpenStreetMap Overpass","osm_tag":"node/9217563818","proxy":null}},{"type":"Feature","geometry":{"type":"Point","coordinates":[-100.1874539,25.7255234]},"properties":{"name":"Six","tipo":"retail_banco","subtipo":"modelorama_six_cerveza","fuente":"OpenStreetMap Overpass","osm_tag":"node/9525152817","proxy":null}},{"type":"Feature","geometry":{"type":"Point","coordinates":[-100.146016,25.7028869]},"properties":{"name":"Six","tipo":"retail_banco","subtipo":"modelorama_six_cerveza","fuente":"OpenStreetMap Overpass","osm_tag":"node/10691467508","proxy":null}},{"type":"Feature","geometry":{"type":"Point","coordinates":[-100.213811,25.7692834]},"properties":{"name":"Bodega Aurrera Express","tipo":"retail_banco","subtipo":"aurrera_express","fuente":"OpenStreetMap Overpass","osm_tag":"node/11861317262","proxy":null}},{"type":"Feature","geometry":{"type":"Point","coordinates":[-100.4592362,25.7710951]},"properties":{"name":"Bodega Aurrera Express","tipo":"retail_banco","subtipo":"aurrera_express","fuente":"OpenStreetMap Overpass","osm_tag":"node/12876281778","proxy":null}},{"type":"Feature","geometry":{"type":"Point","coordinates":[-100.1472778,25.8615527]},"properties":{"name":"Bodega Aurrera Express San Patricio","tipo":"retail_banco","subtipo":"aurrera_express","fuente":"OpenStreetMap Overpass","osm_tag":"node/13071729813","proxy":null}},{"type":"Feature","geometry":{"type":"Point","coordinates":[-100.1452269,25.8579288]},"properties":{"name":"Bodega Aurrera Express","tipo":"retail_banco","subtipo":"aurrera_express","fuente":"OpenStreetMap Overpass","osm_tag":"node/13072315223","proxy":null}},{"type":"Feature","geometry":{"type":"Point","coordinates":[-100.055821,25.7983811]},"properties":{"name":"Bodega Aurrera Express Antonieta Villas Regina","tipo":"retail_banco","subtipo":"aurrera_express","fuente":"OpenStreetMap Overpass","osm_tag":"node/13603458501","proxy":null}},{"type":"Feature","geometry":{"type":"Point","coordinates":[-100.1467339,25.8592484]},"properties":{"name":"Modelorama","tipo":"retail_banco","subtipo":"modelorama_six_cerveza","fuente":"OpenStreetMap Overpass","osm_tag":"node/13626121002","proxy":null}},{"type":"Feature","geometry":{"type":"Point","coordinates":[-100.1430194,25.7273502]},"properties":{"name":"Bodega Aurrera Express Hacienda el Encanto","tipo":"retail_banco","subtipo":"aurrera_express","fuente":"OpenStreetMap Overpass","osm_tag":"node/14001007202","proxy":null}},{"type":"Feature","geometry":{"type":"Point","coordinates":[-100.1569897,25.7524931]},"properties":{"name":"Bodega Aurrera Express Terranova Apodaca","tipo":"retail_banco","subtipo":"aurrera_express","fuente":"OpenStreetMap Overpass","osm_tag":"node/14001101301","proxy":null}},{"type":"Feature","geometry":{"type":"Point","coordinates":[-100.0896522,25.8192039]},"properties":{"name":"Bodega Aurrera Express Hacienda Real Pesquería","tipo":"retail_banco","subtipo":"aurrera_express","fuente":"OpenStreetMap Overpass","osm_tag":"node/14001191901","proxy":null}},{"type":"Feature","geometry":{"type":"Point","coordinates":[-100.2264642,25.7321205]},"properties":{"name":"Bodega Aurrera Express Quinta Monte Carlos","tipo":"retail_banco","subtipo":"aurrera_express","fuente":"OpenStreetMap Overpass","osm_tag":"way/375134000","proxy":null}},{"type":"Feature","geometry":{"type":"Point","coordinates":[-100.1907863,25.7846632]},"properties":{"name":"Bodega Aurrera Express","tipo":"retail_banco","subtipo":"aurrera_express","fuente":"OpenStreetMap Overpass","osm_tag":"way/378702812","proxy":null}},{"type":"Feature","geometry":{"type":"Point","coordinates":[-100.2048304,25.7132385]},"properties":{"name":"Bodega Aurrera Express Camino a san Pedro","tipo":"retail_banco","subtipo":"aurrera_express","fuente":"OpenStreetMap Overpass","osm_tag":"way/380722977","proxy":null}},{"type":"Feature","geometry":{"type":"Point","coordinates":[-100.2917919,25.7562588]},"properties":{"name":"Bodega Aurrera Express","tipo":"retail_banco","subtipo":"aurrera_express","fuente":"OpenStreetMap Overpass","osm_tag":"way/402986095","proxy":null}},{"type":"Feature","geometry":{"type":"Point","coordinates":[-100.2649894,25.7576275]},"properties":{"name":"Bodega Aurrera Express","tipo":"retail_banco","subtipo":"aurrera_express","fuente":"OpenStreetMap Overpass","osm_tag":"way/403185688","proxy":null}},{"type":"Feature","geometry":{"type":"Point","coordinates":[-100.2539764,25.7034653]},"properties":{"name":"Bodega Aurrera Express","tipo":"retail_banco","subtipo":"aurrera_express","fuente":"OpenStreetMap Overpass","osm_tag":"way/405345979","proxy":null}},{"type":"Feature","geometry":{"type":"Point","coordinates":[-100.1912112,25.7696416]},"properties":{"name":"cerveceria Modelo","tipo":"retail_banco","subtipo":"modelorama_six_cerveza","fuente":"OpenStreetMap Overpass","osm_tag":"way/405397427","proxy":null}},{"type":"Feature","geometry":{"type":"Point","coordinates":[-100.2616566,25.7903944]},"properties":{"name":"Bodega Aurrera Express","tipo":"retail_banco","subtipo":"aurrera_express","fuente":"OpenStreetMap Overpass","osm_tag":"way/406811852","proxy":null}},{"type":"Feature","geometry":{"type":"Point","coordinates":[-100.1957393,25.651465]},"properties":{"name":"Bodega Aurrera Express","tipo":"retail_banco","subtipo":"aurrera_express","fuente":"OpenStreetMap Overpass","osm_tag":"way/451972411","proxy":null}},{"type":"Feature","geometry":{"type":"Point","coordinates":[-100.2022495,25.6633092]},"properties":{"name":"Bodega Aurrera Express","tipo":"retail_banco","subtipo":"aurrera_express","fuente":"OpenStreetMap Overpass","osm_tag":"way/486599697","proxy":null}},{"type":"Feature","geometry":{"type":"Point","coordinates":[-100.237674,25.662075]},"properties":{"name":"Bodega Aurrera Express","tipo":"retail_banco","subtipo":"aurrera_express","fuente":"OpenStreetMap Overpass","osm_tag":"way/486612475","proxy":null}},{"type":"Feature","geometry":{"type":"Point","coordinates":[-100.1897078,25.7300585]},"properties":{"name":"Bodega Aurrera Express Centro América","tipo":"retail_banco","subtipo":"aurrera_express","fuente":"OpenStreetMap Overpass","osm_tag":"way/487242877","proxy":null}},{"type":"Feature","geometry":{"type":"Point","coordinates":[-100.1816463,25.6705794]},"properties":{"name":"Modelorama","tipo":"retail_banco","subtipo":"modelorama_six_cerveza","fuente":"OpenStreetMap Overpass","osm_tag":"way/520360887","proxy":null}},{"type":"Feature","geometry":{"type":"Point","coordinates":[-100.330889,25.7838567]},"properties":{"name":"Bodega Aurrera Express","tipo":"retail_banco","subtipo":"aurrera_express","fuente":"OpenStreetMap Overpass","osm_tag":"way/536190444","proxy":null}},{"type":"Feature","geometry":{"type":"Point","coordinates":[-100.0576621,25.7940375]},"properties":{"name":"Bodega Aurrera Express Villas Regina","tipo":"retail_banco","subtipo":"aurrera_express","fuente":"OpenStreetMap Overpass","osm_tag":"way/764029694","proxy":null}},{"type":"Feature","geometry":{"type":"Point","coordinates":[-100.1058628,25.820579]},"properties":{"name":"Bodega Aurrera Express Av. Monterrey","tipo":"retail_banco","subtipo":"aurrera_express","fuente":"OpenStreetMap Overpass","osm_tag":"way/781447508","proxy":null}},{"type":"Feature","geometry":{"type":"Point","coordinates":[-100.1004788,25.6903899]},"properties":{"name":"Bodega Aurrera Express","tipo":"retail_banco","subtipo":"aurrera_express","fuente":"OpenStreetMap Overpass","osm_tag":"way/788313971","proxy":null}},{"type":"Feature","geometry":{"type":"Point","coordinates":[-100.2463784,25.586073]},"properties":{"name":"Bodega Aurrera Express","tipo":"retail_banco","subtipo":"aurrera_express","fuente":"OpenStreetMap Overpass","osm_tag":"way/790791615","proxy":null}},{"type":"Feature","geometry":{"type":"Point","coordinates":[-100.1142581,25.6884722]},"properties":{"name":"Bodega Aurrera Express","tipo":"retail_banco","subtipo":"aurrera_express","fuente":"OpenStreetMap Overpass","osm_tag":"way/839535304","proxy":null}},{"type":"Feature","geometry":{"type":"Point","coordinates":[-100.3810799,25.74986]},"properties":{"name":"Bodega Aurrera Express","tipo":"retail_banco","subtipo":"aurrera_express","fuente":"OpenStreetMap Overpass","osm_tag":"way/839846679","proxy":null}},{"type":"Feature","geometry":{"type":"Point","coordinates":[-100.1110933,25.6945911]},"properties":{"name":"Bodega Aurrera Express","tipo":"retail_banco","subtipo":"aurrera_express","fuente":"OpenStreetMap Overpass","osm_tag":"way/926058170","proxy":null}},{"type":"Feature","geometry":{"type":"Point","coordinates":[-100.0794462,25.6768228]},"properties":{"name":"Bodega Aurrera express Santa Isabel","tipo":"retail_banco","subtipo":"aurrera_express","fuente":"OpenStreetMap Overpass","osm_tag":"way/926136236","proxy":null}},{"type":"Feature","geometry":{"type":"Point","coordinates":[-100.1528294,25.7566065]},"properties":{"name":"Bodega Aurrera Express Río Orinoco","tipo":"retail_banco","subtipo":"aurrera_express","fuente":"OpenStreetMap Overpass","osm_tag":"way/926318187","proxy":null}},{"type":"Feature","geometry":{"type":"Point","coordinates":[-100.1402036,25.8557294]},"properties":{"name":"Bodega Aurrera express","tipo":"retail_banco","subtipo":"aurrera_express","fuente":"OpenStreetMap Overpass","osm_tag":"way/970587072","proxy":null}},{"type":"Feature","geometry":{"type":"Point","coordinates":[-100.1157101,25.8257147]},"properties":{"name":"Bodega Aurrera Express Colinas Del Aeropuerto","tipo":"retail_banco","subtipo":"aurrera_express","fuente":"OpenStreetMap Overpass","osm_tag":"way/984092652","proxy":null}},{"type":"Feature","geometry":{"type":"Point","coordinates":[-100.1655159,25.6097523]},"properties":{"name":"Bodega Aurrera Express","tipo":"retail_banco","subtipo":"aurrera_express","fuente":"OpenStreetMap Overpass","osm_tag":"way/994229744","proxy":null}},{"type":"Feature","geometry":{"type":"Point","coordinates":[-100.1535257,25.6100769]},"properties":{"name":"Bodega Aurrera Express","tipo":"retail_banco","subtipo":"aurrera_express","fuente":"OpenStreetMap Overpass","osm_tag":"way/1011342719","proxy":null}},{"type":"Feature","geometry":{"type":"Point","coordinates":[-100.09091,25.8132129]},"properties":{"name":"Bodega Aurrera Express Las Haciendas","tipo":"retail_banco","subtipo":"aurrera_express","fuente":"OpenStreetMap Overpass","osm_tag":"way/1051384677","proxy":null}},{"type":"Feature","geometry":{"type":"Point","coordinates":[-100.343733,25.7956874]},"properties":{"name":"Bodega Aurrera Express","tipo":"retail_banco","subtipo":"aurrera_express","fuente":"OpenStreetMap Overpass","osm_tag":"way/1056793844","proxy":null}},{"type":"Feature","geometry":{"type":"Point","coordinates":[-100.0527317,25.7833309]},"properties":{"name":"Bodega Aurrera Express","tipo":"retail_banco","subtipo":"aurrera_express","fuente":"OpenStreetMap Overpass","osm_tag":"way/1058617516","proxy":null}},{"type":"Feature","geometry":{"type":"Point","coordinates":[-100.3334579,25.7956063]},"properties":{"name":"Bodega Aurrera Express","tipo":"retail_banco","subtipo":"aurrera_express","fuente":"OpenStreetMap Overpass","osm_tag":"way/1066289427","proxy":null}},{"type":"Feature","geometry":{"type":"Point","coordinates":[-100.4135205,25.6600071]},"properties":{"name":"Banco del Bienestar","tipo":"retail_banco","subtipo":"banco_bienestar","fuente":"OpenStreetMap Overpass","osm_tag":"way/1076222090","proxy":null}},{"type":"Feature","geometry":{"type":"Point","coordinates":[-100.3307698,25.7920791]},"properties":{"name":"Banco Azteca","tipo":"retail_banco","subtipo":"banco_azteca","fuente":"OpenStreetMap Overpass","osm_tag":"way/1104131638","proxy":null}},{"type":"Feature","geometry":{"type":"Point","coordinates":[-100.2393131,25.7765034]},"properties":{"name":"Bodega Aurrera Express","tipo":"retail_banco","subtipo":"aurrera_express","fuente":"OpenStreetMap Overpass","osm_tag":"way/1114713535","proxy":null}},{"type":"Feature","geometry":{"type":"Point","coordinates":[-100.2473527,25.7570276]},"properties":{"name":"Bodega Aurrera Express","tipo":"retail_banco","subtipo":"aurrera_express","fuente":"OpenStreetMap Overpass","osm_tag":"way/1117241058","proxy":null}},{"type":"Feature","geometry":{"type":"Point","coordinates":[-100.32887,25.8074192]},"properties":{"name":"Bodega Aurrera Express","tipo":"retail_banco","subtipo":"aurrera_express","fuente":"OpenStreetMap Overpass","osm_tag":"way/1123126011","proxy":null}},{"type":"Feature","geometry":{"type":"Point","coordinates":[-100.3227309,25.7959305]},"properties":{"name":"Bodega Aurrera Express","tipo":"retail_banco","subtipo":"aurrera_express","fuente":"OpenStreetMap Overpass","osm_tag":"way/1124691892","proxy":null}},{"type":"Feature","geometry":{"type":"Point","coordinates":[-100.3124058,25.8079748]},"properties":{"name":"Bodega Aurrera Express","tipo":"retail_banco","subtipo":"aurrera_express","fuente":"OpenStreetMap Overpass","osm_tag":"way/1125114762","proxy":null}},{"type":"Feature","geometry":{"type":"Point","coordinates":[-100.5682733,25.8008338]},"properties":{"name":"Modelorama","tipo":"retail_banco","subtipo":"modelorama_six_cerveza","fuente":"OpenStreetMap Overpass","osm_tag":"way/1192782871","proxy":null}},{"type":"Feature","geometry":{"type":"Point","coordinates":[-100.5848508,25.7942031]},"properties":{"name":"Banco Azteca","tipo":"retail_banco","subtipo":"banco_azteca","fuente":"OpenStreetMap Overpass","osm_tag":"way/1192787339","proxy":null}},{"type":"Feature","geometry":{"type":"Point","coordinates":[-100.5753605,25.7825138]},"properties":{"name":"Bodega Aurrera Express","tipo":"retail_banco","subtipo":"aurrera_express","fuente":"OpenStreetMap Overpass","osm_tag":"way/1192787341","proxy":null}},{"type":"Feature","geometry":{"type":"Point","coordinates":[-100.3317168,25.7768293]},"properties":{"name":"Bodega Aurrera Express","tipo":"retail_banco","subtipo":"aurrera_express","fuente":"OpenStreetMap Overpass","osm_tag":"way/1213183366","proxy":null}},{"type":"Feature","geometry":{"type":"Point","coordinates":[-100.5856941,25.8241211]},"properties":{"name":"Bodega Aurrera Express","tipo":"retail_banco","subtipo":"aurrera_express","fuente":"OpenStreetMap Overpass","osm_tag":"way/1242017459","proxy":null}},{"type":"Feature","geometry":{"type":"Point","coordinates":[-100.1629119,25.9571031]},"properties":{"name":"Mi Bodega Aurrera","tipo":"retail_banco","subtipo":"aurrera_express","fuente":"OpenStreetMap Overpass","osm_tag":"way/1467715331","proxy":null}},{"type":"Feature","geometry":{"type":"Point","coordinates":[-100.2562631,25.7283112]},"properties":{"name":"Banco del Bienestar","tipo":"retail_banco","subtipo":"banco_bienestar","fuente":"OpenStreetMap Overpass","osm_tag":"way/1483474343","proxy":null}},{"type":"Feature","geometry":{"type":"Point","coordinates":[-100.2736256,25.681731]},"properties":{"name":"Banco del Bienestar","tipo":"retail_banco","subtipo":"banco_bienestar","fuente":"OpenStreetMap Overpass","osm_tag":"way/1483483436","proxy":null}},{"type":"Feature","geometry":{"type":"Point","coordinates":[-100.1056391,25.6976854]},"properties":{"name":"Bodega Aurrera Express","tipo":"retail_banco","subtipo":"aurrera_express","fuente":"OpenStreetMap Overpass","osm_tag":"way/1509369922","proxy":null}},{"type":"Feature","geometry":{"type":"Point","coordinates":[-100.1203261,25.698652]},"properties":{"name":"Bodega Aurrera Express","tipo":"retail_banco","subtipo":"aurrera_express","fuente":"OpenStreetMap Overpass","osm_tag":"way/1509370806","proxy":null}},{"type":"Feature","geometry":{"type":"Point","coordinates":[-100.1155137,25.6887374]},"properties":{"name":"Six","tipo":"retail_banco","subtipo":"modelorama_six_cerveza","fuente":"OpenStreetMap Overpass","osm_tag":"way/1510795720","proxy":null}},{"type":"Feature","geometry":{"type":"Point","coordinates":[-100.319191,25.686335]},"properties":{"name":"Soriana Express Colón (265)","tipo":"retail_banco","subtipo":"soriana_express","fuente":"directorio público GPS","osm_tag":"curated","proxy":null}},{"type":"Feature","geometry":{"type":"Point","coordinates":[-100.406967,25.787704]},"properties":{"name":"Soriana Express Alianza (569)","tipo":"retail_banco","subtipo":"soriana_express","fuente":"directorio público GPS","osm_tag":"curated","proxy":null}},{"type":"Feature","geometry":{"type":"Point","coordinates":[-100.185,25.6778]},"properties":{"name":"Soriana Express Dos Ríos (617)","tipo":"retail_banco","subtipo":"soriana_express","fuente":"curated from address Priv. Camino a las Escobas 3500 Guadalupe (approx; verify)","osm_tag":"curated_approx","proxy":null}},{"type":"Feature","geometry":{"type":"Point","coordinates":[-100.2558367,25.7776932]},"properties":{"name":"Banco Azteca (Elektra)","tipo":"retail_banco","subtipo":"banco_azteca","fuente":"OpenStreetMap Overpass (Elektra co-ubicación)","osm_tag":"node/1722246462","proxy":"elektra"}},{"type":"Feature","geometry":{"type":"Point","coordinates":[-100.4691787,25.674192]},"properties":{"name":"Banco Azteca (Elektra)","tipo":"retail_banco","subtipo":"banco_azteca","fuente":"OpenStreetMap Overpass (Elektra co-ubicación)","osm_tag":"node/1725933154","proxy":"elektra"}},{"type":"Feature","geometry":{"type":"Point","coordinates":[-100.269337,25.7363967]},"properties":{"name":"Banco Azteca (Elektra)","tipo":"retail_banco","subtipo":"banco_azteca","fuente":"OpenStreetMap Overpass (Elektra co-ubicación)","osm_tag":"node/3988940360","proxy":"elektra"}},{"type":"Feature","geometry":{"type":"Point","coordinates":[-100.316371,25.6835323]},"properties":{"name":"Banco Azteca (Elektra)","tipo":"retail_banco","subtipo":"banco_azteca","fuente":"OpenStreetMap Overpass (Elektra co-ubicación)","osm_tag":"node/4327288291","proxy":"elektra"}},{"type":"Feature","geometry":{"type":"Point","coordinates":[-100.3852573,25.7785247]},"properties":{"name":"Banco Azteca (Elektra)","tipo":"retail_banco","subtipo":"banco_azteca","fuente":"OpenStreetMap Overpass (Elektra co-ubicación)","osm_tag":"node/4552796591","proxy":"elektra"}},{"type":"Feature","geometry":{"type":"Point","coordinates":[-100.0008101,25.5916634]},"properties":{"name":"Banco Azteca (Elektra)","tipo":"retail_banco","subtipo":"banco_azteca","fuente":"OpenStreetMap Overpass (Elektra co-ubicación)","osm_tag":"node/4758340851","proxy":"elektra"}},{"type":"Feature","geometry":{"type":"Point","coordinates":[-100.4887871,25.7883919]},"properties":{"name":"Banco Azteca (Elektra)","tipo":"retail_banco","subtipo":"banco_azteca","fuente":"OpenStreetMap Overpass (Elektra co-ubicación)","osm_tag":"node/11760263066","proxy":"elektra"}},{"type":"Feature","geometry":{"type":"Point","coordinates":[-100.2579591,25.7142544]},"properties":{"name":"Banco Azteca (Elektra)","tipo":"retail_banco","subtipo":"banco_azteca","fuente":"OpenStreetMap Overpass (Elektra co-ubicación)","osm_tag":"way/375133991","proxy":"elektra"}},{"type":"Feature","geometry":{"type":"Point","coordinates":[-100.1885452,25.7809132]},"properties":{"name":"Banco Azteca (Elektra)","tipo":"retail_banco","subtipo":"banco_azteca","fuente":"OpenStreetMap Overpass (Elektra co-ubicación)","osm_tag":"way/378702791","proxy":"elektra"}},{"type":"Feature","geometry":{"type":"Point","coordinates":[-100.3198984,25.6772005]},"properties":{"name":"Banco Azteca (Elektra)","tipo":"retail_banco","subtipo":"banco_azteca","fuente":"OpenStreetMap Overpass (Elektra co-ubicación)","osm_tag":"way/387441698","proxy":"elektra"}},{"type":"Feature","geometry":{"type":"Point","coordinates":[-100.4355786,25.6749437]},"properties":{"name":"Banco Azteca (Elektra)","tipo":"retail_banco","subtipo":"banco_azteca","fuente":"OpenStreetMap Overpass (Elektra co-ubicación)","osm_tag":"way/449554251","proxy":"elektra"}},{"type":"Feature","geometry":{"type":"Point","coordinates":[-100.3667597,25.7270164]},"properties":{"name":"Banco Azteca (Elektra)","tipo":"retail_banco","subtipo":"banco_azteca","fuente":"OpenStreetMap Overpass (Elektra co-ubicación)","osm_tag":"way/449736141","proxy":"elektra"}},{"type":"Feature","geometry":{"type":"Point","coordinates":[-100.2152153,25.6554873]},"properties":{"name":"Banco Azteca (Elektra)","tipo":"retail_banco","subtipo":"banco_azteca","fuente":"OpenStreetMap Overpass (Elektra co-ubicación)","osm_tag":"way/452144030","proxy":"elektra"}},{"type":"Feature","geometry":{"type":"Point","coordinates":[-100.3138101,25.8005291]},"properties":{"name":"Banco Azteca (Elektra)","tipo":"retail_banco","subtipo":"banco_azteca","fuente":"OpenStreetMap Overpass (Elektra co-ubicación)","osm_tag":"way/524543385","proxy":"elektra"}},{"type":"Feature","geometry":{"type":"Point","coordinates":[-100.2531878,25.6802325]},"properties":{"name":"Banco Azteca (Elektra)","tipo":"retail_banco","subtipo":"banco_azteca","fuente":"OpenStreetMap Overpass (Elektra co-ubicación)","osm_tag":"way/670295837","proxy":"elektra"}},{"type":"Feature","geometry":{"type":"Point","coordinates":[-100.4552958,25.6905719]},"properties":{"name":"Banco Azteca (Elektra)","tipo":"retail_banco","subtipo":"banco_azteca","fuente":"OpenStreetMap Overpass (Elektra co-ubicación)","osm_tag":"way/700897730","proxy":"elektra"}},{"type":"Feature","geometry":{"type":"Point","coordinates":[-100.1903958,25.7231302]},"properties":{"name":"Banco Azteca (Elektra)","tipo":"retail_banco","subtipo":"banco_azteca","fuente":"OpenStreetMap Overpass (Elektra co-ubicación)","osm_tag":"way/816921889","proxy":"elektra"}},{"type":"Feature","geometry":{"type":"Point","coordinates":[-100.1725508,25.7584912]},"properties":{"name":"Banco Azteca (Elektra)","tipo":"retail_banco","subtipo":"banco_azteca","fuente":"OpenStreetMap Overpass (Elektra co-ubicación)","osm_tag":"way/819596967","proxy":"elektra"}},{"type":"Feature","geometry":{"type":"Point","coordinates":[-100.3225594,25.7910958]},"properties":{"name":"Banco Azteca (Elektra)","tipo":"retail_banco","subtipo":"banco_azteca","fuente":"OpenStreetMap Overpass (Elektra co-ubicación)","osm_tag":"way/1074380449","proxy":"elektra"}}]}