{"type":"FeatureCollection","properties":{"source":"OSM Overpass","generated":"2026-09-22T02:35:25Z","scope":"ZMM highway=stop|give_way (colonias bbox + pad)","bbox":[-100.6542,25.5636,-100.0576,25.8678],"n":38,"note":"Capa gratuita OSM; cobertura incompleta. Scout S sigue para marcas manuales."},"features":[{"type":"Feature","properties":{"highway":"stop","fuente":"osm","osm_id":"node/612016430"},"geometry":{"type":"Point","coordinates":[-100.268131,25.606867]}},{"type":"Feature","properties":{"highway":"stop","fuente":"osm","osm_id":"node/612016491"},"geometry":{"type":"Point","coordinates":[-100.265307,25.60642]}},{"type":"Feature","properties":{"highway":"stop","fuente":"osm","osm_id":"node/613342597"},"geometry":{"type":"Point","coordinates":[-100.267349,25.605565]}},{"type":"Feature","properties":{"highway":"stop","fuente":"osm","osm_id":"node/613342598"},"geometry":{"type":"Point","coordinates":[-100.266766,25.605701]}},{"type":"Feature","properties":{"highway":"stop","fuente":"osm","osm_id":"node/613342599"},"geometry":{"type":"Point","coordinates":[-100.266717,25.605834]}},{"type":"Feature","properties":{"highway":"stop","fuente":"osm","osm_id":"node/613342600"},"geometry":{"type":"Point","coordinates":[-100.266843,25.605822]}},{"type":"Feature","properties":{"highway":"stop","fuente":"osm","osm_id":"node/613342604"},"geometry":{"type":"Point","coordinates":[-100.268496,25.606668]}},{"type":"Feature","properties":{"highway":"stop","fuente":"osm","osm_id":"node/613342607"},"geometry":{"type":"Point","coordinates":[-100.267642,25.607129]}},{"type":"Feature","properties":{"highway":"stop","fuente":"osm","osm_id":"node/613342609"},"geometry":{"type":"Point","coordinates":[-100.268277,25.608186]}},{"type":"Feature","properties":{"highway":"stop","fuente":"osm","osm_id":"node/613342610"},"geometry":{"type":"Point","coordinates":[-100.265285,25.606298]}},{"type":"Feature","properties":{"highway":"stop","fuente":"osm","osm_id":"node/613342611"},"geometry":{"type":"Point","coordinates":[-100.265489,25.6075]}},{"type":"Feature","properties":{"highway":"stop","fuente":"osm","osm_id":"node/613342612"},"geometry":{"type":"Point","coordinates":[-100.2656,25.607369]}},{"type":"Feature","properties":{"highway":"stop","fuente":"osm","osm_id":"node/613342616"},"geometry":{"type":"Point","coordinates":[-100.265318,25.606873]}},{"type":"Feature","properties":{"highway":"stop","fuente":"osm","osm_id":"node/613342617"},"geometry":{"type":"Point","coordinates":[-100.265637,25.608154]}},{"type":"Feature","properties":{"highway":"stop","fuente":"osm","osm_id":"node/613342618"},"geometry":{"type":"Point","coordinates":[-100.265783,25.607978]}},{"type":"Feature","properties":{"highway":"stop","fuente":"osm","osm_id":"node/613342619"},"geometry":{"type":"Point","coordinates":[-100.266086,25.608472]}},{"type":"Feature","properties":{"highway":"stop","fuente":"osm","osm_id":"node/613342620"},"geometry":{"type":"Point","coordinates":[-100.265995,25.608581]}},{"type":"Feature","properties":{"highway":"stop","fuente":"osm","osm_id":"node/613342621"},"geometry":{"type":"Point","coordinates":[-100.266353,25.608977]}},{"type":"Feature","properties":{"highway":"stop","fuente":"osm","osm_id":"node/613342622"},"geometry":{"type":"Point","coordinates":[-100.266468,25.608857]}},{"type":"Feature","properties":{"highway":"stop","fuente":"osm","osm_id":"node/613342623"},"geometry":{"type":"Point","coordinates":[-100.264238,25.608071]}},{"type":"Feature","properties":{"highway":"stop","fuente":"osm","osm_id":"node/613342624"},"geometry":{"type":"Point","coordinates":[-100.264632,25.608477]}},{"type":"Feature","properties":{"highway":"stop","fuente":"osm","osm_id":"node/613342625"},"geometry":{"type":"Point","coordinates":[-100.265011,25.608871]}},{"type":"Feature","properties":{"highway":"stop","fuente":"osm","osm_id":"node/613342626"},"geometry":{"type":"Point","coordinates":[-100.263231,25.606898]}},{"type":"Feature","properties":{"highway":"stop","fuente":"osm","osm_id":"node/613342627"},"geometry":{"type":"Point","coordinates":[-100.263829,25.607665]}},{"type":"Feature","properties":{"highway":"stop","fuente":"osm","osm_id":"node/613342628"},"geometry":{"type":"Point","coordinates":[-100.265414,25.609244]}},{"type":"Feature","properties":{"highway":"stop","fuente":"osm","osm_id":"node/613342629"},"geometry":{"type":"Point","coordinates":[-100.26577,25.60964]}},{"type":"Feature","properties":{"highway":"stop","fuente":"osm","osm_id":"node/613342630"},"geometry":{"type":"Point","coordinates":[-100.266146,25.610012]}},{"type":"Feature","properties":{"highway":"stop","fuente":"osm","osm_id":"node/947834939"},"geometry":{"type":"Point","coordinates":[-100.264774,25.60641]}},{"type":"Feature","properties":{"highway":"stop","fuente":"osm","osm_id":"node/7055080507"},"geometry":{"type":"Point","coordinates":[-100.267316,25.606715]}},{"type":"Feature","properties":{"highway":"stop","fuente":"osm","osm_id":"node/7055080508"},"geometry":{"type":"Point","coordinates":[-100.267013,25.606255]}},{"type":"Feature","properties":{"highway":"stop","fuente":"osm","osm_id":"node/7055160598"},"geometry":{"type":"Point","coordinates":[-100.267896,25.607592]}},{"type":"Feature","properties":{"highway":"give_way","fuente":"osm","osm_id":"node/8369644281"},"geometry":{"type":"Point","coordinates":[-100.278225,25.624234]}},{"type":"Feature","properties":{"highway":"stop","fuente":"osm","osm_id":"node/8718894094"},"geometry":{"type":"Point","coordinates":[-100.37711,25.623286]}},{"type":"Feature","properties":{"highway":"stop","fuente":"osm","osm_id":"node/1842854075"},"geometry":{"type":"Point","coordinates":[-100.449523,25.678498]}},{"type":"Feature","properties":{"highway":"stop","fuente":"osm","osm_id":"node/3586731435"},"geometry":{"type":"Point","coordinates":[-100.433459,25.674498]}},{"type":"Feature","properties":{"highway":"stop","fuente":"osm","osm_id":"node/7438451853"},"geometry":{"type":"Point","coordinates":[-100.430435,25.674443]}},{"type":"Feature","properties":{"highway":"stop","fuente":"osm","osm_id":"node/10774877067"},"geometry":{"type":"Point","coordinates":[-100.318907,25.670742]}},{"type":"Feature","properties":{"highway":"stop","fuente":"osm","osm_id":"node/3372251713"},"geometry":{"type":"Point","coordinates":[-100.135948,25.713331]}}]}