{"type":"FeatureCollection","features":[{"type":"Feature","geometry":{"type":"Point","coordinates":[-100.14298,25.6118]},"properties":{"s":9.3,"a":8.2,"t":1.0,"f":0.0,"fi":0,"c":0.0,"nc":0,"sm":0,"sb":0.0,"k":"19031_0116"}},{"type":"Feature","geometry":{"type":"Point","coordinates":[-100.14298,25.61089]},"properties":{"s":8.6,"a":6.6,"t":2.0,"f":0.0,"fi":0,"c":0.0,"nc":0,"sm":0,"sb":0.0,"k":"19031_0116"}},{"type":"Feature","geometry":{"type":"Point","coordinates":[-100.14199,25.6118]},"properties":{"s":8.5,"a":8.4,"t":0.0,"f":0.0,"fi":0,"c":0.0,"nc":0,"sm":0,"sb":0.0,"k":"19031_0116"}},{"type":"Feature","geometry":{"type":"Point","coordinates":[-100.14597,25.61903]},"properties":{"s":8.0,"a":3.4,"t":4.0,"f":0.5,"fi":2,"c":0.0,"nc":0,"sm":0,"sb":0.0,"k":"19031_0116"}},{"type":"Feature","geometry":{"type":"Point","coordinates":[-100.14498,25.61903]},"properties":{"s":7.2,"a":3.6,"t":3.0,"f":0.5,"fi":2,"c":0.0,"nc":0,"sm":0,"sb":0.0,"k":"19031_0116"}},{"type":"Feature","geometry":{"type":"Point","coordinates":[-100.14398,25.6118]},"properties":{"s":7.0,"a":5.9,"t":1.0,"f":0.0,"fi":0,"c":0.0,"nc":0,"sm":0,"sb":0.0,"k":"19031_0116"}},{"type":"Feature","geometry":{"type":"Point","coordinates":[-100.14199,25.61089]},"properties":{"s":6.9,"a":5.8,"t":1.0,"f":0.0,"fi":0,"c":0.0,"nc":0,"sm":0,"sb":0.0,"k":"19031_0116"}},{"type":"Feature","geometry":{"type":"Point","coordinates":[-100.14199,25.6127]},"properties":{"s":6.6,"a":6.6,"t":0.0,"f":0.0,"fi":0,"c":0.0,"nc":0,"sm":0,"sb":0.0,"k":"19031_0116"}},{"type":"Feature","geometry":{"type":"Point","coordinates":[-100.14398,25.61089]},"properties":{"s":6.5,"a":5.5,"t":1.0,"f":0.0,"fi":0,"c":0.0,"nc":0,"sm":0,"sb":0.0,"k":"19031_0116"}},{"type":"Feature","geometry":{"type":"Point","coordinates":[-100.14099,25.61361]},"properties":{"s":6.2,"a":6.1,"t":0.0,"f":0.0,"fi":0,"c":0.0,"nc":0,"sm":0,"sb":0.0,"k":"19031_0116"}},{"type":"Feature","geometry":{"type":"Point","coordinates":[-100.14099,25.6127]},"properties":{"s":5.9,"a":5.9,"t":0.0,"f":0.0,"fi":0,"c":0.0,"nc":0,"sm":0,"sb":0.0,"k":"19031_0116"}},{"type":"Feature","geometry":{"type":"Point","coordinates":[-100.14897,25.6118]},"properties":{"s":5.7,"a":5.7,"t":0.0,"f":0.0,"fi":0,"c":0.0,"nc":0,"sm":0,"sb":0.0,"k":"19031_0116"}},{"type":"Feature","geometry":{"type":"Point","coordinates":[-100.14298,25.6127]},"properties":{"s":5.3,"a":5.3,"t":0.0,"f":0.0,"fi":0,"c":0.0,"nc":0,"sm":0,"sb":0.0,"k":"19031_0116"}},{"type":"Feature","geometry":{"type":"Point","coordinates":[-100.14398,25.61813]},"properties":{"s":5.0,"a":3.5,"t":1.0,"f":0.5,"fi":2,"c":0.0,"nc":0,"sm":0,"sb":0.0,"k":"19031_0116"}},{"type":"Feature","geometry":{"type":"Point","coordinates":[-100.14199,25.61361]},"properties":{"s":4.9,"a":4.9,"t":0.0,"f":0.0,"fi":0,"c":0.0,"nc":0,"sm":0,"sb":0.0,"k":"19031_0116"}},{"type":"Feature","geometry":{"type":"Point","coordinates":[-100.14099,25.6118]},"properties":{"s":4.9,"a":4.9,"t":0.0,"f":0.0,"fi":0,"c":0.0,"nc":0,"sm":0,"sb":0.0,"k":"19031_0116"}},{"type":"Feature","geometry":{"type":"Point","coordinates":[-100.14897,25.61451]},"properties":{"s":4.7,"a":1.2,"t":3.0,"f":0.5,"fi":2,"c":0.0,"nc":0,"sm":0,"sb":0.0,"k":"19031_0116"}},{"type":"Feature","geometry":{"type":"Point","coordinates":[-100.14298,25.61361]},"properties":{"s":4.1,"a":4.1,"t":0.0,"f":0.0,"fi":0,"c":0.0,"nc":0,"sm":0,"sb":0.0,"k":"19031_0116"}},{"type":"Feature","geometry":{"type":"Point","coordinates":[-100.14298,25.61722]},"properties":{"s":4.1,"a":4.0,"t":1.0,"f":0.5,"fi":2,"c":1.4,"nc":1,"sm":0,"sb":0.0,"k":"19031_0116"}},{"type":"Feature","geometry":{"type":"Point","coordinates":[-100.14099,25.61089]},"properties":{"s":4.1,"a":4.1,"t":0.0,"f":0.0,"fi":0,"c":0.0,"nc":0,"sm":0,"sb":0.0,"k":"19031_0116"}},{"type":"Feature","geometry":{"type":"Point","coordinates":[-100.14298,25.60999]},"properties":{"s":4.0,"a":3.9,"t":0.0,"f":0.0,"fi":0,"c":0.0,"nc":0,"sm":0,"sb":0.0,"k":"19031_0116"}},{"type":"Feature","geometry":{"type":"Point","coordinates":[-100.14199,25.61722]},"properties":{"s":4.0,"a":5.1,"t":1.0,"f":0.5,"fi":2,"c":2.7,"nc":1,"sm":0,"sb":0.0,"k":"19031_0116"}},{"type":"Feature","geometry":{"type":"Point","coordinates":[-100.14199,25.61451]},"properties":{"s":3.8,"a":4.3,"t":0.0,"f":0.0,"fi":0,"c":0.6,"nc":1,"sm":0,"sb":0.0,"k":"19031_0116"}},{"type":"Feature","geometry":{"type":"Point","coordinates":[-100.139,25.61542]},"properties":{"s":3.8,"a":7.2,"t":1.0,"f":0.5,"fi":2,"c":5.0,"nc":4,"sm":0,"sb":0.0,"k":"19031_0116"}},{"type":"Feature","geometry":{"type":"Point","coordinates":[-100.14498,25.6118]},"properties":{"s":3.7,"a":3.7,"t":0.0,"f":0.0,"fi":0,"c":0.0,"nc":0,"sm":0,"sb":-0.0,"k":"19031_0116"}},{"type":"Feature","geometry":{"type":"Point","coordinates":[-100.14298,25.61813]},"properties":{"s":3.7,"a":3.9,"t":0.0,"f":0.5,"fi":2,"c":0.8,"nc":1,"sm":0,"sb":0.0,"k":"19031_0116"}},{"type":"Feature","geometry":{"type":"Point","coordinates":[-100.14298,25.61451]},"properties":{"s":3.5,"a":3.5,"t":0.0,"f":0.0,"fi":0,"c":0.0,"nc":0,"sm":0,"sb":0.0,"k":"19031_0116"}},{"type":"Feature","geometry":{"type":"Point","coordinates":[-100.14498,25.61994]},"properties":{"s":3.3,"a":3.2,"t":0.0,"f":0.0,"fi":0,"c":0.0,"nc":0,"sm":0,"sb":0.0,"k":"19031_0116"}},{"type":"Feature","geometry":{"type":"Point","coordinates":[-100.14398,25.6127]},"properties":{"s":3.2,"a":3.1,"t":0.0,"f":0.0,"fi":0,"c":0.0,"nc":0,"sm":0,"sb":0.0,"k":"19031_0116"}},{"type":"Feature","geometry":{"type":"Point","coordinates":[-100.14498,25.61089]},"properties":{"s":3.1,"a":3.1,"t":0.0,"f":0.0,"fi":0,"c":0.0,"nc":0,"sm":0,"sb":-0.0,"k":"19031_0116"}},{"type":"Feature","geometry":{"type":"Point","coordinates":[-100.14597,25.6127]},"properties":{"s":3.0,"a":2.9,"t":0.0,"f":0.0,"fi":0,"c":0.0,"nc":0,"sm":0,"sb":0.0,"k":"19031_0116"}},{"type":"Feature","geometry":{"type":"Point","coordinates":[-100.14897,25.6127]},"properties":{"s":2.9,"a":2.8,"t":0.0,"f":0.0,"fi":0,"c":0.0,"nc":0,"sm":0,"sb":0.0,"k":"19031_0116"}},{"type":"Feature","geometry":{"type":"Point","coordinates":[-100.14797,25.6118]},"properties":{"s":2.9,"a":2.8,"t":0.0,"f":0.0,"fi":0,"c":0.0,"nc":0,"sm":0,"sb":0.0,"k":"19031_0116"}},{"type":"Feature","geometry":{"type":"Point","coordinates":[-100.13999,25.6118]},"properties":{"s":2.9,"a":3.6,"t":0.0,"f":0.0,"fi":0,"c":0.7,"nc":2,"sm":0,"sb":0.0,"k":"19031_0116"}},{"type":"Feature","geometry":{"type":"Point","coordinates":[-100.13999,25.61903]},"properties":{"s":2.8,"a":3.0,"t":0.0,"f":0.0,"fi":0,"c":0.2,"nc":1,"sm":0,"sb":0.0,"k":"19031_0116"}},{"type":"Feature","geometry":{"type":"Point","coordinates":[-100.14797,25.60999]},"properties":{"s":2.6,"a":1.6,"t":1.0,"f":0.0,"fi":0,"c":0.0,"nc":0,"sm":0,"sb":0.0,"k":"19031_0116"}},{"type":"Feature","geometry":{"type":"Point","coordinates":[-100.14498,25.6127]},"properties":{"s":2.6,"a":2.5,"t":0.0,"f":0.0,"fi":0,"c":0.0,"nc":0,"sm":0,"sb":0.0,"k":"19031_0116"}},{"type":"Feature","geometry":{"type":"Point","coordinates":[-100.14398,25.61903]},"properties":{"s":2.6,"a":1.6,"t":1.0,"f":0.0,"fi":0,"c":0.0,"nc":0,"sm":0,"sb":0.0,"k":"19031_0116"}},{"type":"Feature","geometry":{"type":"Point","coordinates":[-100.13999,25.61542]},"properties":{"s":2.6,"a":6.8,"t":0.0,"f":0.0,"fi":0,"c":4.1,"nc":3,"sm":0,"sb":0.0,"k":"19031_0116"}},{"type":"Feature","geometry":{"type":"Point","coordinates":[-100.14498,25.61451]},"properties":{"s":2.5,"a":2.4,"t":0.0,"f":0.0,"fi":0,"c":0.0,"nc":0,"sm":0,"sb":0.0,"k":"19031_0116"}},{"type":"Feature","geometry":{"type":"Point","coordinates":[-100.14398,25.61361]},"properties":{"s":2.5,"a":2.4,"t":0.0,"f":0.0,"fi":0,"c":0.0,"nc":0,"sm":0,"sb":0.0,"k":"19031_0116"}},{"type":"Feature","geometry":{"type":"Point","coordinates":[-100.13999,25.61089]},"properties":{"s":2.5,"a":2.4,"t":0.0,"f":0.0,"fi":0,"c":0.0,"nc":0,"sm":0,"sb":0.0,"k":"19031_0116"}},{"type":"Feature","geometry":{"type":"Point","coordinates":[-100.14697,25.61089]},"properties":{"s":2.4,"a":2.4,"t":0.0,"f":0.0,"fi":0,"c":0.0,"nc":0,"sm":0,"sb":0.0,"k":"19031_0116"}},{"type":"Feature","geometry":{"type":"Point","coordinates":[-100.14597,25.61451]},"properties":{"s":2.4,"a":2.4,"t":0.0,"f":0.0,"fi":0,"c":0.0,"nc":0,"sm":0,"sb":0.0,"k":"19031_0116"}},{"type":"Feature","geometry":{"type":"Point","coordinates":[-100.14199,25.61813]},"properties":{"s":2.4,"a":3.0,"t":1.0,"f":0.0,"fi":0,"c":1.6,"nc":1,"sm":0,"sb":0.0,"k":"19031_0116"}},{"type":"Feature","geometry":{"type":"Point","coordinates":[-100.14199,25.60999]},"properties":{"s":2.3,"a":2.3,"t":0.0,"f":0.0,"fi":0,"c":0.0,"nc":0,"sm":0,"sb":0.0,"k":"19031_0116"}},{"type":"Feature","geometry":{"type":"Point","coordinates":[-100.14697,25.60999]},"properties":{"s":2.2,"a":1.2,"t":1.0,"f":0.0,"fi":0,"c":0.0,"nc":0,"sm":0,"sb":0.0,"k":"19031_0116"}},{"type":"Feature","geometry":{"type":"Point","coordinates":[-100.14398,25.60999]},"properties":{"s":2.2,"a":2.2,"t":0.0,"f":0.0,"fi":0,"c":0.0,"nc":0,"sm":0,"sb":-0.0,"k":"19031_0116"}},{"type":"Feature","geometry":{"type":"Point","coordinates":[-100.13999,25.61632]},"properties":{"s":2.2,"a":7.6,"t":0.0,"f":0.5,"fi":2,"c":5.9,"nc":3,"sm":0,"sb":0.0,"k":"19031_0116"}},{"type":"Feature","geometry":{"type":"Point","coordinates":[-100.13999,25.61994]},"properties":{"s":2.2,"a":2.2,"t":0.0,"f":0.0,"fi":0,"c":0.0,"nc":0,"sm":0,"sb":0.0,"k":"19031_0116"}},{"type":"Feature","geometry":{"type":"Point","coordinates":[-100.14597,25.61361]},"properties":{"s":2.1,"a":2.0,"t":0.0,"f":0.0,"fi":0,"c":0.0,"nc":0,"sm":0,"sb":0.0,"k":"19031_0116"}},{"type":"Feature","geometry":{"type":"Point","coordinates":[-100.14996,25.60727]},"properties":{"s":2.0,"a":2.0,"t":0.0,"f":0.0,"fi":0,"c":0.0,"nc":0,"sm":0,"sb":0.0,"k":"19031_0116"}},{"type":"Feature","geometry":{"type":"Point","coordinates":[-100.14597,25.61089]},"properties":{"s":2.0,"a":2.0,"t":0.0,"f":0.0,"fi":0,"c":0.0,"nc":0,"sm":0,"sb":0.0,"k":"19031_0116"}},{"type":"Feature","geometry":{"type":"Point","coordinates":[-100.13999,25.6127]},"properties":{"s":1.9,"a":3.6,"t":0.0,"f":0.0,"fi":0,"c":1.7,"nc":2,"sm":0,"sb":0.0,"k":"19031_0116"}},{"type":"Feature","geometry":{"type":"Point","coordinates":[-100.14597,25.6118]},"properties":{"s":1.7,"a":1.7,"t":0.0,"f":0.0,"fi":0,"c":0.0,"nc":0,"sm":0,"sb":0.0,"k":"19031_0116"}},{"type":"Feature","geometry":{"type":"Point","coordinates":[-100.14498,25.61361]},"properties":{"s":1.7,"a":1.6,"t":0.0,"f":0.0,"fi":0,"c":0.0,"nc":0,"sm":0,"sb":0.0,"k":"19031_0116"}},{"type":"Feature","geometry":{"type":"Point","coordinates":[-100.14597,25.60908]},"properties":{"s":1.6,"a":1.6,"t":0.0,"f":0.0,"fi":0,"c":0.0,"nc":0,"sm":0,"sb":0.0,"k":"19031_0116"}},{"type":"Feature","geometry":{"type":"Point","coordinates":[-100.14597,25.60999]},"properties":{"s":1.6,"a":1.6,"t":0.0,"f":0.0,"fi":0,"c":0.0,"nc":0,"sm":0,"sb":0.0,"k":"19031_0116"}},{"type":"Feature","geometry":{"type":"Point","coordinates":[-100.14398,25.60818]},"properties":{"s":1.6,"a":1.6,"t":0.0,"f":0.0,"fi":0,"c":0.0,"nc":0,"sm":0,"sb":0.0,"k":"19031_0116"}},{"type":"Feature","geometry":{"type":"Point","coordinates":[-100.14398,25.60908]},"properties":{"s":1.6,"a":1.6,"t":0.0,"f":0.0,"fi":0,"c":0.0,"nc":0,"sm":0,"sb":0.0,"k":"19031_0116"}},{"type":"Feature","geometry":{"type":"Point","coordinates":[-100.14398,25.61451]},"properties":{"s":1.6,"a":1.6,"t":0.0,"f":0.0,"fi":0,"c":0.0,"nc":0,"sm":0,"sb":0.0,"k":"19031_0116"}},{"type":"Feature","geometry":{"type":"Point","coordinates":[-100.13999,25.61361]},"properties":{"s":1.6,"a":3.2,"t":0.0,"f":0.0,"fi":0,"c":1.6,"nc":2,"sm":0,"sb":0.0,"k":"19031_0116"}},{"type":"Feature","geometry":{"type":"Point","coordinates":[-100.139,25.62084]},"properties":{"s":1.6,"a":1.6,"t":0.0,"f":0.0,"fi":0,"c":0.0,"nc":0,"sm":0,"sb":0.0,"k":"19031_0116"}},{"type":"Feature","geometry":{"type":"Point","coordinates":[-100.139,25.62175]},"properties":{"s":1.6,"a":1.6,"t":0.0,"f":0.0,"fi":0,"c":0.0,"nc":0,"sm":0,"sb":0.0,"k":"19031_0116"}},{"type":"Feature","geometry":{"type":"Point","coordinates":[-100.138,25.61994]},"properties":{"s":1.6,"a":1.6,"t":0.0,"f":0.0,"fi":0,"c":0.0,"nc":0,"sm":0,"sb":0.0,"k":"19031_0116"}},{"type":"Feature","geometry":{"type":"Point","coordinates":[-100.138,25.62175]},"properties":{"s":1.6,"a":1.6,"t":0.0,"f":0.0,"fi":0,"c":0.0,"nc":0,"sm":0,"sb":0.0,"k":"19031_0116"}},{"type":"Feature","geometry":{"type":"Point","coordinates":[-100.14298,25.61542]},"properties":{"s":1.5,"a":2.4,"t":0.0,"f":0.0,"fi":0,"c":0.9,"nc":1,"sm":0,"sb":0.0,"k":"19031_0116"}},{"type":"Feature","geometry":{"type":"Point","coordinates":[-100.139,25.61903]},"properties":{"s":1.5,"a":1.6,"t":0.0,"f":0.0,"fi":0,"c":0.1,"nc":1,"sm":0,"sb":0.0,"k":"19031_0116"}},{"type":"Feature","geometry":{"type":"Point","coordinates":[-100.13501,25.61361]},"properties":{"s":1.5,"a":1.6,"t":0.0,"f":0.5,"fi":2,"c":0.6,"nc":2,"sm":0,"sb":0.0,"k":"19031_0116"}},{"type":"Feature","geometry":{"type":"Point","coordinates":[-100.139,25.61089]},"properties":{"s":1.4,"a":2.0,"t":0.0,"f":0.0,"fi":0,"c":0.7,"nc":1,"sm":0,"sb":0.0,"k":"19031_0116"}},{"type":"Feature","geometry":{"type":"Point","coordinates":[-100.13301,25.6127]},"properties":{"s":1.3,"a":0.8,"t":0.0,"f":0.5,"fi":2,"c":0.0,"nc":0,"sm":0,"sb":0.0,"k":"19031_0116"}},{"type":"Feature","geometry":{"type":"Point","coordinates":[-100.14797,25.6127]},"properties":{"s":1.2,"a":1.2,"t":0.0,"f":0.0,"fi":0,"c":0.0,"nc":0,"sm":0,"sb":0.0,"k":"19031_0116"}},{"type":"Feature","geometry":{"type":"Point","coordinates":[-100.14697,25.6118]},"properties":{"s":1.2,"a":1.2,"t":0.0,"f":0.0,"fi":0,"c":0.0,"nc":0,"sm":0,"sb":0.0,"k":"19031_0116"}},{"type":"Feature","geometry":{"type":"Point","coordinates":[-100.14697,25.6127]},"properties":{"s":1.2,"a":1.2,"t":0.0,"f":0.0,"fi":0,"c":0.0,"nc":0,"sm":0,"sb":0.0,"k":"19031_0116"}},{"type":"Feature","geometry":{"type":"Point","coordinates":[-100.14697,25.61451]},"properties":{"s":1.2,"a":1.2,"t":0.0,"f":0.0,"fi":0,"c":0.0,"nc":0,"sm":0,"sb":0.0,"k":"19031_0116"}},{"type":"Feature","geometry":{"type":"Point","coordinates":[-100.14597,25.60818]},"properties":{"s":1.2,"a":1.2,"t":0.0,"f":0.0,"fi":0,"c":0.0,"nc":0,"sm":0,"sb":0.0,"k":"19031_0116"}},{"type":"Feature","geometry":{"type":"Point","coordinates":[-100.14498,25.60999]},"properties":{"s":1.2,"a":1.2,"t":0.0,"f":0.0,"fi":0,"c":0.0,"nc":0,"sm":0,"sb":0.0,"k":"19031_0116"}},{"type":"Feature","geometry":{"type":"Point","coordinates":[-100.14398,25.60727]},"properties":{"s":1.2,"a":1.2,"t":0.0,"f":0.0,"fi":0,"c":0.0,"nc":0,"sm":0,"sb":0.0,"k":"19031_0116"}},{"type":"Feature","geometry":{"type":"Point","coordinates":[-100.14298,25.60818]},"properties":{"s":1.2,"a":1.2,"t":0.0,"f":0.0,"fi":0,"c":0.0,"nc":0,"sm":0,"sb":0.0,"k":"19031_0116"}},{"type":"Feature","geometry":{"type":"Point","coordinates":[-100.14298,25.60908]},"properties":{"s":1.2,"a":1.2,"t":0.0,"f":0.0,"fi":0,"c":0.0,"nc":0,"sm":0,"sb":0.0,"k":"19031_0116"}},{"type":"Feature","geometry":{"type":"Point","coordinates":[-100.14099,25.61813]},"properties":{"s":1.2,"a":3.3,"t":0.0,"f":0.0,"fi":0,"c":2.1,"nc":2,"sm":0,"sb":0.0,"k":"19031_0116"}},{"type":"Feature","geometry":{"type":"Point","coordinates":[-100.14099,25.61903]},"properties":{"s":1.2,"a":1.8,"t":0.0,"f":0.0,"fi":0,"c":0.6,"nc":1,"sm":0,"sb":0.0,"k":"19031_0116"}},{"type":"Feature","geometry":{"type":"Point","coordinates":[-100.13999,25.62084]},"properties":{"s":1.2,"a":1.2,"t":0.0,"f":0.0,"fi":0,"c":0.0,"nc":0,"sm":0,"sb":0.0,"k":"19031_0116"}},{"type":"Feature","geometry":{"type":"Point","coordinates":[-100.139,25.61994]},"properties":{"s":1.2,"a":1.2,"t":0.0,"f":0.0,"fi":0,"c":0.0,"nc":0,"sm":0,"sb":0.0,"k":"19031_0116"}},{"type":"Feature","geometry":{"type":"Point","coordinates":[-100.138,25.62084]},"properties":{"s":1.2,"a":1.2,"t":0.0,"f":0.0,"fi":0,"c":0.0,"nc":0,"sm":0,"sb":0.0,"k":"19031_0116"}},{"type":"Feature","geometry":{"type":"Point","coordinates":[-100.13401,25.6127]},"properties":{"s":1.2,"a":1.2,"t":0.0,"f":0.0,"fi":0,"c":0.0,"nc":0,"sm":0,"sb":0.0,"k":"19031_0116"}},{"type":"Feature","geometry":{"type":"Point","coordinates":[-100.14199,25.61632]},"properties":{"s":1.1,"a":3.9,"t":0.0,"f":0.0,"fi":0,"c":2.8,"nc":2,"sm":0,"sb":0.0,"k":"19031_0116"}},{"type":"Feature","geometry":{"type":"Point","coordinates":[-100.138,25.61903]},"properties":{"s":1.1,"a":1.6,"t":0.0,"f":0.0,"fi":0,"c":0.5,"nc":1,"sm":0,"sb":0.0,"k":"19031_0116"}},{"type":"Feature","geometry":{"type":"Point","coordinates":[-100.14298,25.61903]},"properties":{"s":0.9,"a":0.9,"t":0.0,"f":0.0,"fi":0,"c":0.0,"nc":0,"sm":0,"sb":0.0,"k":"19031_0116"}},{"type":"Feature","geometry":{"type":"Point","coordinates":[-100.14099,25.61451]},"properties":{"s":0.9,"a":2.0,"t":0.0,"f":0.0,"fi":0,"c":1.1,"nc":2,"sm":0,"sb":0.0,"k":"19031_0116"}},{"type":"Feature","geometry":{"type":"Point","coordinates":[-100.13999,25.61451]},"properties":{"s":0.9,"a":3.0,"t":0.0,"f":0.0,"fi":0,"c":2.1,"nc":4,"sm":0,"sb":0.0,"k":"19031_0116"}},{"type":"Feature","geometry":{"type":"Point","coordinates":[-100.13202,25.6118]},"properties":{"s":0.9,"a":0.4,"t":0.0,"f":0.5,"fi":2,"c":0.0,"nc":0,"sm":0,"sb":0.0,"k":"19031_0116"}},{"type":"Feature","geometry":{"type":"Point","coordinates":[-100.13202,25.6127]},"properties":{"s":0.9,"a":0.4,"t":0.0,"f":0.5,"fi":2,"c":0.0,"nc":0,"sm":0,"sb":0.0,"k":"19031_0116"}},{"type":"Feature","geometry":{"type":"Point","coordinates":[-100.13102,25.60999]},"properties":{"s":0.9,"a":0.4,"t":0.0,"f":0.5,"fi":2,"c":0.0,"nc":0,"sm":0,"sb":0.0,"k":"19031_0116"}},{"type":"Feature","geometry":{"type":"Point","coordinates":[-100.13002,25.60908]},"properties":{"s":0.9,"a":0.4,"t":0.0,"f":0.5,"fi":2,"c":0.0,"nc":0,"sm":0,"sb":0.0,"k":"19031_0116"}},{"type":"Feature","geometry":{"type":"Point","coordinates":[-100.13002,25.60999]},"properties":{"s":0.9,"a":0.4,"t":0.0,"f":0.5,"fi":2,"c":0.0,"nc":0,"sm":0,"sb":0.0,"k":"19031_0116"}},{"type":"Feature","geometry":{"type":"Point","coordinates":[-100.12903,25.60818]},"properties":{"s":0.9,"a":0.4,"t":0.0,"f":0.5,"fi":2,"c":0.0,"nc":0,"sm":0,"sb":0.0,"k":"19031_0116"}},{"type":"Feature","geometry":{"type":"Point","coordinates":[-100.12903,25.60908]},"properties":{"s":0.9,"a":0.4,"t":0.0,"f":0.5,"fi":2,"c":0.0,"nc":0,"sm":0,"sb":0.0,"k":"19031_0116"}},{"type":"Feature","geometry":{"type":"Point","coordinates":[-100.14897,25.61361]},"properties":{"s":0.8,"a":0.8,"t":0.0,"f":0.0,"fi":0,"c":0.0,"nc":0,"sm":0,"sb":0.0,"k":"19031_0116"}},{"type":"Feature","geometry":{"type":"Point","coordinates":[-100.14797,25.60727]},"properties":{"s":0.8,"a":0.8,"t":0.0,"f":0.0,"fi":0,"c":0.0,"nc":0,"sm":0,"sb":0.0,"k":"19031_0116"}},{"type":"Feature","geometry":{"type":"Point","coordinates":[-100.14797,25.60818]},"properties":{"s":0.8,"a":0.8,"t":0.0,"f":0.0,"fi":0,"c":0.0,"nc":0,"sm":0,"sb":0.0,"k":"19031_0116"}},{"type":"Feature","geometry":{"type":"Point","coordinates":[-100.14797,25.61361]},"properties":{"s":0.8,"a":0.8,"t":0.0,"f":0.0,"fi":0,"c":0.0,"nc":0,"sm":0,"sb":0.0,"k":"19031_0116"}},{"type":"Feature","geometry":{"type":"Point","coordinates":[-100.14697,25.60727]},"properties":{"s":0.8,"a":0.8,"t":0.0,"f":0.0,"fi":0,"c":0.0,"nc":0,"sm":0,"sb":0.0,"k":"19031_0116"}},{"type":"Feature","geometry":{"type":"Point","coordinates":[-100.14697,25.60818]},"properties":{"s":0.8,"a":0.8,"t":0.0,"f":0.0,"fi":0,"c":0.0,"nc":0,"sm":0,"sb":0.0,"k":"19031_0116"}},{"type":"Feature","geometry":{"type":"Point","coordinates":[-100.14697,25.60908]},"properties":{"s":0.8,"a":0.8,"t":0.0,"f":0.0,"fi":0,"c":0.0,"nc":0,"sm":0,"sb":0.0,"k":"19031_0116"}},{"type":"Feature","geometry":{"type":"Point","coordinates":[-100.14597,25.60727]},"properties":{"s":0.8,"a":0.8,"t":0.0,"f":0.0,"fi":0,"c":0.0,"nc":0,"sm":0,"sb":0.0,"k":"19031_0116"}},{"type":"Feature","geometry":{"type":"Point","coordinates":[-100.14498,25.60727]},"properties":{"s":0.8,"a":0.8,"t":0.0,"f":0.0,"fi":0,"c":0.0,"nc":0,"sm":0,"sb":0.0,"k":"19031_0116"}},{"type":"Feature","geometry":{"type":"Point","coordinates":[-100.14498,25.60818]},"properties":{"s":0.8,"a":0.8,"t":0.0,"f":0.0,"fi":0,"c":0.0,"nc":0,"sm":0,"sb":0.0,"k":"19031_0116"}},{"type":"Feature","geometry":{"type":"Point","coordinates":[-100.14498,25.60908]},"properties":{"s":0.8,"a":0.8,"t":0.0,"f":0.0,"fi":0,"c":0.0,"nc":0,"sm":0,"sb":0.0,"k":"19031_0116"}},{"type":"Feature","geometry":{"type":"Point","coordinates":[-100.14298,25.60727]},"properties":{"s":0.8,"a":0.8,"t":0.0,"f":0.0,"fi":0,"c":0.0,"nc":0,"sm":0,"sb":0.0,"k":"19031_0116"}},{"type":"Feature","geometry":{"type":"Point","coordinates":[-100.13999,25.60999]},"properties":{"s":0.8,"a":0.8,"t":0.0,"f":0.0,"fi":0,"c":0.0,"nc":0,"sm":0,"sb":0.0,"k":"19031_0116"}},{"type":"Feature","geometry":{"type":"Point","coordinates":[-100.139,25.60999]},"properties":{"s":0.8,"a":0.8,"t":0.0,"f":0.0,"fi":0,"c":0.0,"nc":0,"sm":0,"sb":0.0,"k":"19031_0116"}},{"type":"Feature","geometry":{"type":"Point","coordinates":[-100.139,25.6118]},"properties":{"s":0.8,"a":3.5,"t":0.0,"f":0.0,"fi":0,"c":2.8,"nc":2,"sm":0,"sb":0.0,"k":"19031_0116"}},{"type":"Feature","geometry":{"type":"Point","coordinates":[-100.13401,25.6118]},"properties":{"s":0.8,"a":0.8,"t":0.0,"f":0.0,"fi":0,"c":0.0,"nc":0,"sm":0,"sb":0.0,"k":"19031_0116"}},{"type":"Feature","geometry":{"type":"Point","coordinates":[-100.12205,25.61451]},"properties":{"s":0.8,"a":0.8,"t":0.0,"f":0.0,"fi":0,"c":0.0,"nc":0,"sm":0,"sb":0.0,"k":"19031_0116"}},{"type":"Feature","geometry":{"type":"Point","coordinates":[-100.14099,25.61722]},"properties":{"s":0.6,"a":4.3,"t":0.0,"f":0.5,"fi":2,"c":4.3,"nc":2,"sm":0,"sb":0.0,"k":"19031_0116"}},{"type":"Feature","geometry":{"type":"Point","coordinates":[-100.13501,25.6127]},"properties":{"s":0.5,"a":1.2,"t":0.0,"f":0.0,"fi":0,"c":0.7,"nc":2,"sm":0,"sb":0.0,"k":"19031_0116"}},{"type":"Feature","geometry":{"type":"Point","coordinates":[-100.13102,25.61089]},"properties":{"s":0.5,"a":0.0,"t":0.0,"f":0.5,"fi":2,"c":0.0,"nc":0,"sm":0,"sb":0.0,"k":"19031_0116"}},{"type":"Feature","geometry":{"type":"Point","coordinates":[-100.12803,25.60637]},"properties":{"s":0.5,"a":0.0,"t":0.0,"f":0.5,"fi":2,"c":0.0,"nc":0,"sm":0,"sb":0.0,"k":"19031_0116"}},{"type":"Feature","geometry":{"type":"Point","coordinates":[-100.12803,25.60727]},"properties":{"s":0.5,"a":0.0,"t":0.0,"f":0.5,"fi":2,"c":0.0,"nc":0,"sm":0,"sb":0.0,"k":"19031_0116"}},{"type":"Feature","geometry":{"type":"Point","coordinates":[-100.12703,25.60546]},"properties":{"s":0.5,"a":0.0,"t":0.0,"f":0.5,"fi":2,"c":0.0,"nc":0,"sm":0,"sb":0.0,"k":"19031_0116"}},{"type":"Feature","geometry":{"type":"Point","coordinates":[-100.12703,25.60637]},"properties":{"s":0.5,"a":0.0,"t":0.0,"f":0.5,"fi":2,"c":0.0,"nc":0,"sm":0,"sb":0.0,"k":"19031_0116"}},{"type":"Feature","geometry":{"type":"Point","coordinates":[-100.12604,25.60456]},"properties":{"s":0.5,"a":0.0,"t":0.0,"f":0.5,"fi":2,"c":0.0,"nc":0,"sm":0,"sb":0.0,"k":"19031_0116"}},{"type":"Feature","geometry":{"type":"Point","coordinates":[-100.14897,25.60727]},"properties":{"s":0.4,"a":0.4,"t":0.0,"f":0.0,"fi":0,"c":0.0,"nc":0,"sm":0,"sb":0.0,"k":"19031_0116"}},{"type":"Feature","geometry":{"type":"Point","coordinates":[-100.14797,25.60908]},"properties":{"s":0.4,"a":0.4,"t":0.0,"f":0.0,"fi":0,"c":0.0,"nc":0,"sm":0,"sb":0.0,"k":"19031_0116"}},{"type":"Feature","geometry":{"type":"Point","coordinates":[-100.14797,25.61451]},"properties":{"s":0.4,"a":0.4,"t":0.0,"f":0.0,"fi":0,"c":0.0,"nc":0,"sm":0,"sb":0.0,"k":"19031_0116"}},{"type":"Feature","geometry":{"type":"Point","coordinates":[-100.14697,25.61361]},"properties":{"s":0.4,"a":0.4,"t":0.0,"f":0.0,"fi":0,"c":0.0,"nc":0,"sm":0,"sb":0.0,"k":"19031_0116"}},{"type":"Feature","geometry":{"type":"Point","coordinates":[-100.14199,25.60818]},"properties":{"s":0.4,"a":0.4,"t":0.0,"f":0.0,"fi":0,"c":0.0,"nc":0,"sm":0,"sb":0.0,"k":"19031_0116"}},{"type":"Feature","geometry":{"type":"Point","coordinates":[-100.13999,25.61722]},"properties":{"s":0.4,"a":5.5,"t":0.0,"f":0.0,"fi":0,"c":5.1,"nc":3,"sm":0,"sb":0.0,"k":"19031_0116"}},{"type":"Feature","geometry":{"type":"Point","coordinates":[-100.139,25.60908]},"properties":{"s":0.4,"a":0.4,"t":0.0,"f":0.0,"fi":0,"c":0.0,"nc":0,"sm":0,"sb":0.0,"k":"19031_0116"}},{"type":"Feature","geometry":{"type":"Point","coordinates":[-100.138,25.60908]},"properties":{"s":0.4,"a":0.4,"t":0.0,"f":0.0,"fi":0,"c":0.0,"nc":0,"sm":0,"sb":0.0,"k":"19031_0116"}},{"type":"Feature","geometry":{"type":"Point","coordinates":[-100.138,25.60999]},"properties":{"s":0.4,"a":0.4,"t":0.0,"f":0.0,"fi":0,"c":0.0,"nc":0,"sm":0,"sb":0.0,"k":"19031_0116"}},{"type":"Feature","geometry":{"type":"Point","coordinates":[-100.13501,25.6118]},"properties":{"s":0.4,"a":0.4,"t":0.0,"f":0.0,"fi":0,"c":0.0,"nc":0,"sm":0,"sb":0.0,"k":"19031_0116"}},{"type":"Feature","geometry":{"type":"Point","coordinates":[-100.13301,25.6118]},"properties":{"s":0.4,"a":0.4,"t":0.0,"f":0.0,"fi":0,"c":0.0,"nc":0,"sm":0,"sb":0.0,"k":"19031_0116"}},{"type":"Feature","geometry":{"type":"Point","coordinates":[-100.13102,25.60908]},"properties":{"s":0.4,"a":0.4,"t":0.0,"f":0.0,"fi":0,"c":0.0,"nc":0,"sm":0,"sb":0.0,"k":"19031_0116"}},{"type":"Feature","geometry":{"type":"Point","coordinates":[-100.13102,25.61361]},"properties":{"s":0.4,"a":0.4,"t":0.0,"f":0.0,"fi":0,"c":0.0,"nc":0,"sm":0,"sb":0.0,"k":"19031_0116"}},{"type":"Feature","geometry":{"type":"Point","coordinates":[-100.13002,25.60818]},"properties":{"s":0.4,"a":0.4,"t":0.0,"f":0.0,"fi":0,"c":0.0,"nc":0,"sm":0,"sb":0.0,"k":"19031_0116"}},{"type":"Feature","geometry":{"type":"Point","coordinates":[-100.12903,25.60999]},"properties":{"s":0.4,"a":0.4,"t":0.0,"f":0.0,"fi":0,"c":0.0,"nc":0,"sm":0,"sb":0.0,"k":"19031_0116"}},{"type":"Feature","geometry":{"type":"Point","coordinates":[-100.12105,25.61542]},"properties":{"s":0.4,"a":0.4,"t":0.0,"f":0.0,"fi":0,"c":0.0,"nc":0,"sm":0,"sb":0.0,"k":"19031_0116"}},{"type":"Feature","geometry":{"type":"Point","coordinates":[-100.139,25.61451]},"properties":{"s":0.2,"a":4.5,"t":0.0,"f":0.0,"fi":0,"c":4.3,"nc":4,"sm":0,"sb":0.0,"k":"19031_0116"}},{"type":"Feature","geometry":{"type":"Point","coordinates":[-100.137,25.61451]},"properties":{"s":0.1,"a":3.9,"t":0.0,"f":0.5,"fi":2,"c":4.3,"nc":4,"sm":0,"sb":0.0,"k":"19031_0116"}},{"type":"Feature","geometry":{"type":"Point","coordinates":[-100.1699,25.62446]},"properties":{"s":7.8,"a":8.1,"t":0.0,"f":0.0,"fi":0,"c":0.0,"nc":0,"sm":0,"sb":-0.1,"k":"19031_0154"}},{"type":"Feature","geometry":{"type":"Point","coordinates":[-100.1689,25.62446]},"properties":{"s":7.1,"a":7.3,"t":0.0,"f":0.0,"fi":0,"c":0.0,"nc":0,"sm":0,"sb":-0.1,"k":"19031_0154"}},{"type":"Feature","geometry":{"type":"Point","coordinates":[-100.16791,25.62446]},"properties":{"s":6.8,"a":7.0,"t":0.0,"f":0.0,"fi":0,"c":0.0,"nc":0,"sm":0,"sb":-0.1,"k":"19031_0154"}},{"type":"Feature","geometry":{"type":"Point","coordinates":[-100.1709,25.62446]},"properties":{"s":6.2,"a":6.5,"t":0.0,"f":0.0,"fi":0,"c":0.0,"nc":0,"sm":0,"sb":-0.1,"k":"19031_0154"}},{"type":"Feature","geometry":{"type":"Point","coordinates":[-100.1689,25.62537]},"properties":{"s":5.8,"a":6.0,"t":0.0,"f":0.0,"fi":0,"c":0.0,"nc":0,"sm":0,"sb":-0.1,"k":"19031_0154"}},{"type":"Feature","geometry":{"type":"Point","coordinates":[-100.16791,25.62537]},"properties":{"s":5.7,"a":6.0,"t":0.0,"f":0.0,"fi":0,"c":0.0,"nc":0,"sm":0,"sb":-0.1,"k":"19031_0154"}},{"type":"Feature","geometry":{"type":"Point","coordinates":[-100.16791,25.62627]},"properties":{"s":5.7,"a":6.0,"t":0.0,"f":0.0,"fi":0,"c":0.0,"nc":0,"sm":0,"sb":-0.1,"k":"19031_0154"}},{"type":"Feature","geometry":{"type":"Point","coordinates":[-100.1689,25.62627]},"properties":{"s":5.4,"a":5.6,"t":0.0,"f":0.0,"fi":0,"c":0.0,"nc":0,"sm":0,"sb":-0.1,"k":"19031_0154"}},{"type":"Feature","geometry":{"type":"Point","coordinates":[-100.17289,25.63079]},"properties":{"s":4.6,"a":4.3,"t":0.0,"f":0.5,"fi":2,"c":0.0,"nc":0,"sm":0,"sb":-0.0,"k":"19031_0154"}},{"type":"Feature","geometry":{"type":"Point","coordinates":[-100.1699,25.62537]},"properties":{"s":4.6,"a":4.8,"t":0.0,"f":0.0,"fi":0,"c":0.0,"nc":0,"sm":0,"sb":-0.0,"k":"19031_0154"}},{"type":"Feature","geometry":{"type":"Point","coordinates":[-100.17289,25.62989]},"properties":{"s":4.3,"a":4.3,"t":0.0,"f":0.5,"fi":2,"c":0.3,"nc":1,"sm":0,"sb":-0.0,"k":"19031_0154"}},{"type":"Feature","geometry":{"type":"Point","coordinates":[-100.1699,25.62627]},"properties":{"s":3.8,"a":3.9,"t":0.0,"f":0.0,"fi":0,"c":0.0,"nc":0,"sm":0,"sb":-0.0,"k":"19031_0154"}},{"type":"Feature","geometry":{"type":"Point","coordinates":[-100.1709,25.62718]},"properties":{"s":3.5,"a":3.1,"t":0.0,"f":0.5,"fi":2,"c":0.0,"nc":0,"sm":0,"sb":-0.0,"k":"19031_0154"}},{"type":"Feature","geometry":{"type":"Point","coordinates":[-100.17389,25.62989]},"properties":{"s":3.1,"a":4.9,"t":0.0,"f":0.0,"fi":0,"c":1.6,"nc":1,"sm":0,"sb":-0.0,"k":"19031_0154"}},{"type":"Feature","geometry":{"type":"Point","coordinates":[-100.17189,25.62989]},"properties":{"s":2.8,"a":2.9,"t":0.0,"f":0.0,"fi":0,"c":0.0,"nc":0,"sm":0,"sb":-0.0,"k":"19031_0154"}},{"type":"Feature","geometry":{"type":"Point","coordinates":[-100.17189,25.63079]},"properties":{"s":2.8,"a":2.9,"t":0.0,"f":0.0,"fi":0,"c":0.0,"nc":0,"sm":0,"sb":-0.0,"k":"19031_0154"}},{"type":"Feature","geometry":{"type":"Point","coordinates":[-100.1709,25.62537]},"properties":{"s":2.8,"a":2.9,"t":0.0,"f":0.0,"fi":0,"c":0.0,"nc":0,"sm":0,"sb":-0.0,"k":"19031_0154"}},{"type":"Feature","geometry":{"type":"Point","coordinates":[-100.17189,25.62808]},"properties":{"s":2.7,"a":2.3,"t":0.0,"f":0.5,"fi":2,"c":0.0,"nc":0,"sm":0,"sb":-0.0,"k":"19031_0154"}},{"type":"Feature","geometry":{"type":"Point","coordinates":[-100.1709,25.62808]},"properties":{"s":2.7,"a":2.3,"t":0.0,"f":0.5,"fi":2,"c":0.0,"nc":0,"sm":0,"sb":-0.0,"k":"19031_0154"}},{"type":"Feature","geometry":{"type":"Point","coordinates":[-100.17189,25.61994]},"properties":{"s":2.4,"a":3.3,"t":0.0,"f":0.5,"fi":2,"c":1.3,"nc":1,"sm":0,"sb":-0.0,"k":"19031_0154"}},{"type":"Feature","geometry":{"type":"Point","coordinates":[-100.1709,25.62627]},"properties":{"s":2.4,"a":2.5,"t":0.0,"f":0.0,"fi":0,"c":0.0,"nc":0,"sm":0,"sb":-0.0,"k":"19031_0154"}},{"type":"Feature","geometry":{"type":"Point","coordinates":[-100.17189,25.62898]},"properties":{"s":2.3,"a":1.9,"t":0.0,"f":0.5,"fi":2,"c":0.0,"nc":0,"sm":0,"sb":-0.0,"k":"19031_0154"}},{"type":"Feature","geometry":{"type":"Point","coordinates":[-100.17389,25.63079]},"properties":{"s":2.2,"a":2.8,"t":0.0,"f":0.5,"fi":2,"c":1.0,"nc":1,"sm":0,"sb":-0.0,"k":"19031_0154"}},{"type":"Feature","geometry":{"type":"Point","coordinates":[-100.17289,25.62898]},"properties":{"s":2.1,"a":2.5,"t":0.0,"f":0.0,"fi":0,"c":0.3,"nc":1,"sm":0,"sb":-0.0,"k":"19031_0154"}},{"type":"Feature","geometry":{"type":"Point","coordinates":[-100.17189,25.61903]},"properties":{"s":1.8,"a":2.0,"t":0.0,"f":0.0,"fi":0,"c":0.2,"nc":1,"sm":0,"sb":-0.0,"k":"19031_0154"}},{"type":"Feature","geometry":{"type":"Point","coordinates":[-100.17289,25.61813]},"properties":{"s":1.7,"a":1.3,"t":0.0,"f":0.5,"fi":2,"c":0.0,"nc":0,"sm":0,"sb":-0.0,"k":"19031_0154"}},{"type":"Feature","geometry":{"type":"Point","coordinates":[-100.1709,25.61813]},"properties":{"s":1.7,"a":1.2,"t":0.0,"f":0.5,"fi":2,"c":0.0,"nc":0,"sm":0,"sb":-0.0,"k":"19031_0154"}},{"type":"Feature","geometry":{"type":"Point","coordinates":[-100.1699,25.62808]},"properties":{"s":1.6,"a":1.2,"t":0.0,"f":0.5,"fi":2,"c":0.0,"nc":0,"sm":0,"sb":-0.0,"k":"19031_0154"}},{"type":"Feature","geometry":{"type":"Point","coordinates":[-100.1709,25.61903]},"properties":{"s":1.5,"a":1.6,"t":0.0,"f":0.5,"fi":2,"c":0.6,"nc":1,"sm":0,"sb":-0.0,"k":"19031_0154"}},{"type":"Feature","geometry":{"type":"Point","coordinates":[-100.1689,25.62718]},"properties":{"s":1.5,"a":1.6,"t":0.0,"f":0.0,"fi":0,"c":0.0,"nc":0,"sm":0,"sb":-0.0,"k":"19031_0154"}},{"type":"Feature","geometry":{"type":"Point","coordinates":[-100.17289,25.62808]},"properties":{"s":1.4,"a":1.5,"t":0.0,"f":0.0,"fi":0,"c":0.0,"nc":0,"sm":0,"sb":-0.0,"k":"19031_0154"}},{"type":"Feature","geometry":{"type":"Point","coordinates":[-100.1689,25.62808]},"properties":{"s":1.4,"a":1.2,"t":0.0,"f":0.5,"fi":2,"c":0.2,"nc":1,"sm":0,"sb":-0.0,"k":"19031_0154"}},{"type":"Feature","geometry":{"type":"Point","coordinates":[-100.17389,25.62718]},"properties":{"s":1.3,"a":0.8,"t":0.0,"f":0.5,"fi":2,"c":0.0,"nc":0,"sm":0,"sb":-0.0,"k":"19031_0154"}},{"type":"Feature","geometry":{"type":"Point","coordinates":[-100.17389,25.62898]},"properties":{"s":1.3,"a":3.0,"t":0.0,"f":0.0,"fi":0,"c":1.6,"nc":1,"sm":0,"sb":-0.0,"k":"19031_0154"}},{"type":"Feature","geometry":{"type":"Point","coordinates":[-100.1699,25.62718]},"properties":{"s":1.2,"a":1.2,"t":0.0,"f":0.0,"fi":0,"c":0.0,"nc":0,"sm":0,"sb":-0.0,"k":"19031_0154"}},{"type":"Feature","geometry":{"type":"Point","coordinates":[-100.17489,25.63079]},"properties":{"s":0.9,"a":2.8,"t":0.0,"f":0.0,"fi":0,"c":1.8,"nc":1,"sm":0,"sb":-0.0,"k":"19031_0154"}},{"type":"Feature","geometry":{"type":"Point","coordinates":[-100.1709,25.61722]},"properties":{"s":0.9,"a":0.4,"t":0.0,"f":0.5,"fi":2,"c":0.0,"nc":0,"sm":0,"sb":-0.0,"k":"19031_0154"}},{"type":"Feature","geometry":{"type":"Point","coordinates":[-100.17588,25.63351]},"properties":{"s":0.8,"a":0.8,"t":0.0,"f":0.0,"fi":0,"c":0.0,"nc":0,"sm":0,"sb":-0.0,"k":"19031_0154"}},{"type":"Feature","geometry":{"type":"Point","coordinates":[-100.17389,25.6317]},"properties":{"s":0.8,"a":0.8,"t":0.0,"f":0.0,"fi":0,"c":0.0,"nc":1,"sm":0,"sb":-0.0,"k":"19031_0154"}},{"type":"Feature","geometry":{"type":"Point","coordinates":[-100.17289,25.6317]},"properties":{"s":0.8,"a":0.8,"t":0.0,"f":0.0,"fi":0,"c":0.0,"nc":0,"sm":0,"sb":-0.0,"k":"19031_0154"}},{"type":"Feature","geometry":{"type":"Point","coordinates":[-100.16193,25.62718]},"properties":{"s":0.8,"a":0.8,"t":0.0,"f":0.0,"fi":0,"c":0.0,"nc":0,"sm":0,"sb":-0.0,"k":"19031_0154"}},{"type":"Feature","geometry":{"type":"Point","coordinates":[-100.16193,25.62808]},"properties":{"s":0.8,"a":0.8,"t":0.0,"f":0.0,"fi":0,"c":0.0,"nc":0,"sm":0,"sb":-0.0,"k":"19031_0154"}},{"type":"Feature","geometry":{"type":"Point","coordinates":[-100.16093,25.62808]},"properties":{"s":0.8,"a":0.8,"t":0.0,"f":0.0,"fi":0,"c":0.0,"nc":0,"sm":0,"sb":-0.0,"k":"19031_0154"}},{"type":"Feature","geometry":{"type":"Point","coordinates":[-100.17489,25.62989]},"properties":{"s":0.5,"a":2.9,"t":0.0,"f":0.5,"fi":2,"c":2.9,"nc":1,"sm":0,"sb":-0.0,"k":"19031_0154"}},{"type":"Feature","geometry":{"type":"Point","coordinates":[-100.16392,25.6317]},"properties":{"s":0.5,"a":0.0,"t":0.0,"f":0.5,"fi":2,"c":0.0,"nc":0,"sm":0,"sb":-0.0,"k":"19031_0154"}},{"type":"Feature","geometry":{"type":"Point","coordinates":[-100.16292,25.6317]},"properties":{"s":0.5,"a":0.0,"t":0.0,"f":0.5,"fi":2,"c":0.0,"nc":0,"sm":0,"sb":-0.0,"k":"19031_0154"}},{"type":"Feature","geometry":{"type":"Point","coordinates":[-100.16292,25.6326]},"properties":{"s":0.5,"a":0.0,"t":0.0,"f":0.5,"fi":2,"c":0.0,"nc":0,"sm":0,"sb":-0.0,"k":"19031_0154"}},{"type":"Feature","geometry":{"type":"Point","coordinates":[-100.15993,25.63441]},"properties":{"s":0.5,"a":0.0,"t":0.0,"f":0.5,"fi":2,"c":0.0,"nc":0,"sm":0,"sb":-0.0,"k":"19031_0154"}},{"type":"Feature","geometry":{"type":"Point","coordinates":[-100.17489,25.63351]},"properties":{"s":0.4,"a":0.4,"t":0.0,"f":0.0,"fi":0,"c":0.0,"nc":0,"sm":0,"sb":-0.0,"k":"19031_0154"}},{"type":"Feature","geometry":{"type":"Point","coordinates":[-100.17189,25.61722]},"properties":{"s":0.4,"a":0.4,"t":0.0,"f":0.0,"fi":0,"c":0.0,"nc":0,"sm":0,"sb":-0.0,"k":"19031_0154"}},{"type":"Feature","geometry":{"type":"Point","coordinates":[-100.17189,25.62084]},"properties":{"s":0.4,"a":2.0,"t":0.0,"f":0.5,"fi":2,"c":2.1,"nc":1,"sm":0,"sb":-0.0,"k":"19031_0154"}},{"type":"Feature","geometry":{"type":"Point","coordinates":[-100.17189,25.6317]},"properties":{"s":0.4,"a":0.4,"t":0.0,"f":0.0,"fi":0,"c":0.0,"nc":0,"sm":0,"sb":-0.0,"k":"19031_0154"}},{"type":"Feature","geometry":{"type":"Point","coordinates":[-100.1709,25.62898]},"properties":{"s":0.4,"a":0.4,"t":0.0,"f":0.0,"fi":0,"c":0.0,"nc":0,"sm":0,"sb":-0.0,"k":"19031_0154"}},{"type":"Feature","geometry":{"type":"Point","coordinates":[-100.1689,25.63713]},"properties":{"s":0.4,"a":0.4,"t":0.0,"f":0.0,"fi":0,"c":0.0,"nc":0,"sm":0,"sb":-0.0,"k":"19031_0154"}},{"type":"Feature","geometry":{"type":"Point","coordinates":[-100.16591,25.63441]},"properties":{"s":0.4,"a":0.4,"t":0.0,"f":0.0,"fi":0,"c":0.0,"nc":0,"sm":0,"sb":-0.0,"k":"19031_0154"}},{"type":"Feature","geometry":{"type":"Point","coordinates":[-100.16392,25.62718]},"properties":{"s":0.4,"a":0.4,"t":0.0,"f":0.0,"fi":0,"c":0.0,"nc":0,"sm":0,"sb":-0.0,"k":"19031_0154"}},{"type":"Feature","geometry":{"type":"Point","coordinates":[-100.16292,25.62627]},"properties":{"s":0.4,"a":0.4,"t":0.0,"f":0.0,"fi":0,"c":0.0,"nc":0,"sm":0,"sb":-0.0,"k":"19031_0154"}},{"type":"Feature","geometry":{"type":"Point","coordinates":[-100.16193,25.6326]},"properties":{"s":0.4,"a":0.0,"t":0.0,"f":0.5,"fi":2,"c":0.1,"nc":1,"sm":0,"sb":-0.0,"k":"19031_0154"}},{"type":"Feature","geometry":{"type":"Point","coordinates":[-100.16093,25.63351]},"properties":{"s":0.4,"a":0.0,"t":0.0,"f":0.5,"fi":2,"c":0.1,"nc":1,"sm":0,"sb":-0.0,"k":"19031_0154"}},{"type":"Feature","geometry":{"type":"Point","coordinates":[-100.1689,25.62898]},"properties":{"s":0.2,"a":0.4,"t":0.0,"f":0.5,"fi":2,"c":0.7,"nc":1,"sm":0,"sb":-0.0,"k":"19031_0154"}},{"type":"Feature","geometry":{"type":"Point","coordinates":[-100.16791,25.62989]},"properties":{"s":0.2,"a":2.2,"t":0.0,"f":0.0,"fi":0,"c":2.0,"nc":1,"sm":0,"sb":-0.0,"k":"19031_0154"}},{"type":"Feature","geometry":{"type":"Point","coordinates":[-100.16492,25.63351]},"properties":{"s":0.2,"a":0.4,"t":0.0,"f":0.0,"fi":0,"c":0.2,"nc":1,"sm":0,"sb":-0.0,"k":"19031_0154"}},{"type":"Feature","geometry":{"type":"Point","coordinates":[-100.16791,25.62084]},"properties":{"s":4.8,"a":5.3,"t":0.0,"f":0.0,"fi":0,"c":0.4,"nc":1,"sm":0,"sb":-0.0,"k":"19031_0108"}},{"type":"Feature","geometry":{"type":"Point","coordinates":[-100.16791,25.61994]},"properties":{"s":4.4,"a":4.5,"t":0.0,"f":0.0,"fi":0,"c":0.0,"nc":0,"sm":0,"sb":-0.0,"k":"19031_0108"}},{"type":"Feature","geometry":{"type":"Point","coordinates":[-100.16691,25.61903]},"properties":{"s":4.4,"a":4.5,"t":0.0,"f":0.0,"fi":0,"c":0.0,"nc":0,"sm":0,"sb":-0.0,"k":"19031_0108"}},{"type":"Feature","geometry":{"type":"Point","coordinates":[-100.16691,25.61994]},"properties":{"s":4.4,"a":4.5,"t":0.0,"f":0.0,"fi":0,"c":0.0,"nc":0,"sm":0,"sb":-0.0,"k":"19031_0108"}},{"type":"Feature","geometry":{"type":"Point","coordinates":[-100.16591,25.61903]},"properties":{"s":4.4,"a":4.5,"t":0.0,"f":0.0,"fi":0,"c":0.0,"nc":0,"sm":0,"sb":-0.0,"k":"19031_0108"}},{"type":"Feature","geometry":{"type":"Point","coordinates":[-100.16791,25.61903]},"properties":{"s":4.0,"a":4.1,"t":0.0,"f":0.0,"fi":0,"c":0.0,"nc":0,"sm":0,"sb":-0.0,"k":"19031_0108"}},{"type":"Feature","geometry":{"type":"Point","coordinates":[-100.16292,25.61994]},"properties":{"s":3.1,"a":3.2,"t":0.0,"f":0.0,"fi":0,"c":0.0,"nc":0,"sm":0,"sb":-0.0,"k":"19031_0108"}},{"type":"Feature","geometry":{"type":"Point","coordinates":[-100.16392,25.61903]},"properties":{"s":2.7,"a":2.8,"t":0.0,"f":0.0,"fi":0,"c":0.0,"nc":0,"sm":0,"sb":-0.0,"k":"19031_0108"}},{"type":"Feature","geometry":{"type":"Point","coordinates":[-100.16691,25.62084]},"properties":{"s":2.4,"a":2.4,"t":0.0,"f":0.0,"fi":0,"c":0.0,"nc":0,"sm":0,"sb":-0.0,"k":"19031_0108"}},{"type":"Feature","geometry":{"type":"Point","coordinates":[-100.16492,25.61903]},"properties":{"s":2.4,"a":2.4,"t":0.0,"f":0.0,"fi":0,"c":0.0,"nc":0,"sm":0,"sb":-0.0,"k":"19031_0108"}},{"type":"Feature","geometry":{"type":"Point","coordinates":[-100.16492,25.61994]},"properties":{"s":2.4,"a":2.4,"t":0.0,"f":0.0,"fi":0,"c":0.0,"nc":0,"sm":0,"sb":-0.0,"k":"19031_0108"}},{"type":"Feature","geometry":{"type":"Point","coordinates":[-100.16392,25.61994]},"properties":{"s":2.4,"a":2.4,"t":0.0,"f":0.0,"fi":0,"c":0.0,"nc":0,"sm":0,"sb":-0.0,"k":"19031_0108"}},{"type":"Feature","geometry":{"type":"Point","coordinates":[-100.16292,25.61903]},"properties":{"s":2.4,"a":2.4,"t":0.0,"f":0.0,"fi":0,"c":0.0,"nc":0,"sm":0,"sb":-0.0,"k":"19031_0108"}},{"type":"Feature","geometry":{"type":"Point","coordinates":[-100.16591,25.61994]},"properties":{"s":2.0,"a":2.0,"t":0.0,"f":0.0,"fi":0,"c":0.0,"nc":0,"sm":0,"sb":-0.0,"k":"19031_0108"}},{"type":"Feature","geometry":{"type":"Point","coordinates":[-100.1699,25.61903]},"properties":{"s":1.9,"a":2.5,"t":0.0,"f":0.0,"fi":0,"c":0.6,"nc":1,"sm":0,"sb":-0.0,"k":"19031_0108"}},{"type":"Feature","geometry":{"type":"Point","coordinates":[-100.1709,25.61994]},"properties":{"s":1.8,"a":3.3,"t":0.0,"f":0.5,"fi":2,"c":2.0,"nc":1,"sm":0,"sb":-0.0,"k":"19031_0108"}},{"type":"Feature","geometry":{"type":"Point","coordinates":[-100.16292,25.62084]},"properties":{"s":1.6,"a":1.6,"t":0.0,"f":0.0,"fi":0,"c":0.0,"nc":0,"sm":0,"sb":-0.0,"k":"19031_0108"}},{"type":"Feature","geometry":{"type":"Point","coordinates":[-100.1699,25.61994]},"properties":{"s":1.4,"a":3.3,"t":0.0,"f":0.0,"fi":0,"c":1.8,"nc":1,"sm":0,"sb":-0.0,"k":"19031_0108"}},{"type":"Feature","geometry":{"type":"Point","coordinates":[-100.1689,25.61813]},"properties":{"s":1.2,"a":1.2,"t":0.0,"f":0.0,"fi":0,"c":0.0,"nc":0,"sm":0,"sb":-0.0,"k":"19031_0108"}},{"type":"Feature","geometry":{"type":"Point","coordinates":[-100.1689,25.61903]},"properties":{"s":1.2,"a":1.2,"t":0.0,"f":0.0,"fi":0,"c":0.0,"nc":1,"sm":0,"sb":-0.0,"k":"19031_0108"}},{"type":"Feature","geometry":{"type":"Point","coordinates":[-100.16292,25.62175]},"properties":{"s":1.2,"a":1.2,"t":0.0,"f":0.0,"fi":0,"c":0.0,"nc":0,"sm":0,"sb":-0.0,"k":"19031_0108"}},{"type":"Feature","geometry":{"type":"Point","coordinates":[-100.1699,25.61813]},"properties":{"s":0.8,"a":0.8,"t":0.0,"f":0.0,"fi":0,"c":0.0,"nc":0,"sm":0,"sb":-0.0,"k":"19031_0108"}},{"type":"Feature","geometry":{"type":"Point","coordinates":[-100.16591,25.62084]},"properties":{"s":0.4,"a":0.4,"t":0.0,"f":0.0,"fi":0,"c":0.0,"nc":0,"sm":0,"sb":-0.0,"k":"19031_0108"}},{"type":"Feature","geometry":{"type":"Point","coordinates":[-100.16392,25.62084]},"properties":{"s":0.4,"a":0.4,"t":0.0,"f":0.0,"fi":0,"c":0.0,"nc":0,"sm":0,"sb":-0.0,"k":"19031_0108"}},{"type":"Feature","geometry":{"type":"Point","coordinates":[-100.1689,25.61994]},"properties":{"s":0.2,"a":1.2,"t":0.0,"f":0.0,"fi":0,"c":1.0,"nc":1,"sm":0,"sb":-0.0,"k":"19031_0108"}},{"type":"Feature","geometry":{"type":"Point","coordinates":[-100.16691,25.62718]},"properties":{"s":5.2,"a":6.5,"t":0.0,"f":0.0,"fi":0,"c":0.6,"nc":1,"sm":0,"sb":-0.0,"k":"19031_0009"}},{"type":"Feature","geometry":{"type":"Point","coordinates":[-100.16691,25.62627]},"properties":{"s":5.0,"a":5.7,"t":0.0,"f":0.0,"fi":0,"c":0.0,"nc":0,"sm":0,"sb":-0.0,"k":"19031_0009"}},{"type":"Feature","geometry":{"type":"Point","coordinates":[-100.16791,25.62718]},"properties":{"s":4.9,"a":5.7,"t":0.0,"f":0.0,"fi":0,"c":0.2,"nc":1,"sm":0,"sb":-0.0,"k":"19031_0009"}},{"type":"Feature","geometry":{"type":"Point","coordinates":[-100.16691,25.62537]},"properties":{"s":4.9,"a":5.5,"t":0.0,"f":0.0,"fi":0,"c":0.0,"nc":0,"sm":0,"sb":-0.0,"k":"19031_0009"}},{"type":"Feature","geometry":{"type":"Point","coordinates":[-100.16691,25.62446]},"properties":{"s":4.0,"a":4.5,"t":0.0,"f":0.0,"fi":0,"c":0.0,"nc":0,"sm":0,"sb":-0.0,"k":"19031_0009"}},{"type":"Feature","geometry":{"type":"Point","coordinates":[-100.16591,25.62627]},"properties":{"s":3.7,"a":4.2,"t":0.0,"f":0.0,"fi":0,"c":0.0,"nc":0,"sm":0,"sb":-0.0,"k":"19031_0009"}},{"type":"Feature","geometry":{"type":"Point","coordinates":[-100.16791,25.62808]},"properties":{"s":3.4,"a":4.1,"t":1.0,"f":0.0,"fi":0,"c":1.3,"nc":1,"sm":0,"sb":-0.0,"k":"19031_0009"}},{"type":"Feature","geometry":{"type":"Point","coordinates":[-100.16591,25.62537]},"properties":{"s":3.4,"a":3.8,"t":0.0,"f":0.0,"fi":0,"c":0.0,"nc":0,"sm":0,"sb":-0.0,"k":"19031_0009"}},{"type":"Feature","geometry":{"type":"Point","coordinates":[-100.16691,25.62808]},"properties":{"s":2.3,"a":4.5,"t":0.0,"f":0.0,"fi":0,"c":1.9,"nc":1,"sm":0,"sb":-0.0,"k":"19031_0009"}},{"type":"Feature","geometry":{"type":"Point","coordinates":[-100.16791,25.62898]},"properties":{"s":2.2,"a":3.0,"t":1.0,"f":0.5,"fi":2,"c":2.0,"nc":1,"sm":0,"sb":-0.0,"k":"19031_0009"}},{"type":"Feature","geometry":{"type":"Point","coordinates":[-100.16492,25.62537]},"properties":{"s":2.0,"a":2.2,"t":0.0,"f":0.0,"fi":0,"c":0.0,"nc":0,"sm":0,"sb":-0.0,"k":"19031_0009"}},{"type":"Feature","geometry":{"type":"Point","coordinates":[-100.16392,25.62537]},"properties":{"s":1.1,"a":1.2,"t":0.0,"f":0.0,"fi":0,"c":0.0,"nc":0,"sm":0,"sb":-0.0,"k":"19031_0009"}},{"type":"Feature","geometry":{"type":"Point","coordinates":[-100.12604,25.63803]},"properties":{"s":7.8,"a":7.8,"t":0.0,"f":0.0,"fi":0,"c":0.0,"nc":0,"sm":0,"sb":-0.1,"k":"19031_0057"}},{"type":"Feature","geometry":{"type":"Point","coordinates":[-100.12604,25.63713]},"properties":{"s":7.7,"a":7.2,"t":0.0,"f":0.5,"fi":2,"c":0.0,"nc":0,"sm":0,"sb":-0.1,"k":"19031_0057"}},{"type":"Feature","geometry":{"type":"Point","coordinates":[-100.12504,25.63803]},"properties":{"s":7.6,"a":7.1,"t":0.0,"f":0.5,"fi":2,"c":0.0,"nc":0,"sm":0,"sb":-0.1,"k":"19031_0057"}},{"type":"Feature","geometry":{"type":"Point","coordinates":[-100.12604,25.63622]},"properties":{"s":7.3,"a":6.8,"t":0.0,"f":0.5,"fi":2,"c":0.0,"nc":0,"sm":0,"sb":-0.1,"k":"19031_0057"}},{"type":"Feature","geometry":{"type":"Point","coordinates":[-100.12504,25.63622]},"properties":{"s":7.2,"a":7.2,"t":0.0,"f":0.0,"fi":0,"c":0.0,"nc":0,"sm":0,"sb":-0.1,"k":"19031_0057"}},{"type":"Feature","geometry":{"type":"Point","coordinates":[-100.12703,25.63713]},"properties":{"s":6.3,"a":6.3,"t":0.0,"f":0.0,"fi":0,"c":0.0,"nc":0,"sm":0,"sb":-0.0,"k":"19031_0057"}},{"type":"Feature","geometry":{"type":"Point","coordinates":[-100.12504,25.63713]},"properties":{"s":6.3,"a":5.8,"t":0.0,"f":0.5,"fi":2,"c":0.0,"nc":0,"sm":0,"sb":-0.0,"k":"19031_0057"}},{"type":"Feature","geometry":{"type":"Point","coordinates":[-100.12703,25.63532]},"properties":{"s":5.6,"a":5.1,"t":0.0,"f":0.5,"fi":2,"c":0.0,"nc":0,"sm":0,"sb":-0.0,"k":"19031_0057"}},{"type":"Feature","geometry":{"type":"Point","coordinates":[-100.12703,25.63622]},"properties":{"s":5.0,"a":4.5,"t":0.0,"f":0.5,"fi":2,"c":0.0,"nc":0,"sm":0,"sb":-0.0,"k":"19031_0057"}},{"type":"Feature","geometry":{"type":"Point","coordinates":[-100.12703,25.63441]},"properties":{"s":4.9,"a":4.8,"t":0.0,"f":0.0,"fi":0,"c":0.0,"nc":0,"sm":0,"sb":-0.0,"k":"19031_0057"}},{"type":"Feature","geometry":{"type":"Point","coordinates":[-100.12803,25.63532]},"properties":{"s":4.6,"a":4.1,"t":0.0,"f":0.5,"fi":2,"c":0.0,"nc":0,"sm":0,"sb":-0.0,"k":"19031_0057"}},{"type":"Feature","geometry":{"type":"Point","coordinates":[-100.12604,25.63532]},"properties":{"s":4.3,"a":4.2,"t":0.0,"f":0.0,"fi":0,"c":0.0,"nc":0,"sm":0,"sb":-0.0,"k":"19031_0057"}},{"type":"Feature","geometry":{"type":"Point","coordinates":[-100.12903,25.63441]},"properties":{"s":3.5,"a":2.0,"t":1.0,"f":0.5,"fi":2,"c":0.0,"nc":0,"sm":0,"sb":-0.0,"k":"19031_0057"}},{"type":"Feature","geometry":{"type":"Point","coordinates":[-100.12604,25.63441]},"properties":{"s":3.3,"a":3.2,"t":0.0,"f":0.0,"fi":0,"c":0.0,"nc":0,"sm":0,"sb":-0.0,"k":"19031_0057"}},{"type":"Feature","geometry":{"type":"Point","coordinates":[-100.12404,25.63713]},"properties":{"s":3.3,"a":3.2,"t":0.0,"f":0.0,"fi":0,"c":0.0,"nc":0,"sm":0,"sb":-0.0,"k":"19031_0057"}},{"type":"Feature","geometry":{"type":"Point","coordinates":[-100.12803,25.63441]},"properties":{"s":2.5,"a":2.0,"t":0.0,"f":0.5,"fi":2,"c":0.0,"nc":0,"sm":0,"sb":-0.0,"k":"19031_0057"}},{"type":"Feature","geometry":{"type":"Point","coordinates":[-100.12803,25.63622]},"properties":{"s":2.4,"a":2.4,"t":0.0,"f":0.0,"fi":0,"c":0.0,"nc":0,"sm":0,"sb":-0.0,"k":"19031_0057"}},{"type":"Feature","geometry":{"type":"Point","coordinates":[-100.12703,25.63351]},"properties":{"s":2.4,"a":2.4,"t":0.0,"f":0.0,"fi":0,"c":0.0,"nc":0,"sm":0,"sb":-0.0,"k":"19031_0057"}},{"type":"Feature","geometry":{"type":"Point","coordinates":[-100.12504,25.63532]},"properties":{"s":2.4,"a":2.4,"t":0.0,"f":0.0,"fi":0,"c":0.0,"nc":0,"sm":0,"sb":-0.0,"k":"19031_0057"}},{"type":"Feature","geometry":{"type":"Point","coordinates":[-100.12404,25.63532]},"properties":{"s":2.4,"a":2.4,"t":0.0,"f":0.0,"fi":0,"c":0.0,"nc":0,"sm":0,"sb":-0.0,"k":"19031_0057"}},{"type":"Feature","geometry":{"type":"Point","coordinates":[-100.12404,25.63622]},"properties":{"s":2.4,"a":2.4,"t":0.0,"f":0.0,"fi":0,"c":0.0,"nc":0,"sm":0,"sb":-0.0,"k":"19031_0057"}},{"type":"Feature","geometry":{"type":"Point","coordinates":[-100.12903,25.63622]},"properties":{"s":2.0,"a":2.0,"t":0.0,"f":0.0,"fi":0,"c":0.0,"nc":0,"sm":0,"sb":-0.0,"k":"19031_0057"}},{"type":"Feature","geometry":{"type":"Point","coordinates":[-100.12803,25.63713]},"properties":{"s":2.0,"a":2.0,"t":0.0,"f":0.0,"fi":0,"c":0.0,"nc":0,"sm":0,"sb":-0.0,"k":"19031_0057"}},{"type":"Feature","geometry":{"type":"Point","coordinates":[-100.12703,25.63803]},"properties":{"s":2.0,"a":2.0,"t":0.0,"f":0.0,"fi":0,"c":0.0,"nc":0,"sm":0,"sb":-0.0,"k":"19031_0057"}},{"type":"Feature","geometry":{"type":"Point","coordinates":[-100.13002,25.63622]},"properties":{"s":1.6,"a":1.6,"t":0.0,"f":0.0,"fi":0,"c":0.0,"nc":0,"sm":0,"sb":-0.0,"k":"19031_0057"}},{"type":"Feature","geometry":{"type":"Point","coordinates":[-100.12903,25.63532]},"properties":{"s":1.6,"a":1.6,"t":0.0,"f":0.0,"fi":0,"c":0.0,"nc":0,"sm":0,"sb":-0.0,"k":"19031_0057"}},{"type":"Feature","geometry":{"type":"Point","coordinates":[-100.12903,25.63713]},"properties":{"s":1.6,"a":1.6,"t":0.0,"f":0.0,"fi":0,"c":0.0,"nc":0,"sm":0,"sb":-0.0,"k":"19031_0057"}},{"type":"Feature","geometry":{"type":"Point","coordinates":[-100.12504,25.63441]},"properties":{"s":1.6,"a":1.6,"t":0.0,"f":0.0,"fi":0,"c":0.0,"nc":0,"sm":0,"sb":-0.0,"k":"19031_0057"}},{"type":"Feature","geometry":{"type":"Point","coordinates":[-100.12304,25.63532]},"properties":{"s":1.6,"a":1.6,"t":0.0,"f":0.0,"fi":0,"c":0.0,"nc":0,"sm":0,"sb":-0.0,"k":"19031_0057"}},{"type":"Feature","geometry":{"type":"Point","coordinates":[-100.13002,25.63441]},"properties":{"s":1.4,"a":0.4,"t":1.0,"f":0.0,"fi":0,"c":0.0,"nc":0,"sm":0,"sb":-0.0,"k":"19031_0057"}},{"type":"Feature","geometry":{"type":"Point","coordinates":[-100.13002,25.63532]},"properties":{"s":1.2,"a":1.2,"t":0.0,"f":0.0,"fi":0,"c":0.0,"nc":0,"sm":0,"sb":-0.0,"k":"19031_0057"}},{"type":"Feature","geometry":{"type":"Point","coordinates":[-100.13002,25.63713]},"properties":{"s":1.2,"a":1.2,"t":0.0,"f":0.0,"fi":0,"c":0.0,"nc":0,"sm":0,"sb":-0.0,"k":"19031_0057"}},{"type":"Feature","geometry":{"type":"Point","coordinates":[-100.12903,25.63803]},"properties":{"s":1.2,"a":1.2,"t":0.0,"f":0.0,"fi":0,"c":0.0,"nc":0,"sm":0,"sb":-0.0,"k":"19031_0057"}},{"type":"Feature","geometry":{"type":"Point","coordinates":[-100.12803,25.63351]},"properties":{"s":1.2,"a":1.2,"t":0.0,"f":0.0,"fi":0,"c":0.0,"nc":0,"sm":0,"sb":-0.0,"k":"19031_0057"}},{"type":"Feature","geometry":{"type":"Point","coordinates":[-100.12803,25.63803]},"properties":{"s":1.2,"a":1.2,"t":0.0,"f":0.0,"fi":0,"c":0.0,"nc":0,"sm":0,"sb":-0.0,"k":"19031_0057"}},{"type":"Feature","geometry":{"type":"Point","coordinates":[-100.12604,25.63351]},"properties":{"s":1.2,"a":1.2,"t":0.0,"f":0.0,"fi":0,"c":0.0,"nc":0,"sm":0,"sb":-0.0,"k":"19031_0057"}},{"type":"Feature","geometry":{"type":"Point","coordinates":[-100.12404,25.63441]},"properties":{"s":1.2,"a":1.2,"t":0.0,"f":0.0,"fi":0,"c":0.0,"nc":0,"sm":0,"sb":-0.0,"k":"19031_0057"}},{"type":"Feature","geometry":{"type":"Point","coordinates":[-100.12304,25.63441]},"properties":{"s":1.2,"a":1.2,"t":0.0,"f":0.0,"fi":0,"c":0.0,"nc":0,"sm":0,"sb":-0.0,"k":"19031_0057"}},{"type":"Feature","geometry":{"type":"Point","coordinates":[-100.13102,25.63713]},"properties":{"s":0.8,"a":0.8,"t":0.0,"f":0.0,"fi":0,"c":0.0,"nc":0,"sm":0,"sb":-0.0,"k":"19031_0057"}},{"type":"Feature","geometry":{"type":"Point","coordinates":[-100.12504,25.63351]},"properties":{"s":0.8,"a":0.8,"t":0.0,"f":0.0,"fi":0,"c":0.0,"nc":0,"sm":0,"sb":-0.0,"k":"19031_0057"}},{"type":"Feature","geometry":{"type":"Point","coordinates":[-100.13202,25.63532]},"properties":{"s":0.4,"a":0.4,"t":0.0,"f":0.0,"fi":0,"c":0.0,"nc":0,"sm":0,"sb":-0.0,"k":"19031_0057"}},{"type":"Feature","geometry":{"type":"Point","coordinates":[-100.13202,25.63622]},"properties":{"s":0.4,"a":0.4,"t":0.0,"f":0.0,"fi":0,"c":0.0,"nc":0,"sm":0,"sb":-0.0,"k":"19031_0057"}},{"type":"Feature","geometry":{"type":"Point","coordinates":[-100.13102,25.63441]},"properties":{"s":0.4,"a":0.4,"t":0.0,"f":0.0,"fi":0,"c":0.0,"nc":0,"sm":0,"sb":-0.0,"k":"19031_0057"}},{"type":"Feature","geometry":{"type":"Point","coordinates":[-100.13102,25.63532]},"properties":{"s":0.4,"a":0.4,"t":0.0,"f":0.0,"fi":0,"c":0.0,"nc":0,"sm":0,"sb":-0.0,"k":"19031_0057"}},{"type":"Feature","geometry":{"type":"Point","coordinates":[-100.13102,25.63622]},"properties":{"s":0.4,"a":0.4,"t":0.0,"f":0.0,"fi":0,"c":0.0,"nc":0,"sm":0,"sb":-0.0,"k":"19031_0057"}},{"type":"Feature","geometry":{"type":"Point","coordinates":[-100.15295,25.60275]},"properties":{"s":7.1,"a":5.2,"t":2.0,"f":0.0,"fi":0,"c":0.0,"nc":0,"sm":0,"sb":-0.0,"k":"19031_0010"}},{"type":"Feature","geometry":{"type":"Point","coordinates":[-100.15196,25.60365]},"properties":{"s":6.4,"a":5.6,"t":1.0,"f":0.0,"fi":0,"c":0.0,"nc":0,"sm":0,"sb":-0.0,"k":"19031_0010"}},{"type":"Feature","geometry":{"type":"Point","coordinates":[-100.15196,25.60546]},"properties":{"s":6.4,"a":5.6,"t":1.0,"f":0.0,"fi":0,"c":0.0,"nc":0,"sm":0,"sb":-0.0,"k":"19031_0010"}},{"type":"Feature","geometry":{"type":"Point","coordinates":[-100.15295,25.60365]},"properties":{"s":5.8,"a":4.9,"t":1.0,"f":0.0,"fi":0,"c":0.0,"nc":0,"sm":0,"sb":-0.0,"k":"19031_0010"}},{"type":"Feature","geometry":{"type":"Point","coordinates":[-100.15295,25.60185]},"properties":{"s":5.6,"a":3.7,"t":2.0,"f":0.0,"fi":0,"c":0.0,"nc":0,"sm":0,"sb":-0.0,"k":"19031_0010"}},{"type":"Feature","geometry":{"type":"Point","coordinates":[-100.15495,25.60275]},"properties":{"s":5.2,"a":4.3,"t":1.0,"f":0.0,"fi":0,"c":0.0,"nc":0,"sm":0,"sb":-0.0,"k":"19031_0010"}},{"type":"Feature","geometry":{"type":"Point","coordinates":[-100.15196,25.60185]},"properties":{"s":5.1,"a":5.2,"t":0.0,"f":0.0,"fi":0,"c":0.0,"nc":0,"sm":0,"sb":-0.0,"k":"19031_0010"}},{"type":"Feature","geometry":{"type":"Point","coordinates":[-100.15196,25.60456]},"properties":{"s":5.0,"a":5.2,"t":0.0,"f":0.0,"fi":0,"c":0.0,"nc":0,"sm":0,"sb":-0.0,"k":"19031_0010"}},{"type":"Feature","geometry":{"type":"Point","coordinates":[-100.15196,25.60275]},"properties":{"s":4.8,"a":3.9,"t":1.0,"f":0.0,"fi":0,"c":0.0,"nc":0,"sm":0,"sb":-0.0,"k":"19031_0010"}},{"type":"Feature","geometry":{"type":"Point","coordinates":[-100.15096,25.60637]},"properties":{"s":4.8,"a":3.9,"t":1.0,"f":0.0,"fi":0,"c":0.0,"nc":0,"sm":0,"sb":-0.0,"k":"19031_0010"}},{"type":"Feature","geometry":{"type":"Point","coordinates":[-100.15295,25.60456]},"properties":{"s":4.6,"a":4.8,"t":0.0,"f":0.0,"fi":0,"c":0.0,"nc":0,"sm":0,"sb":-0.0,"k":"19031_0010"}},{"type":"Feature","geometry":{"type":"Point","coordinates":[-100.15395,25.60275]},"properties":{"s":4.4,"a":4.6,"t":0.0,"f":0.0,"fi":0,"c":0.0,"nc":0,"sm":0,"sb":-0.0,"k":"19031_0010"}},{"type":"Feature","geometry":{"type":"Point","coordinates":[-100.15594,25.60275]},"properties":{"s":4.0,"a":3.1,"t":1.0,"f":0.0,"fi":0,"c":0.0,"nc":0,"sm":0,"sb":-0.0,"k":"19031_0010"}},{"type":"Feature","geometry":{"type":"Point","coordinates":[-100.15495,25.60365]},"properties":{"s":3.8,"a":3.9,"t":0.0,"f":0.0,"fi":0,"c":0.0,"nc":0,"sm":0,"sb":-0.0,"k":"19031_0010"}},{"type":"Feature","geometry":{"type":"Point","coordinates":[-100.15295,25.60546]},"properties":{"s":3.8,"a":3.9,"t":0.0,"f":0.0,"fi":0,"c":0.0,"nc":0,"sm":0,"sb":-0.0,"k":"19031_0010"}},{"type":"Feature","geometry":{"type":"Point","coordinates":[-100.15096,25.60365]},"properties":{"s":3.5,"a":3.5,"t":0.0,"f":0.0,"fi":0,"c":0.0,"nc":0,"sm":0,"sb":-0.0,"k":"19031_0010"}},{"type":"Feature","geometry":{"type":"Point","coordinates":[-100.15096,25.60546]},"properties":{"s":3.4,"a":3.5,"t":0.0,"f":0.0,"fi":0,"c":0.0,"nc":0,"sm":0,"sb":-0.0,"k":"19031_0010"}},{"type":"Feature","geometry":{"type":"Point","coordinates":[-100.15096,25.60456]},"properties":{"s":3.2,"a":3.2,"t":0.0,"f":0.0,"fi":0,"c":0.0,"nc":0,"sm":0,"sb":-0.0,"k":"19031_0010"}},{"type":"Feature","geometry":{"type":"Point","coordinates":[-100.15395,25.60185]},"properties":{"s":3.0,"a":2.1,"t":1.0,"f":0.0,"fi":0,"c":0.0,"nc":0,"sm":0,"sb":-0.0,"k":"19031_0010"}},{"type":"Feature","geometry":{"type":"Point","coordinates":[-100.15495,25.60185]},"properties":{"s":2.5,"a":1.6,"t":1.0,"f":0.0,"fi":0,"c":0.0,"nc":0,"sm":0,"sb":-0.0,"k":"19031_0010"}},{"type":"Feature","geometry":{"type":"Point","coordinates":[-100.15395,25.60365]},"properties":{"s":2.3,"a":2.4,"t":0.0,"f":0.0,"fi":0,"c":0.0,"nc":0,"sm":0,"sb":-0.0,"k":"19031_0010"}},{"type":"Feature","geometry":{"type":"Point","coordinates":[-100.15096,25.60185]},"properties":{"s":2.2,"a":2.3,"t":0.0,"f":0.0,"fi":0,"c":0.0,"nc":0,"sm":0,"sb":-0.0,"k":"19031_0010"}},{"type":"Feature","geometry":{"type":"Point","coordinates":[-100.15395,25.60456]},"properties":{"s":2.0,"a":2.0,"t":0.0,"f":0.0,"fi":0,"c":0.0,"nc":0,"sm":0,"sb":-0.0,"k":"19031_0010"}},{"type":"Feature","geometry":{"type":"Point","coordinates":[-100.15096,25.60275]},"properties":{"s":1.9,"a":1.9,"t":0.0,"f":0.0,"fi":0,"c":0.0,"nc":0,"sm":0,"sb":-0.0,"k":"19031_0010"}},{"type":"Feature","geometry":{"type":"Point","coordinates":[-100.15594,25.60185]},"properties":{"s":1.8,"a":0.8,"t":1.0,"f":0.0,"fi":0,"c":0.0,"nc":0,"sm":0,"sb":-0.0,"k":"19031_0010"}},{"type":"Feature","geometry":{"type":"Point","coordinates":[-100.14996,25.60637]},"properties":{"s":1.6,"a":1.6,"t":0.0,"f":0.0,"fi":0,"c":0.0,"nc":0,"sm":0,"sb":-0.0,"k":"19031_0010"}},{"type":"Feature","geometry":{"type":"Point","coordinates":[-100.15196,25.60094]},"properties":{"s":1.3,"a":1.3,"t":0.0,"f":0.0,"fi":0,"c":0.0,"nc":0,"sm":0,"sb":-0.0,"k":"19031_0010"}},{"type":"Feature","geometry":{"type":"Point","coordinates":[-100.14996,25.60546]},"properties":{"s":0.8,"a":0.8,"t":0.0,"f":0.0,"fi":0,"c":0.0,"nc":0,"sm":0,"sb":-0.0,"k":"19031_0010"}},{"type":"Feature","geometry":{"type":"Point","coordinates":[-100.15495,25.62808]},"properties":{"s":5.1,"a":1.9,"t":3.0,"f":1.0,"fi":3,"c":0.0,"nc":0,"sm":0,"sb":-0.0,"k":"19031_0117"}},{"type":"Feature","geometry":{"type":"Point","coordinates":[-100.16093,25.62356]},"properties":{"s":4.7,"a":5.4,"t":0.0,"f":0.0,"fi":0,"c":0.0,"nc":0,"sm":0,"sb":-0.0,"k":"19031_0117"}},{"type":"Feature","geometry":{"type":"Point","coordinates":[-100.15993,25.62265]},"properties":{"s":4.0,"a":4.6,"t":0.0,"f":0.0,"fi":0,"c":0.0,"nc":0,"sm":0,"sb":-0.0,"k":"19031_0117"}},{"type":"Feature","geometry":{"type":"Point","coordinates":[-100.15993,25.62356]},"properties":{"s":4.0,"a":4.6,"t":0.0,"f":0.0,"fi":0,"c":0.0,"nc":0,"sm":0,"sb":-0.0,"k":"19031_0117"}},{"type":"Feature","geometry":{"type":"Point","coordinates":[-100.15993,25.62446]},"properties":{"s":3.9,"a":4.8,"t":0.0,"f":0.0,"fi":0,"c":0.2,"nc":1,"sm":0,"sb":-0.0,"k":"19031_0117"}},{"type":"Feature","geometry":{"type":"Point","coordinates":[-100.15794,25.62537]},"properties":{"s":2.4,"a":5.3,"t":0.0,"f":0.0,"fi":0,"c":2.5,"nc":1,"sm":0,"sb":-0.0,"k":"19031_0117"}},{"type":"Feature","geometry":{"type":"Point","coordinates":[-100.15495,25.62718]},"properties":{"s":2.2,"a":1.5,"t":0.0,"f":1.0,"fi":3,"c":0.0,"nc":0,"sm":0,"sb":-0.0,"k":"19031_0117"}},{"type":"Feature","geometry":{"type":"Point","coordinates":[-100.15893,25.62537]},"properties":{"s":2.1,"a":4.5,"t":0.0,"f":0.0,"fi":0,"c":2.1,"nc":1,"sm":0,"sb":-0.0,"k":"19031_0117"}},{"type":"Feature","geometry":{"type":"Point","coordinates":[-100.15893,25.62627]},"properties":{"s":2.1,"a":5.3,"t":0.0,"f":0.0,"fi":0,"c":2.8,"nc":1,"sm":0,"sb":-0.0,"k":"19031_0117"}},{"type":"Feature","geometry":{"type":"Point","coordinates":[-100.15495,25.62627]},"properties":{"s":1.9,"a":1.2,"t":0.0,"f":1.0,"fi":3,"c":0.0,"nc":0,"sm":0,"sb":-0.0,"k":"19031_0117"}},{"type":"Feature","geometry":{"type":"Point","coordinates":[-100.15893,25.62446]},"properties":{"s":1.7,"a":2.8,"t":0.0,"f":0.0,"fi":0,"c":0.9,"nc":1,"sm":0,"sb":-0.0,"k":"19031_0117"}},{"type":"Feature","geometry":{"type":"Point","coordinates":[-100.15993,25.62537]},"properties":{"s":1.5,"a":2.9,"t":0.0,"f":0.0,"fi":0,"c":1.1,"nc":1,"sm":0,"sb":-0.0,"k":"19031_0117"}},{"type":"Feature","geometry":{"type":"Point","coordinates":[-100.15794,25.62446]},"properties":{"s":1.1,"a":2.5,"t":0.0,"f":0.0,"fi":0,"c":1.2,"nc":1,"sm":0,"sb":-0.0,"k":"19031_0117"}},{"type":"Feature","geometry":{"type":"Point","coordinates":[-100.16093,25.62718]},"properties":{"s":0.7,"a":0.8,"t":0.0,"f":0.0,"fi":0,"c":0.0,"nc":1,"sm":0,"sb":-0.0,"k":"19031_0117"}},{"type":"Feature","geometry":{"type":"Point","coordinates":[-100.15594,25.62808]},"properties":{"s":0.6,"a":0.9,"t":0.0,"f":0.0,"fi":0,"c":0.2,"nc":1,"sm":0,"sb":-0.0,"k":"19031_0117"}},{"type":"Feature","geometry":{"type":"Point","coordinates":[-100.16093,25.62627]},"properties":{"s":0.5,"a":0.8,"t":0.0,"f":0.0,"fi":0,"c":0.2,"nc":1,"sm":0,"sb":-0.0,"k":"19031_0117"}},{"type":"Feature","geometry":{"type":"Point","coordinates":[-100.15993,25.62627]},"properties":{"s":0.5,"a":2.0,"t":0.0,"f":0.0,"fi":0,"c":1.5,"nc":1,"sm":0,"sb":-0.0,"k":"19031_0117"}},{"type":"Feature","geometry":{"type":"Point","coordinates":[-100.15694,25.62537]},"properties":{"s":0.5,"a":2.4,"t":0.0,"f":0.0,"fi":0,"c":1.9,"nc":1,"sm":0,"sb":-0.0,"k":"19031_0117"}},{"type":"Feature","geometry":{"type":"Point","coordinates":[-100.16093,25.62537]},"properties":{"s":0.3,"a":0.4,"t":0.0,"f":0.0,"fi":0,"c":0.0,"nc":0,"sm":0,"sb":-0.0,"k":"19031_0117"}},{"type":"Feature","geometry":{"type":"Point","coordinates":[-100.15794,25.62627]},"properties":{"s":0.3,"a":4.1,"t":0.0,"f":0.0,"fi":0,"c":3.7,"nc":1,"sm":0,"sb":-0.0,"k":"19031_0117"}},{"type":"Feature","geometry":{"type":"Point","coordinates":[-100.15694,25.62627]},"properties":{"s":0.3,"a":2.8,"t":0.0,"f":0.0,"fi":0,"c":2.5,"nc":1,"sm":0,"sb":-0.0,"k":"19031_0117"}},{"type":"Feature","geometry":{"type":"Point","coordinates":[-100.16093,25.62265]},"properties":{"s":6.2,"a":6.2,"t":0.0,"f":0.0,"fi":0,"c":0.0,"nc":0,"sm":0,"sb":-0.1,"k":"19031_0109"}},{"type":"Feature","geometry":{"type":"Point","coordinates":[-100.16193,25.62356]},"properties":{"s":5.4,"a":5.4,"t":0.0,"f":0.0,"fi":0,"c":0.0,"nc":0,"sm":0,"sb":-0.1,"k":"19031_0109"}},{"type":"Feature","geometry":{"type":"Point","coordinates":[-100.16193,25.62265]},"properties":{"s":4.3,"a":4.3,"t":0.0,"f":0.0,"fi":0,"c":0.0,"nc":0,"sm":0,"sb":-0.1,"k":"19031_0109"}},{"type":"Feature","geometry":{"type":"Point","coordinates":[-100.16193,25.62084]},"properties":{"s":3.2,"a":3.2,"t":0.0,"f":0.0,"fi":0,"c":0.0,"nc":0,"sm":0,"sb":-0.0,"k":"19031_0109"}},{"type":"Feature","geometry":{"type":"Point","coordinates":[-100.16093,25.62084]},"properties":{"s":3.2,"a":3.2,"t":0.0,"f":0.0,"fi":0,"c":0.0,"nc":0,"sm":0,"sb":-0.0,"k":"19031_0109"}},{"type":"Feature","geometry":{"type":"Point","coordinates":[-100.16093,25.62175]},"properties":{"s":3.2,"a":3.2,"t":0.0,"f":0.0,"fi":0,"c":0.0,"nc":0,"sm":0,"sb":-0.0,"k":"19031_0109"}},{"type":"Feature","geometry":{"type":"Point","coordinates":[-100.16193,25.61994]},"properties":{"s":2.8,"a":2.8,"t":0.0,"f":0.0,"fi":0,"c":0.0,"nc":0,"sm":0,"sb":-0.0,"k":"19031_0109"}},{"type":"Feature","geometry":{"type":"Point","coordinates":[-100.16193,25.62175]},"properties":{"s":2.8,"a":2.8,"t":0.0,"f":0.0,"fi":0,"c":0.0,"nc":0,"sm":0,"sb":-0.0,"k":"19031_0109"}},{"type":"Feature","geometry":{"type":"Point","coordinates":[-100.16193,25.62446]},"properties":{"s":2.7,"a":2.7,"t":0.0,"f":0.0,"fi":0,"c":0.0,"nc":0,"sm":0,"sb":-0.0,"k":"19031_0109"}},{"type":"Feature","geometry":{"type":"Point","coordinates":[-100.16093,25.61994]},"properties":{"s":2.0,"a":2.0,"t":0.0,"f":0.0,"fi":0,"c":0.0,"nc":0,"sm":0,"sb":-0.0,"k":"19031_0109"}},{"type":"Feature","geometry":{"type":"Point","coordinates":[-100.16292,25.62265]},"properties":{"s":1.2,"a":1.2,"t":0.0,"f":0.0,"fi":0,"c":0.0,"nc":0,"sm":0,"sb":-0.0,"k":"19031_0109"}},{"type":"Feature","geometry":{"type":"Point","coordinates":[-100.16292,25.62356]},"properties":{"s":1.2,"a":1.2,"t":0.0,"f":0.0,"fi":0,"c":0.0,"nc":0,"sm":0,"sb":-0.0,"k":"19031_0109"}},{"type":"Feature","geometry":{"type":"Point","coordinates":[-100.16193,25.62537]},"properties":{"s":1.2,"a":1.2,"t":0.0,"f":0.0,"fi":0,"c":0.0,"nc":0,"sm":0,"sb":-0.0,"k":"19031_0109"}},{"type":"Feature","geometry":{"type":"Point","coordinates":[-100.15993,25.62084]},"properties":{"s":1.2,"a":1.2,"t":0.0,"f":0.0,"fi":0,"c":0.0,"nc":0,"sm":0,"sb":-0.0,"k":"19031_0109"}},{"type":"Feature","geometry":{"type":"Point","coordinates":[-100.16292,25.62446]},"properties":{"s":0.8,"a":0.8,"t":0.0,"f":0.0,"fi":0,"c":0.0,"nc":0,"sm":0,"sb":-0.0,"k":"19031_0109"}},{"type":"Feature","geometry":{"type":"Point","coordinates":[-100.16292,25.62537]},"properties":{"s":0.8,"a":0.8,"t":0.0,"f":0.0,"fi":0,"c":0.0,"nc":0,"sm":0,"sb":-0.0,"k":"19031_0109"}},{"type":"Feature","geometry":{"type":"Point","coordinates":[-100.16193,25.62627]},"properties":{"s":0.8,"a":0.8,"t":0.0,"f":0.0,"fi":0,"c":0.0,"nc":0,"sm":0,"sb":-0.0,"k":"19031_0109"}},{"type":"Feature","geometry":{"type":"Point","coordinates":[-100.11607,25.64527]},"properties":{"s":5.7,"a":7.2,"t":0.0,"f":0.0,"fi":0,"c":0.0,"nc":0,"sm":0,"sb":-0.1,"k":"19031_0097"}},{"type":"Feature","geometry":{"type":"Point","coordinates":[-100.11806,25.64527]},"properties":{"s":5.2,"a":5.5,"t":1.0,"f":0.5,"fi":2,"c":0.4,"nc":1,"sm":0,"sb":-0.1,"k":"19031_0097"}},{"type":"Feature","geometry":{"type":"Point","coordinates":[-100.11607,25.64617]},"properties":{"s":4.7,"a":5.9,"t":0.0,"f":0.0,"fi":0,"c":0.0,"nc":0,"sm":0,"sb":-0.1,"k":"19031_0097"}},{"type":"Feature","geometry":{"type":"Point","coordinates":[-100.11607,25.64436]},"properties":{"s":4.4,"a":5.6,"t":0.0,"f":0.0,"fi":0,"c":0.0,"nc":0,"sm":0,"sb":-0.1,"k":"19031_0097"}},{"type":"Feature","geometry":{"type":"Point","coordinates":[-100.11706,25.64617]},"properties":{"s":4.3,"a":5.5,"t":0.0,"f":0.0,"fi":0,"c":0.0,"nc":0,"sm":0,"sb":-0.1,"k":"19031_0097"}},{"type":"Feature","geometry":{"type":"Point","coordinates":[-100.11706,25.64708]},"properties":{"s":4.2,"a":4.8,"t":0.0,"f":0.5,"fi":2,"c":0.0,"nc":0,"sm":0,"sb":-0.1,"k":"19031_0097"}},{"type":"Feature","geometry":{"type":"Point","coordinates":[-100.11507,25.64527]},"properties":{"s":4.2,"a":5.3,"t":0.0,"f":0.0,"fi":0,"c":0.0,"nc":0,"sm":0,"sb":-0.1,"k":"19031_0097"}},{"type":"Feature","geometry":{"type":"Point","coordinates":[-100.11507,25.64436]},"properties":{"s":4.0,"a":5.1,"t":0.0,"f":0.0,"fi":0,"c":0.0,"nc":0,"sm":0,"sb":-0.1,"k":"19031_0097"}},{"type":"Feature","geometry":{"type":"Point","coordinates":[-100.11706,25.64527]},"properties":{"s":3.8,"a":4.8,"t":0.0,"f":0.0,"fi":0,"c":0.0,"nc":0,"sm":0,"sb":-0.1,"k":"19031_0097"}},{"type":"Feature","geometry":{"type":"Point","coordinates":[-100.11706,25.64436]},"properties":{"s":3.1,"a":4.0,"t":0.0,"f":0.0,"fi":0,"c":0.0,"nc":0,"sm":0,"sb":-0.0,"k":"19031_0097"}},{"type":"Feature","geometry":{"type":"Point","coordinates":[-100.11607,25.64708]},"properties":{"s":3.1,"a":3.9,"t":0.0,"f":0.0,"fi":0,"c":0.0,"nc":0,"sm":0,"sb":-0.0,"k":"19031_0097"}},{"type":"Feature","geometry":{"type":"Point","coordinates":[-100.11507,25.64346]},"properties":{"s":3.1,"a":3.9,"t":0.0,"f":0.0,"fi":0,"c":0.0,"nc":0,"sm":0,"sb":-0.0,"k":"19031_0097"}},{"type":"Feature","geometry":{"type":"Point","coordinates":[-100.11407,25.64527]},"properties":{"s":3.0,"a":3.8,"t":0.0,"f":0.0,"fi":0,"c":0.0,"nc":0,"sm":0,"sb":-0.0,"k":"19031_0097"}},{"type":"Feature","geometry":{"type":"Point","coordinates":[-100.11806,25.64436]},"properties":{"s":2.9,"a":3.7,"t":0.0,"f":0.0,"fi":0,"c":0.0,"nc":0,"sm":0,"sb":-0.0,"k":"19031_0097"}},{"type":"Feature","geometry":{"type":"Point","coordinates":[-100.11607,25.64346]},"properties":{"s":2.8,"a":3.5,"t":0.0,"f":0.0,"fi":0,"c":0.0,"nc":0,"sm":0,"sb":-0.0,"k":"19031_0097"}},{"type":"Feature","geometry":{"type":"Point","coordinates":[-100.11407,25.64436]},"properties":{"s":2.7,"a":3.4,"t":0.0,"f":0.0,"fi":0,"c":0.0,"nc":0,"sm":0,"sb":-0.0,"k":"19031_0097"}},{"type":"Feature","geometry":{"type":"Point","coordinates":[-100.11407,25.64617]},"properties":{"s":2.4,"a":3.0,"t":0.0,"f":0.0,"fi":0,"c":0.0,"nc":0,"sm":0,"sb":-0.0,"k":"19031_0097"}},{"type":"Feature","geometry":{"type":"Point","coordinates":[-100.11308,25.64527]},"properties":{"s":2.1,"a":2.6,"t":0.0,"f":0.0,"fi":0,"c":0.0,"nc":0,"sm":0,"sb":-0.0,"k":"19031_0097"}},{"type":"Feature","geometry":{"type":"Point","coordinates":[-100.11906,25.64346]},"properties":{"s":1.6,"a":1.8,"t":1.0,"f":0.5,"fi":2,"c":1.2,"nc":1,"sm":0,"sb":-0.0,"k":"19031_0097"}},{"type":"Feature","geometry":{"type":"Point","coordinates":[-100.11407,25.64346]},"properties":{"s":1.6,"a":2.0,"t":0.0,"f":0.0,"fi":0,"c":0.0,"nc":0,"sm":0,"sb":-0.0,"k":"19031_0097"}},{"type":"Feature","geometry":{"type":"Point","coordinates":[-100.11308,25.64436]},"properties":{"s":1.4,"a":2.2,"t":0.0,"f":0.0,"fi":0,"c":0.5,"nc":1,"sm":0,"sb":-0.0,"k":"19031_0097"}},{"type":"Feature","geometry":{"type":"Point","coordinates":[-100.11507,25.64617]},"properties":{"s":1.3,"a":1.6,"t":0.0,"f":0.0,"fi":0,"c":0.0,"nc":0,"sm":0,"sb":-0.0,"k":"19031_0097"}},{"type":"Feature","geometry":{"type":"Point","coordinates":[-100.11806,25.64346]},"properties":{"s":0.8,"a":0.8,"t":0.0,"f":0.5,"fi":2,"c":0.3,"nc":1,"sm":0,"sb":-0.0,"k":"19031_0097"}},{"type":"Feature","geometry":{"type":"Point","coordinates":[-100.11706,25.64346]},"properties":{"s":0.6,"a":0.8,"t":0.0,"f":0.0,"fi":0,"c":0.0,"nc":0,"sm":0,"sb":-0.0,"k":"19031_0097"}},{"type":"Feature","geometry":{"type":"Point","coordinates":[-100.10111,25.64979]},"properties":{"s":3.4,"a":1.3,"t":2.0,"f":1.5,"fi":4,"c":0.0,"nc":0,"sm":0,"sb":0.1,"k":"19031_0067"}},{"type":"Feature","geometry":{"type":"Point","coordinates":[-100.09712,25.64708]},"properties":{"s":3.2,"a":2.9,"t":0.0,"f":1.5,"fi":4,"c":0.0,"nc":0,"sm":0,"sb":0.1,"k":"19031_0067"}},{"type":"Feature","geometry":{"type":"Point","coordinates":[-100.09812,25.64708]},"properties":{"s":2.9,"a":2.5,"t":0.0,"f":1.5,"fi":4,"c":0.0,"nc":0,"sm":0,"sb":0.1,"k":"19031_0067"}},{"type":"Feature","geometry":{"type":"Point","coordinates":[-100.09712,25.64617]},"properties":{"s":2.9,"a":2.5,"t":0.0,"f":1.5,"fi":4,"c":0.0,"nc":0,"sm":0,"sb":0.1,"k":"19031_0067"}},{"type":"Feature","geometry":{"type":"Point","coordinates":[-100.10211,25.64889]},"properties":{"s":2.4,"a":0.9,"t":2.0,"f":0.5,"fi":2,"c":0.0,"nc":0,"sm":0,"sb":0.0,"k":"19031_0067"}},{"type":"Feature","geometry":{"type":"Point","coordinates":[-100.10111,25.64889]},"properties":{"s":2.4,"a":0.9,"t":1.0,"f":1.5,"fi":4,"c":0.0,"nc":0,"sm":0,"sb":0.0,"k":"19031_0067"}},{"type":"Feature","geometry":{"type":"Point","coordinates":[-100.10012,25.64798]},"properties":{"s":2.4,"a":0.9,"t":1.0,"f":1.5,"fi":4,"c":0.0,"nc":0,"sm":0,"sb":0.0,"k":"19031_0067"}},{"type":"Feature","geometry":{"type":"Point","coordinates":[-100.10111,25.6516]},"properties":{"s":2.2,"a":3.1,"t":0.0,"f":0.0,"fi":0,"c":0.0,"nc":0,"sm":0,"sb":0.0,"k":"19031_0067"}},{"type":"Feature","geometry":{"type":"Point","coordinates":[-100.09912,25.64798]},"properties":{"s":2.1,"a":0.5,"t":1.0,"f":1.5,"fi":4,"c":0.0,"nc":0,"sm":0,"sb":0.0,"k":"19031_0067"}},{"type":"Feature","geometry":{"type":"Point","coordinates":[-100.09812,25.64617]},"properties":{"s":2.1,"a":2.9,"t":0.0,"f":0.0,"fi":0,"c":0.0,"nc":0,"sm":0,"sb":0.0,"k":"19031_0067"}},{"type":"Feature","geometry":{"type":"Point","coordinates":[-100.09812,25.64798]},"properties":{"s":2.1,"a":3.0,"t":0.0,"f":0.0,"fi":0,"c":0.0,"nc":0,"sm":0,"sb":0.0,"k":"19031_0067"}},{"type":"Feature","geometry":{"type":"Point","coordinates":[-100.10111,25.64527]},"properties":{"s":1.9,"a":2.6,"t":0.0,"f":0.0,"fi":0,"c":0.0,"nc":0,"sm":0,"sb":0.0,"k":"19031_0067"}},{"type":"Feature","geometry":{"type":"Point","coordinates":[-100.10012,25.64889]},"properties":{"s":1.7,"a":0.9,"t":0.0,"f":1.5,"fi":4,"c":0.0,"nc":0,"sm":0,"sb":0.0,"k":"19031_0067"}},{"type":"Feature","geometry":{"type":"Point","coordinates":[-100.10211,25.65251]},"properties":{"s":1.6,"a":2.3,"t":0.0,"f":0.0,"fi":0,"c":0.0,"nc":0,"sm":0,"sb":0.0,"k":"19031_0067"}},{"type":"Feature","geometry":{"type":"Point","coordinates":[-100.10211,25.65341]},"properties":{"s":1.6,"a":2.3,"t":0.0,"f":0.0,"fi":0,"c":0.0,"nc":0,"sm":0,"sb":0.0,"k":"19031_0067"}},{"type":"Feature","geometry":{"type":"Point","coordinates":[-100.10012,25.65341]},"properties":{"s":1.6,"a":2.3,"t":0.0,"f":0.0,"fi":0,"c":0.0,"nc":0,"sm":0,"sb":0.0,"k":"19031_0067"}},{"type":"Feature","geometry":{"type":"Point","coordinates":[-100.09912,25.64708]},"properties":{"s":1.5,"a":2.1,"t":0.0,"f":0.0,"fi":0,"c":0.0,"nc":0,"sm":0,"sb":0.0,"k":"19031_0067"}},{"type":"Feature","geometry":{"type":"Point","coordinates":[-100.09912,25.64889]},"properties":{"s":1.5,"a":2.1,"t":0.0,"f":0.0,"fi":0,"c":0.0,"nc":0,"sm":0,"sb":0.0,"k":"19031_0067"}},{"type":"Feature","geometry":{"type":"Point","coordinates":[-100.09912,25.64979]},"properties":{"s":1.5,"a":2.0,"t":0.0,"f":0.0,"fi":0,"c":0.0,"nc":0,"sm":0,"sb":0.0,"k":"19031_0067"}},{"type":"Feature","geometry":{"type":"Point","coordinates":[-100.09812,25.64979]},"properties":{"s":1.5,"a":2.0,"t":0.0,"f":0.0,"fi":0,"c":0.0,"nc":0,"sm":0,"sb":0.0,"k":"19031_0067"}},{"type":"Feature","geometry":{"type":"Point","coordinates":[-100.09712,25.64798]},"properties":{"s":1.5,"a":2.0,"t":0.0,"f":0.0,"fi":0,"c":0.0,"nc":0,"sm":0,"sb":0.0,"k":"19031_0067"}},{"type":"Feature","geometry":{"type":"Point","coordinates":[-100.10311,25.6507]},"properties":{"s":1.4,"a":0.4,"t":0.0,"f":1.5,"fi":4,"c":0.0,"nc":0,"sm":0,"sb":0.0,"k":"19031_0067"}},{"type":"Feature","geometry":{"type":"Point","coordinates":[-100.10211,25.64708]},"properties":{"s":1.4,"a":1.4,"t":0.0,"f":0.5,"fi":2,"c":0.0,"nc":0,"sm":0,"sb":0.0,"k":"19031_0067"}},{"type":"Feature","geometry":{"type":"Point","coordinates":[-100.09613,25.64527]},"properties":{"s":1.4,"a":0.5,"t":0.0,"f":1.5,"fi":4,"c":0.0,"nc":0,"sm":0,"sb":0.0,"k":"19031_0067"}},{"type":"Feature","geometry":{"type":"Point","coordinates":[-100.09513,25.64436]},"properties":{"s":1.4,"a":0.5,"t":0.0,"f":1.5,"fi":4,"c":0.0,"nc":0,"sm":0,"sb":0.0,"k":"19031_0067"}},{"type":"Feature","geometry":{"type":"Point","coordinates":[-100.10012,25.64617]},"properties":{"s":1.2,"a":1.2,"t":0.0,"f":0.5,"fi":2,"c":0.0,"nc":0,"sm":0,"sb":0.0,"k":"19031_0067"}},{"type":"Feature","geometry":{"type":"Point","coordinates":[-100.09812,25.64889]},"properties":{"s":1.2,"a":1.6,"t":0.0,"f":0.0,"fi":0,"c":0.0,"nc":0,"sm":0,"sb":0.0,"k":"19031_0067"}},{"type":"Feature","geometry":{"type":"Point","coordinates":[-100.09712,25.64979]},"properties":{"s":1.2,"a":1.6,"t":0.0,"f":0.0,"fi":0,"c":0.0,"nc":0,"sm":0,"sb":0.0,"k":"19031_0067"}},{"type":"Feature","geometry":{"type":"Point","coordinates":[-100.10909,25.65251]},"properties":{"s":1.1,"a":0.0,"t":0.0,"f":1.5,"fi":4,"c":0.0,"nc":0,"sm":0,"sb":0.0,"k":"19031_0067"}},{"type":"Feature","geometry":{"type":"Point","coordinates":[-100.10111,25.64436]},"properties":{"s":1.1,"a":1.6,"t":0.0,"f":0.0,"fi":0,"c":0.0,"nc":0,"sm":0,"sb":0.0,"k":"19031_0067"}},{"type":"Feature","geometry":{"type":"Point","coordinates":[-100.09912,25.6507]},"properties":{"s":1.1,"a":1.6,"t":0.0,"f":0.0,"fi":0,"c":0.0,"nc":0,"sm":0,"sb":0.0,"k":"19031_0067"}},{"type":"Feature","geometry":{"type":"Point","coordinates":[-100.10012,25.64708]},"properties":{"s":1.0,"a":0.9,"t":0.0,"f":0.5,"fi":2,"c":0.0,"nc":0,"sm":0,"sb":0.0,"k":"19031_0067"}},{"type":"Feature","geometry":{"type":"Point","coordinates":[-100.10211,25.6516]},"properties":{"s":0.9,"a":1.2,"t":0.0,"f":0.0,"fi":0,"c":0.0,"nc":0,"sm":0,"sb":0.0,"k":"19031_0067"}},{"type":"Feature","geometry":{"type":"Point","coordinates":[-100.10111,25.64798]},"properties":{"s":0.9,"a":0.8,"t":0.0,"f":0.5,"fi":2,"c":0.0,"nc":0,"sm":0,"sb":0.0,"k":"19031_0067"}},{"type":"Feature","geometry":{"type":"Point","coordinates":[-100.10012,25.64436]},"properties":{"s":0.9,"a":1.2,"t":0.0,"f":0.0,"fi":0,"c":0.0,"nc":0,"sm":0,"sb":0.0,"k":"19031_0067"}},{"type":"Feature","geometry":{"type":"Point","coordinates":[-100.10012,25.64527]},"properties":{"s":0.9,"a":1.2,"t":0.0,"f":0.0,"fi":0,"c":0.0,"nc":0,"sm":0,"sb":0.0,"k":"19031_0067"}},{"type":"Feature","geometry":{"type":"Point","coordinates":[-100.10012,25.64979]},"properties":{"s":0.9,"a":1.2,"t":0.0,"f":0.0,"fi":0,"c":0.0,"nc":0,"sm":0,"sb":0.0,"k":"19031_0067"}},{"type":"Feature","geometry":{"type":"Point","coordinates":[-100.10012,25.6507]},"properties":{"s":0.9,"a":1.2,"t":0.0,"f":0.0,"fi":0,"c":0.0,"nc":0,"sm":0,"sb":0.0,"k":"19031_0067"}},{"type":"Feature","geometry":{"type":"Point","coordinates":[-100.09912,25.64527]},"properties":{"s":0.9,"a":0.8,"t":0.0,"f":0.5,"fi":2,"c":0.0,"nc":0,"sm":0,"sb":0.0,"k":"19031_0067"}},{"type":"Feature","geometry":{"type":"Point","coordinates":[-100.09912,25.64617]},"properties":{"s":0.9,"a":0.8,"t":0.0,"f":0.5,"fi":2,"c":0.0,"nc":0,"sm":0,"sb":0.0,"k":"19031_0067"}},{"type":"Feature","geometry":{"type":"Point","coordinates":[-100.09812,25.64527]},"properties":{"s":0.9,"a":0.8,"t":0.0,"f":0.5,"fi":2,"c":0.0,"nc":0,"sm":0,"sb":0.0,"k":"19031_0067"}},{"type":"Feature","geometry":{"type":"Point","coordinates":[-100.09712,25.64889]},"properties":{"s":0.9,"a":1.2,"t":0.0,"f":0.0,"fi":0,"c":0.0,"nc":0,"sm":0,"sb":0.0,"k":"19031_0067"}},{"type":"Feature","geometry":{"type":"Point","coordinates":[-100.09613,25.64708]},"properties":{"s":0.9,"a":1.2,"t":0.0,"f":0.0,"fi":0,"c":0.0,"nc":0,"sm":0,"sb":0.0,"k":"19031_0067"}},{"type":"Feature","geometry":{"type":"Point","coordinates":[-100.10909,25.65432]},"properties":{"s":0.6,"a":0.8,"t":0.0,"f":0.0,"fi":0,"c":0.0,"nc":0,"sm":0,"sb":0.0,"k":"19031_0067"}},{"type":"Feature","geometry":{"type":"Point","coordinates":[-100.10211,25.6507]},"properties":{"s":0.6,"a":0.9,"t":0.0,"f":0.0,"fi":0,"c":0.0,"nc":0,"sm":0,"sb":0.0,"k":"19031_0067"}},{"type":"Feature","geometry":{"type":"Point","coordinates":[-100.10111,25.6507]},"properties":{"s":0.6,"a":0.9,"t":0.0,"f":0.0,"fi":0,"c":0.0,"nc":0,"sm":0,"sb":0.0,"k":"19031_0067"}},{"type":"Feature","geometry":{"type":"Point","coordinates":[-100.09712,25.64527]},"properties":{"s":0.6,"a":0.9,"t":0.0,"f":0.0,"fi":0,"c":0.0,"nc":0,"sm":0,"sb":0.0,"k":"19031_0067"}},{"type":"Feature","geometry":{"type":"Point","coordinates":[-100.10809,25.65251]},"properties":{"s":0.5,"a":0.0,"t":0.0,"f":1.5,"fi":4,"c":0.8,"nc":1,"sm":0,"sb":0.0,"k":"19031_0067"}},{"type":"Feature","geometry":{"type":"Point","coordinates":[-100.10311,25.6516]},"properties":{"s":0.4,"a":0.8,"t":0.0,"f":0.0,"fi":0,"c":0.2,"nc":1,"sm":0,"sb":0.0,"k":"19031_0067"}},{"type":"Feature","geometry":{"type":"Point","coordinates":[-100.10211,25.64798]},"properties":{"s":0.4,"a":0.0,"t":0.0,"f":0.5,"fi":2,"c":0.0,"nc":0,"sm":0,"sb":0.0,"k":"19031_0067"}},{"type":"Feature","geometry":{"type":"Point","coordinates":[-100.09712,25.64436]},"properties":{"s":0.4,"a":0.0,"t":0.0,"f":0.5,"fi":2,"c":0.0,"nc":0,"sm":0,"sb":0.0,"k":"19031_0067"}},{"type":"Feature","geometry":{"type":"Point","coordinates":[-100.09613,25.64436]},"properties":{"s":0.4,"a":0.5,"t":0.0,"f":0.0,"fi":0,"c":0.0,"nc":0,"sm":0,"sb":0.0,"k":"19031_0067"}},{"type":"Feature","geometry":{"type":"Point","coordinates":[-100.10909,25.65341]},"properties":{"s":0.3,"a":0.4,"t":0.0,"f":0.0,"fi":0,"c":0.0,"nc":0,"sm":0,"sb":0.0,"k":"19031_0067"}},{"type":"Feature","geometry":{"type":"Point","coordinates":[-100.10311,25.65251]},"properties":{"s":0.3,"a":0.4,"t":0.0,"f":0.0,"fi":0,"c":0.0,"nc":1,"sm":0,"sb":0.0,"k":"19031_0067"}},{"type":"Feature","geometry":{"type":"Point","coordinates":[-100.10111,25.64708]},"properties":{"s":0.3,"a":0.4,"t":0.0,"f":0.0,"fi":0,"c":0.0,"nc":0,"sm":0,"sb":0.0,"k":"19031_0067"}},{"type":"Feature","geometry":{"type":"Point","coordinates":[-100.10012,25.65432]},"properties":{"s":0.3,"a":0.4,"t":0.0,"f":0.0,"fi":0,"c":0.0,"nc":0,"sm":0,"sb":0.0,"k":"19031_0067"}},{"type":"Feature","geometry":{"type":"Point","coordinates":[-100.09712,25.6507]},"properties":{"s":0.3,"a":0.4,"t":0.0,"f":0.0,"fi":0,"c":0.0,"nc":0,"sm":0,"sb":0.0,"k":"19031_0067"}},{"type":"Feature","geometry":{"type":"Point","coordinates":[-100.09613,25.64798]},"properties":{"s":0.3,"a":0.4,"t":0.0,"f":0.0,"fi":0,"c":0.0,"nc":0,"sm":0,"sb":0.0,"k":"19031_0067"}},{"type":"Feature","geometry":{"type":"Point","coordinates":[-100.09613,25.64979]},"properties":{"s":0.3,"a":0.4,"t":0.0,"f":0.0,"fi":0,"c":0.0,"nc":0,"sm":0,"sb":0.0,"k":"19031_0067"}},{"type":"Feature","geometry":{"type":"Point","coordinates":[-100.09513,25.64798]},"properties":{"s":0.3,"a":0.4,"t":0.0,"f":0.0,"fi":0,"c":0.0,"nc":0,"sm":0,"sb":0.0,"k":"19031_0067"}},{"type":"Feature","geometry":{"type":"Point","coordinates":[-100.09513,25.64889]},"properties":{"s":0.3,"a":0.4,"t":0.0,"f":0.0,"fi":0,"c":0.0,"nc":0,"sm":0,"sb":0.0,"k":"19031_0067"}},{"type":"Feature","geometry":{"type":"Point","coordinates":[-100.09513,25.64979]},"properties":{"s":0.3,"a":0.4,"t":0.0,"f":0.0,"fi":0,"c":0.0,"nc":0,"sm":0,"sb":0.0,"k":"19031_0067"}},{"type":"Feature","geometry":{"type":"Point","coordinates":[-100.1041,25.6516]},"properties":{"s":0.2,"a":0.4,"t":0.0,"f":1.5,"fi":4,"c":1.6,"nc":1,"sm":0,"sb":0.0,"k":"19031_0067"}},{"type":"Feature","geometry":{"type":"Point","coordinates":[-100.14697,25.63713]},"properties":{"s":2.4,"a":4.7,"t":0.0,"f":0.5,"fi":2,"c":1.4,"nc":1,"sm":0,"sb":0.0,"k":"19031_0133"}},{"type":"Feature","geometry":{"type":"Point","coordinates":[-100.14697,25.63803]},"properties":{"s":2.1,"a":2.8,"t":0.0,"f":1.0,"fi":3,"c":0.3,"nc":1,"sm":0,"sb":0.0,"k":"19031_0133"}},{"type":"Feature","geometry":{"type":"Point","coordinates":[-100.14597,25.63984]},"properties":{"s":1.7,"a":2.8,"t":0.0,"f":0.0,"fi":0,"c":0.0,"nc":0,"sm":0,"sb":0.0,"k":"19031_0133"}},{"type":"Feature","geometry":{"type":"Point","coordinates":[-100.14797,25.63713]},"properties":{"s":1.5,"a":4.4,"t":0.0,"f":0.0,"fi":0,"c":2.1,"nc":1,"sm":0,"sb":0.0,"k":"19031_0133"}},{"type":"Feature","geometry":{"type":"Point","coordinates":[-100.14797,25.63803]},"properties":{"s":1.5,"a":2.1,"t":0.0,"f":1.0,"fi":3,"c":0.8,"nc":1,"sm":0,"sb":0.0,"k":"19031_0133"}},{"type":"Feature","geometry":{"type":"Point","coordinates":[-100.14597,25.63803]},"properties":{"s":1.5,"a":1.4,"t":0.0,"f":1.0,"fi":3,"c":0.0,"nc":0,"sm":0,"sb":0.0,"k":"19031_0133"}},{"type":"Feature","geometry":{"type":"Point","coordinates":[-100.14897,25.63713]},"properties":{"s":1.2,"a":3.9,"t":0.0,"f":0.0,"fi":0,"c":2.0,"nc":1,"sm":0,"sb":0.0,"k":"19031_0133"}},{"type":"Feature","geometry":{"type":"Point","coordinates":[-100.14597,25.63894]},"properties":{"s":1.2,"a":2.0,"t":0.0,"f":0.0,"fi":0,"c":0.0,"nc":0,"sm":0,"sb":0.0,"k":"19031_0133"}},{"type":"Feature","geometry":{"type":"Point","coordinates":[-100.14498,25.63984]},"properties":{"s":1.2,"a":2.0,"t":0.0,"f":0.0,"fi":0,"c":0.0,"nc":0,"sm":0,"sb":0.0,"k":"19031_0133"}},{"type":"Feature","geometry":{"type":"Point","coordinates":[-100.14697,25.63894]},"properties":{"s":1.1,"a":1.7,"t":0.0,"f":0.0,"fi":0,"c":0.0,"nc":0,"sm":0,"sb":0.0,"k":"19031_0133"}},{"type":"Feature","geometry":{"type":"Point","coordinates":[-100.14797,25.63622]},"properties":{"s":1.0,"a":4.4,"t":0.0,"f":0.5,"fi":2,"c":3.2,"nc":1,"sm":0,"sb":0.0,"k":"19031_0133"}},{"type":"Feature","geometry":{"type":"Point","coordinates":[-100.14498,25.63894]},"properties":{"s":1.0,"a":1.6,"t":0.0,"f":0.0,"fi":0,"c":0.0,"nc":0,"sm":0,"sb":0.0,"k":"19031_0133"}},{"type":"Feature","geometry":{"type":"Point","coordinates":[-100.14697,25.63984]},"properties":{"s":0.7,"a":1.2,"t":0.0,"f":0.0,"fi":0,"c":0.0,"nc":0,"sm":0,"sb":0.0,"k":"19031_0133"}},{"type":"Feature","geometry":{"type":"Point","coordinates":[-100.14897,25.63622]},"properties":{"s":0.0,"a":3.1,"t":0.0,"f":0.0,"fi":0,"c":3.0,"nc":1,"sm":0,"sb":0.0,"k":"19031_0133"}},{"type":"Feature","geometry":{"type":"Point","coordinates":[-100.07818,25.64889]},"properties":{"s":3.1,"a":4.9,"t":0.0,"f":0.0,"fi":0,"c":0.0,"nc":0,"sm":0,"sb":0.1,"k":"19031_0111"}},{"type":"Feature","geometry":{"type":"Point","coordinates":[-100.07818,25.64798]},"properties":{"s":2.4,"a":3.6,"t":0.0,"f":0.0,"fi":0,"c":0.0,"nc":0,"sm":0,"sb":0.0,"k":"19031_0111"}},{"type":"Feature","geometry":{"type":"Point","coordinates":[-100.07719,25.64798]},"properties":{"s":2.1,"a":3.2,"t":0.0,"f":0.0,"fi":0,"c":0.0,"nc":0,"sm":0,"sb":0.0,"k":"19031_0111"}},{"type":"Feature","geometry":{"type":"Point","coordinates":[-100.07918,25.64798]},"properties":{"s":1.8,"a":2.9,"t":0.0,"f":0.0,"fi":0,"c":0.0,"nc":0,"sm":0,"sb":0.0,"k":"19031_0111"}},{"type":"Feature","geometry":{"type":"Point","coordinates":[-100.07619,25.64798]},"properties":{"s":1.7,"a":2.6,"t":0.0,"f":0.0,"fi":0,"c":0.0,"nc":0,"sm":0,"sb":0.0,"k":"19031_0111"}},{"type":"Feature","geometry":{"type":"Point","coordinates":[-100.07519,25.64889]},"properties":{"s":1.4,"a":2.2,"t":0.0,"f":0.0,"fi":0,"c":0.0,"nc":0,"sm":0,"sb":0.0,"k":"19031_0111"}},{"type":"Feature","geometry":{"type":"Point","coordinates":[-100.0742,25.64798]},"properties":{"s":1.4,"a":2.2,"t":0.0,"f":0.0,"fi":0,"c":0.0,"nc":0,"sm":0,"sb":0.0,"k":"19031_0111"}},{"type":"Feature","geometry":{"type":"Point","coordinates":[-100.07818,25.64708]},"properties":{"s":1.3,"a":2.0,"t":0.0,"f":0.0,"fi":0,"c":0.0,"nc":0,"sm":0,"sb":0.0,"k":"19031_0111"}},{"type":"Feature","geometry":{"type":"Point","coordinates":[-100.07719,25.64708]},"properties":{"s":1.3,"a":2.0,"t":0.0,"f":0.0,"fi":0,"c":0.0,"nc":0,"sm":0,"sb":0.0,"k":"19031_0111"}},{"type":"Feature","geometry":{"type":"Point","coordinates":[-100.07918,25.64708]},"properties":{"s":0.8,"a":1.2,"t":0.0,"f":0.0,"fi":0,"c":0.0,"nc":0,"sm":0,"sb":0.0,"k":"19031_0111"}},{"type":"Feature","geometry":{"type":"Point","coordinates":[-100.07519,25.64798]},"properties":{"s":0.8,"a":1.2,"t":0.0,"f":0.0,"fi":0,"c":0.0,"nc":0,"sm":0,"sb":0.0,"k":"19031_0111"}},{"type":"Feature","geometry":{"type":"Point","coordinates":[-100.07619,25.64708]},"properties":{"s":0.5,"a":0.8,"t":0.0,"f":0.0,"fi":0,"c":0.0,"nc":0,"sm":0,"sb":0.0,"k":"19031_0111"}},{"type":"Feature","geometry":{"type":"Point","coordinates":[-100.07519,25.64708]},"properties":{"s":0.5,"a":0.8,"t":0.0,"f":0.0,"fi":0,"c":0.0,"nc":0,"sm":0,"sb":0.0,"k":"19031_0111"}},{"type":"Feature","geometry":{"type":"Point","coordinates":[-100.0742,25.64708]},"properties":{"s":0.3,"a":0.8,"t":0.0,"f":0.0,"fi":0,"c":0.3,"nc":1,"sm":0,"sb":0.0,"k":"19031_0111"}},{"type":"Feature","geometry":{"type":"Point","coordinates":[-100.0732,25.64708]},"properties":{"s":0.2,"a":1.6,"t":0.0,"f":0.0,"fi":0,"c":1.4,"nc":1,"sm":0,"sb":0.0,"k":"19031_0111"}},{"type":"Feature","geometry":{"type":"Point","coordinates":[-100.08117,25.64979]},"properties":{"s":7.2,"a":6.7,"t":0.0,"f":0.0,"fi":0,"c":0.0,"nc":0,"sm":0,"sb":-0.1,"k":"19031_0219"}},{"type":"Feature","geometry":{"type":"Point","coordinates":[-100.08018,25.64979]},"properties":{"s":7.2,"a":6.6,"t":0.0,"f":0.0,"fi":0,"c":0.0,"nc":0,"sm":0,"sb":-0.1,"k":"19031_0219"}},{"type":"Feature","geometry":{"type":"Point","coordinates":[-100.08117,25.6507]},"properties":{"s":6.5,"a":6.0,"t":0.0,"f":0.0,"fi":0,"c":0.0,"nc":0,"sm":0,"sb":-0.1,"k":"19031_0219"}},{"type":"Feature","geometry":{"type":"Point","coordinates":[-100.07918,25.64889]},"properties":{"s":6.2,"a":5.8,"t":0.0,"f":0.0,"fi":0,"c":0.0,"nc":0,"sm":0,"sb":-0.1,"k":"19031_0219"}},{"type":"Feature","geometry":{"type":"Point","coordinates":[-100.08018,25.64889]},"properties":{"s":4.5,"a":4.2,"t":0.0,"f":0.0,"fi":0,"c":0.0,"nc":0,"sm":0,"sb":-0.1,"k":"19031_0219"}},{"type":"Feature","geometry":{"type":"Point","coordinates":[-100.08217,25.64979]},"properties":{"s":3.6,"a":3.3,"t":0.0,"f":0.0,"fi":0,"c":0.0,"nc":0,"sm":0,"sb":-0.0,"k":"19031_0219"}},{"type":"Feature","geometry":{"type":"Point","coordinates":[-100.08117,25.64889]},"properties":{"s":2.7,"a":2.4,"t":0.0,"f":0.0,"fi":0,"c":0.0,"nc":0,"sm":0,"sb":-0.0,"k":"19031_0219"}},{"type":"Feature","geometry":{"type":"Point","coordinates":[-100.08018,25.64798]},"properties":{"s":2.2,"a":2.0,"t":0.0,"f":0.0,"fi":0,"c":0.0,"nc":0,"sm":0,"sb":-0.0,"k":"19031_0219"}},{"type":"Feature","geometry":{"type":"Point","coordinates":[-100.08117,25.64798]},"properties":{"s":1.8,"a":1.6,"t":0.0,"f":0.0,"fi":0,"c":0.0,"nc":0,"sm":0,"sb":-0.0,"k":"19031_0219"}},{"type":"Feature","geometry":{"type":"Point","coordinates":[-100.08217,25.64889]},"properties":{"s":1.3,"a":1.2,"t":0.0,"f":0.0,"fi":0,"c":0.0,"nc":0,"sm":0,"sb":-0.0,"k":"19031_0219"}}]}