{"type":"FeatureCollection","features":[{"type":"Feature","geometry":{"type":"Point","coordinates":[-100.59758,25.80268]},"properties":{"s":8.5,"a":9.2,"t":0.0,"f":0.0,"fi":0,"c":0.0,"nc":0,"sm":0,"sb":-0.0,"k":"19018_0002"}},{"type":"Feature","geometry":{"type":"Point","coordinates":[-100.60157,25.80268]},"properties":{"s":7.2,"a":7.8,"t":0.0,"f":0.0,"fi":0,"c":0.0,"nc":0,"sm":0,"sb":-0.0,"k":"19018_0002"}},{"type":"Feature","geometry":{"type":"Point","coordinates":[-100.60257,25.80177]},"properties":{"s":7.0,"a":7.6,"t":0.0,"f":0.0,"fi":0,"c":0.0,"nc":0,"sm":0,"sb":-0.0,"k":"19018_0002"}},{"type":"Feature","geometry":{"type":"Point","coordinates":[-100.59958,25.80268]},"properties":{"s":6.8,"a":7.4,"t":0.0,"f":0.0,"fi":0,"c":0.0,"nc":0,"sm":0,"sb":-0.0,"k":"19018_0002"}},{"type":"Feature","geometry":{"type":"Point","coordinates":[-100.60357,25.80268]},"properties":{"s":6.5,"a":8.7,"t":0.0,"f":0.0,"fi":0,"c":1.6,"nc":2,"sm":0,"sb":-0.0,"k":"19018_0002"}},{"type":"Feature","geometry":{"type":"Point","coordinates":[-100.60257,25.80268]},"properties":{"s":6.5,"a":7.2,"t":0.0,"f":0.0,"fi":0,"c":0.1,"nc":1,"sm":0,"sb":-0.0,"k":"19018_0002"}},{"type":"Feature","geometry":{"type":"Point","coordinates":[-100.60357,25.80177]},"properties":{"s":6.4,"a":7.2,"t":0.0,"f":0.5,"fi":2,"c":0.7,"nc":1,"sm":0,"sb":-0.0,"k":"19018_0002"}},{"type":"Feature","geometry":{"type":"Point","coordinates":[-100.59858,25.80177]},"properties":{"s":6.3,"a":6.8,"t":0.0,"f":0.0,"fi":0,"c":0.0,"nc":0,"sm":0,"sb":-0.0,"k":"19018_0002"}},{"type":"Feature","geometry":{"type":"Point","coordinates":[-100.59958,25.80177]},"properties":{"s":6.1,"a":6.6,"t":0.0,"f":0.0,"fi":0,"c":0.0,"nc":0,"sm":0,"sb":-0.0,"k":"19018_0002"}},{"type":"Feature","geometry":{"type":"Point","coordinates":[-100.59858,25.80087]},"properties":{"s":5.6,"a":6.1,"t":0.0,"f":0.0,"fi":0,"c":0.0,"nc":0,"sm":0,"sb":-0.0,"k":"19018_0002"}},{"type":"Feature","geometry":{"type":"Point","coordinates":[-100.60257,25.80358]},"properties":{"s":5.5,"a":6.8,"t":0.0,"f":0.0,"fi":0,"c":0.8,"nc":1,"sm":0,"sb":-0.0,"k":"19018_0002"}},{"type":"Feature","geometry":{"type":"Point","coordinates":[-100.60157,25.80177]},"properties":{"s":5.5,"a":6.0,"t":0.0,"f":0.0,"fi":0,"c":0.0,"nc":0,"sm":0,"sb":-0.0,"k":"19018_0002"}},{"type":"Feature","geometry":{"type":"Point","coordinates":[-100.59958,25.80087]},"properties":{"s":5.1,"a":5.0,"t":0.0,"f":0.5,"fi":2,"c":0.0,"nc":0,"sm":0,"sb":-0.0,"k":"19018_0002"}},{"type":"Feature","geometry":{"type":"Point","coordinates":[-100.60057,25.80177]},"properties":{"s":5.0,"a":5.5,"t":0.0,"f":0.0,"fi":0,"c":0.0,"nc":0,"sm":0,"sb":-0.0,"k":"19018_0002"}},{"type":"Feature","geometry":{"type":"Point","coordinates":[-100.60057,25.80268]},"properties":{"s":5.0,"a":5.5,"t":0.0,"f":0.0,"fi":0,"c":0.0,"nc":0,"sm":0,"sb":-0.0,"k":"19018_0002"}},{"type":"Feature","geometry":{"type":"Point","coordinates":[-100.60157,25.80358]},"properties":{"s":4.8,"a":5.2,"t":0.0,"f":0.0,"fi":0,"c":0.0,"nc":0,"sm":0,"sb":-0.0,"k":"19018_0002"}},{"type":"Feature","geometry":{"type":"Point","coordinates":[-100.59958,25.79996]},"properties":{"s":4.6,"a":5.0,"t":0.0,"f":0.0,"fi":0,"c":0.0,"nc":0,"sm":0,"sb":-0.0,"k":"19018_0002"}},{"type":"Feature","geometry":{"type":"Point","coordinates":[-100.59858,25.80268]},"properties":{"s":4.4,"a":4.8,"t":0.0,"f":0.0,"fi":0,"c":0.0,"nc":0,"sm":0,"sb":-0.0,"k":"19018_0002"}},{"type":"Feature","geometry":{"type":"Point","coordinates":[-100.59858,25.79996]},"properties":{"s":4.2,"a":4.0,"t":0.0,"f":0.5,"fi":2,"c":0.0,"nc":0,"sm":0,"sb":-0.0,"k":"19018_0002"}},{"type":"Feature","geometry":{"type":"Point","coordinates":[-100.60057,25.80358]},"properties":{"s":3.9,"a":4.2,"t":0.0,"f":0.0,"fi":0,"c":0.0,"nc":0,"sm":0,"sb":-0.0,"k":"19018_0002"}},{"type":"Feature","geometry":{"type":"Point","coordinates":[-100.59958,25.80358]},"properties":{"s":3.9,"a":4.2,"t":0.0,"f":0.0,"fi":0,"c":0.0,"nc":0,"sm":0,"sb":-0.0,"k":"19018_0002"}},{"type":"Feature","geometry":{"type":"Point","coordinates":[-100.60057,25.79996]},"properties":{"s":3.7,"a":4.0,"t":0.0,"f":0.0,"fi":0,"c":0.0,"nc":0,"sm":0,"sb":-0.0,"k":"19018_0002"}},{"type":"Feature","geometry":{"type":"Point","coordinates":[-100.59858,25.80358]},"properties":{"s":3.6,"a":3.9,"t":0.0,"f":0.0,"fi":0,"c":0.0,"nc":0,"sm":0,"sb":-0.0,"k":"19018_0002"}},{"type":"Feature","geometry":{"type":"Point","coordinates":[-100.60456,25.80177]},"properties":{"s":2.9,"a":4.8,"t":0.0,"f":0.5,"fi":2,"c":2.2,"nc":2,"sm":0,"sb":-0.0,"k":"19018_0002"}},{"type":"Feature","geometry":{"type":"Point","coordinates":[-100.60257,25.80087]},"properties":{"s":2.7,"a":2.4,"t":0.0,"f":0.5,"fi":2,"c":0.0,"nc":0,"sm":0,"sb":-0.0,"k":"19018_0002"}},{"type":"Feature","geometry":{"type":"Point","coordinates":[-100.60057,25.80087]},"properties":{"s":2.5,"a":2.2,"t":0.0,"f":0.5,"fi":2,"c":0.0,"nc":0,"sm":0,"sb":-0.0,"k":"19018_0002"}},{"type":"Feature","geometry":{"type":"Point","coordinates":[-100.60157,25.80087]},"properties":{"s":2.3,"a":2.0,"t":0.0,"f":0.5,"fi":2,"c":0.0,"nc":0,"sm":0,"sb":-0.0,"k":"19018_0002"}},{"type":"Feature","geometry":{"type":"Point","coordinates":[-100.60357,25.80358]},"properties":{"s":1.5,"a":3.6,"t":0.0,"f":0.0,"fi":0,"c":2.1,"nc":2,"sm":0,"sb":-0.0,"k":"19018_0002"}},{"type":"Feature","geometry":{"type":"Point","coordinates":[-100.60257,25.80449]},"properties":{"s":0.5,"a":1.6,"t":0.0,"f":0.0,"fi":0,"c":1.1,"nc":1,"sm":0,"sb":-0.0,"k":"19018_0002"}},{"type":"Feature","geometry":{"type":"Point","coordinates":[-100.63646,25.80539]},"properties":{"s":5.9,"a":7.4,"t":0.0,"f":0.0,"fi":0,"c":0.0,"nc":0,"sm":0,"sb":0.0,"k":"19018_0146"}},{"type":"Feature","geometry":{"type":"Point","coordinates":[-100.63447,25.80539]},"properties":{"s":4.8,"a":5.1,"t":0.0,"f":1.0,"fi":3,"c":0.0,"nc":0,"sm":0,"sb":0.0,"k":"19018_0146"}},{"type":"Feature","geometry":{"type":"Point","coordinates":[-100.63547,25.80539]},"properties":{"s":4.7,"a":4.9,"t":0.0,"f":1.0,"fi":3,"c":0.0,"nc":0,"sm":0,"sb":0.0,"k":"19018_0146"}},{"type":"Feature","geometry":{"type":"Point","coordinates":[-100.63746,25.8063]},"properties":{"s":4.5,"a":5.7,"t":0.0,"f":0.0,"fi":0,"c":0.0,"nc":0,"sm":0,"sb":0.0,"k":"19018_0146"}},{"type":"Feature","geometry":{"type":"Point","coordinates":[-100.63746,25.8072]},"properties":{"s":4.5,"a":5.7,"t":0.0,"f":0.0,"fi":0,"c":0.0,"nc":0,"sm":0,"sb":0.0,"k":"19018_0146"}},{"type":"Feature","geometry":{"type":"Point","coordinates":[-100.63646,25.8063]},"properties":{"s":4.2,"a":5.3,"t":0.0,"f":0.0,"fi":0,"c":0.0,"nc":0,"sm":0,"sb":0.0,"k":"19018_0146"}},{"type":"Feature","geometry":{"type":"Point","coordinates":[-100.63547,25.80449]},"properties":{"s":4.0,"a":4.1,"t":0.0,"f":1.0,"fi":3,"c":0.0,"nc":0,"sm":0,"sb":0.0,"k":"19018_0146"}},{"type":"Feature","geometry":{"type":"Point","coordinates":[-100.63547,25.8063]},"properties":{"s":4.0,"a":5.1,"t":0.0,"f":0.0,"fi":0,"c":0.0,"nc":0,"sm":0,"sb":0.0,"k":"19018_0146"}},{"type":"Feature","geometry":{"type":"Point","coordinates":[-100.63447,25.80449]},"properties":{"s":3.7,"a":4.7,"t":0.0,"f":0.0,"fi":0,"c":0.0,"nc":0,"sm":0,"sb":0.0,"k":"19018_0146"}},{"type":"Feature","geometry":{"type":"Point","coordinates":[-100.63746,25.80539]},"properties":{"s":3.6,"a":4.5,"t":0.0,"f":0.0,"fi":0,"c":0.0,"nc":0,"sm":0,"sb":0.0,"k":"19018_0146"}},{"type":"Feature","geometry":{"type":"Point","coordinates":[-100.63846,25.8063]},"properties":{"s":2.6,"a":3.2,"t":0.0,"f":0.0,"fi":0,"c":0.0,"nc":0,"sm":0,"sb":0.0,"k":"19018_0146"}},{"type":"Feature","geometry":{"type":"Point","coordinates":[-100.63447,25.80358]},"properties":{"s":2.1,"a":2.9,"t":0.0,"f":0.0,"fi":0,"c":0.2,"nc":1,"sm":0,"sb":0.0,"k":"19018_0146"}},{"type":"Feature","geometry":{"type":"Point","coordinates":[-100.63846,25.8072]},"properties":{"s":1.9,"a":2.4,"t":0.0,"f":0.0,"fi":0,"c":0.0,"nc":0,"sm":0,"sb":0.0,"k":"19018_0146"}},{"type":"Feature","geometry":{"type":"Point","coordinates":[-100.63846,25.80811]},"properties":{"s":1.6,"a":2.0,"t":0.0,"f":0.0,"fi":0,"c":0.0,"nc":0,"sm":0,"sb":0.0,"k":"19018_0146"}},{"type":"Feature","geometry":{"type":"Point","coordinates":[-100.63347,25.80539]},"properties":{"s":1.1,"a":1.4,"t":0.0,"f":0.0,"fi":0,"c":0.0,"nc":0,"sm":0,"sb":0.0,"k":"19018_0146"}},{"type":"Feature","geometry":{"type":"Point","coordinates":[-100.63347,25.80449]},"properties":{"s":0.8,"a":1.0,"t":0.0,"f":0.0,"fi":0,"c":0.0,"nc":0,"sm":0,"sb":0.0,"k":"19018_0146"}},{"type":"Feature","geometry":{"type":"Point","coordinates":[-100.5926,25.83163]},"properties":{"s":5.2,"a":4.4,"t":2.0,"f":0.0,"fi":0,"c":0.0,"nc":0,"sm":0,"sb":-0.0,"k":"19018_0010"}},{"type":"Feature","geometry":{"type":"Point","coordinates":[-100.5926,25.83072]},"properties":{"s":4.4,"a":3.4,"t":2.0,"f":0.0,"fi":0,"c":0.0,"nc":0,"sm":0,"sb":-0.0,"k":"19018_0010"}},{"type":"Feature","geometry":{"type":"Point","coordinates":[-100.5916,25.83163]},"properties":{"s":4.4,"a":4.4,"t":1.0,"f":0.0,"fi":0,"c":0.0,"nc":0,"sm":0,"sb":-0.0,"k":"19018_0010"}},{"type":"Feature","geometry":{"type":"Point","coordinates":[-100.5936,25.83163]},"properties":{"s":3.9,"a":2.8,"t":2.0,"f":0.0,"fi":0,"c":0.0,"nc":0,"sm":0,"sb":-0.0,"k":"19018_0010"}},{"type":"Feature","geometry":{"type":"Point","coordinates":[-100.5936,25.83072]},"properties":{"s":3.4,"a":2.2,"t":2.0,"f":0.0,"fi":0,"c":0.0,"nc":0,"sm":0,"sb":-0.0,"k":"19018_0010"}},{"type":"Feature","geometry":{"type":"Point","coordinates":[-100.5936,25.82982]},"properties":{"s":3.3,"a":2.0,"t":2.0,"f":0.0,"fi":0,"c":0.0,"nc":0,"sm":0,"sb":-0.0,"k":"19018_0010"}},{"type":"Feature","geometry":{"type":"Point","coordinates":[-100.59061,25.83163]},"properties":{"s":2.8,"a":2.4,"t":1.0,"f":0.0,"fi":0,"c":0.0,"nc":0,"sm":0,"sb":-0.0,"k":"19018_0010"}},{"type":"Feature","geometry":{"type":"Point","coordinates":[-100.59858,25.82982]},"properties":{"s":2.6,"a":3.2,"t":0.0,"f":0.0,"fi":0,"c":0.0,"nc":0,"sm":0,"sb":-0.0,"k":"19018_0010"}},{"type":"Feature","geometry":{"type":"Point","coordinates":[-100.59559,25.82982]},"properties":{"s":2.6,"a":3.2,"t":0.0,"f":0.0,"fi":0,"c":0.0,"nc":0,"sm":0,"sb":-0.0,"k":"19018_0010"}},{"type":"Feature","geometry":{"type":"Point","coordinates":[-100.5936,25.82891]},"properties":{"s":2.6,"a":1.2,"t":2.0,"f":0.0,"fi":0,"c":0.0,"nc":0,"sm":0,"sb":-0.0,"k":"19018_0010"}},{"type":"Feature","geometry":{"type":"Point","coordinates":[-100.5916,25.83072]},"properties":{"s":2.1,"a":1.6,"t":1.0,"f":0.0,"fi":0,"c":0.0,"nc":0,"sm":0,"sb":-0.0,"k":"19018_0010"}},{"type":"Feature","geometry":{"type":"Point","coordinates":[-100.59758,25.82891]},"properties":{"s":2.0,"a":2.4,"t":0.0,"f":0.0,"fi":0,"c":0.0,"nc":0,"sm":0,"sb":-0.0,"k":"19018_0010"}},{"type":"Feature","geometry":{"type":"Point","coordinates":[-100.59758,25.82982]},"properties":{"s":2.0,"a":2.4,"t":0.0,"f":0.0,"fi":0,"c":0.0,"nc":0,"sm":0,"sb":-0.0,"k":"19018_0010"}},{"type":"Feature","geometry":{"type":"Point","coordinates":[-100.59659,25.82891]},"properties":{"s":2.0,"a":2.4,"t":0.0,"f":0.0,"fi":0,"c":0.0,"nc":0,"sm":0,"sb":-0.0,"k":"19018_0010"}},{"type":"Feature","geometry":{"type":"Point","coordinates":[-100.59559,25.82891]},"properties":{"s":2.0,"a":2.4,"t":0.0,"f":0.0,"fi":0,"c":0.0,"nc":0,"sm":0,"sb":-0.0,"k":"19018_0010"}},{"type":"Feature","geometry":{"type":"Point","coordinates":[-100.59459,25.82982]},"properties":{"s":2.0,"a":2.4,"t":0.0,"f":0.0,"fi":0,"c":0.0,"nc":0,"sm":0,"sb":-0.0,"k":"19018_0010"}},{"type":"Feature","geometry":{"type":"Point","coordinates":[-100.59858,25.82891]},"properties":{"s":1.6,"a":2.0,"t":0.0,"f":0.0,"fi":0,"c":0.0,"nc":0,"sm":0,"sb":-0.0,"k":"19018_0010"}},{"type":"Feature","geometry":{"type":"Point","coordinates":[-100.59659,25.82982]},"properties":{"s":1.6,"a":2.0,"t":0.0,"f":0.0,"fi":0,"c":0.0,"nc":0,"sm":0,"sb":-0.0,"k":"19018_0010"}},{"type":"Feature","geometry":{"type":"Point","coordinates":[-100.59459,25.82891]},"properties":{"s":1.6,"a":2.0,"t":0.0,"f":0.0,"fi":0,"c":0.0,"nc":0,"sm":0,"sb":-0.0,"k":"19018_0010"}},{"type":"Feature","geometry":{"type":"Point","coordinates":[-100.5926,25.82891]},"properties":{"s":1.6,"a":0.0,"t":2.0,"f":0.0,"fi":0,"c":0.0,"nc":0,"sm":0,"sb":-0.0,"k":"19018_0010"}},{"type":"Feature","geometry":{"type":"Point","coordinates":[-100.59061,25.83072]},"properties":{"s":1.1,"a":0.4,"t":1.0,"f":0.0,"fi":0,"c":0.0,"nc":0,"sm":0,"sb":-0.0,"k":"19018_0010"}},{"type":"Feature","geometry":{"type":"Point","coordinates":[-100.59858,25.83072]},"properties":{"s":1.0,"a":1.2,"t":0.0,"f":0.0,"fi":0,"c":0.0,"nc":0,"sm":0,"sb":-0.0,"k":"19018_0010"}},{"type":"Feature","geometry":{"type":"Point","coordinates":[-100.59758,25.83072]},"properties":{"s":1.0,"a":1.2,"t":0.0,"f":0.0,"fi":0,"c":0.0,"nc":0,"sm":0,"sb":-0.0,"k":"19018_0010"}},{"type":"Feature","geometry":{"type":"Point","coordinates":[-100.59459,25.83072]},"properties":{"s":1.0,"a":1.2,"t":0.0,"f":0.0,"fi":0,"c":0.0,"nc":0,"sm":0,"sb":-0.0,"k":"19018_0010"}},{"type":"Feature","geometry":{"type":"Point","coordinates":[-100.5926,25.82982]},"properties":{"s":0.8,"a":0.0,"t":1.0,"f":0.0,"fi":0,"c":0.0,"nc":0,"sm":0,"sb":-0.0,"k":"19018_0010"}},{"type":"Feature","geometry":{"type":"Point","coordinates":[-100.59659,25.83072]},"properties":{"s":0.7,"a":0.8,"t":0.0,"f":0.0,"fi":0,"c":0.0,"nc":0,"sm":0,"sb":-0.0,"k":"19018_0010"}},{"type":"Feature","geometry":{"type":"Point","coordinates":[-100.58961,25.83072]},"properties":{"s":0.7,"a":0.8,"t":0.0,"f":0.0,"fi":0,"c":0.0,"nc":0,"sm":0,"sb":-0.0,"k":"19018_0010"}},{"type":"Feature","geometry":{"type":"Point","coordinates":[-100.58961,25.83163]},"properties":{"s":0.7,"a":0.8,"t":0.0,"f":0.0,"fi":0,"c":0.0,"nc":0,"sm":0,"sb":-0.0,"k":"19018_0010"}},{"type":"Feature","geometry":{"type":"Point","coordinates":[-100.58861,25.8271]},"properties":{"s":0.7,"a":0.0,"t":0.0,"f":1.0,"fi":3,"c":0.1,"nc":1,"sm":0,"sb":-0.0,"k":"19018_0010"}},{"type":"Feature","geometry":{"type":"Point","coordinates":[-100.58961,25.8271]},"properties":{"s":0.6,"a":0.0,"t":0.0,"f":1.0,"fi":3,"c":0.3,"nc":1,"sm":0,"sb":-0.0,"k":"19018_0010"}},{"type":"Feature","geometry":{"type":"Point","coordinates":[-100.59559,25.83072]},"properties":{"s":0.3,"a":0.4,"t":0.0,"f":0.0,"fi":0,"c":0.0,"nc":0,"sm":0,"sb":-0.0,"k":"19018_0010"}},{"type":"Feature","geometry":{"type":"Point","coordinates":[-100.63646,25.8072]},"properties":{"s":4.2,"a":4.9,"t":0.0,"f":0.0,"fi":0,"c":0.0,"nc":0,"sm":0,"sb":0.0,"k":"19018_0055"}},{"type":"Feature","geometry":{"type":"Point","coordinates":[-100.63447,25.8063]},"properties":{"s":4.0,"a":3.6,"t":0.0,"f":1.0,"fi":3,"c":0.0,"nc":0,"sm":0,"sb":0.0,"k":"19018_0055"}},{"type":"Feature","geometry":{"type":"Point","coordinates":[-100.63547,25.80991]},"properties":{"s":3.5,"a":3.0,"t":1.0,"f":0.0,"fi":0,"c":0.0,"nc":0,"sm":0,"sb":0.0,"k":"19018_0055"}},{"type":"Feature","geometry":{"type":"Point","coordinates":[-100.63646,25.80991]},"properties":{"s":3.3,"a":3.8,"t":0.0,"f":0.0,"fi":0,"c":0.0,"nc":0,"sm":0,"sb":0.0,"k":"19018_0055"}},{"type":"Feature","geometry":{"type":"Point","coordinates":[-100.63646,25.80811]},"properties":{"s":2.9,"a":3.4,"t":0.0,"f":0.0,"fi":0,"c":0.0,"nc":0,"sm":0,"sb":0.0,"k":"19018_0055"}},{"type":"Feature","geometry":{"type":"Point","coordinates":[-100.63646,25.80901]},"properties":{"s":2.9,"a":3.4,"t":0.0,"f":0.0,"fi":0,"c":0.0,"nc":0,"sm":0,"sb":0.0,"k":"19018_0055"}},{"type":"Feature","geometry":{"type":"Point","coordinates":[-100.63547,25.8072]},"properties":{"s":2.9,"a":3.4,"t":0.0,"f":0.0,"fi":0,"c":0.0,"nc":0,"sm":0,"sb":0.0,"k":"19018_0055"}},{"type":"Feature","geometry":{"type":"Point","coordinates":[-100.63547,25.80901]},"properties":{"s":2.6,"a":3.0,"t":0.0,"f":0.0,"fi":0,"c":0.0,"nc":0,"sm":0,"sb":0.0,"k":"19018_0055"}},{"type":"Feature","geometry":{"type":"Point","coordinates":[-100.63547,25.81082]},"properties":{"s":2.6,"a":2.0,"t":1.0,"f":0.0,"fi":0,"c":0.0,"nc":0,"sm":0,"sb":0.0,"k":"19018_0055"}},{"type":"Feature","geometry":{"type":"Point","coordinates":[-100.63846,25.80901]},"properties":{"s":2.4,"a":2.8,"t":0.0,"f":0.0,"fi":0,"c":0.0,"nc":0,"sm":0,"sb":0.0,"k":"19018_0055"}},{"type":"Feature","geometry":{"type":"Point","coordinates":[-100.63746,25.80811]},"properties":{"s":2.4,"a":2.8,"t":0.0,"f":0.0,"fi":0,"c":0.0,"nc":0,"sm":0,"sb":0.0,"k":"19018_0055"}},{"type":"Feature","geometry":{"type":"Point","coordinates":[-100.63746,25.80991]},"properties":{"s":2.4,"a":2.8,"t":0.0,"f":0.0,"fi":0,"c":0.0,"nc":0,"sm":0,"sb":0.0,"k":"19018_0055"}},{"type":"Feature","geometry":{"type":"Point","coordinates":[-100.63447,25.8072]},"properties":{"s":2.4,"a":1.8,"t":1.0,"f":0.0,"fi":0,"c":0.0,"nc":0,"sm":0,"sb":0.0,"k":"19018_0055"}},{"type":"Feature","geometry":{"type":"Point","coordinates":[-100.63447,25.80901]},"properties":{"s":2.2,"a":2.6,"t":0.0,"f":0.0,"fi":0,"c":0.0,"nc":0,"sm":0,"sb":0.0,"k":"19018_0055"}},{"type":"Feature","geometry":{"type":"Point","coordinates":[-100.63746,25.80901]},"properties":{"s":2.1,"a":2.4,"t":0.0,"f":0.0,"fi":0,"c":0.0,"nc":0,"sm":0,"sb":0.0,"k":"19018_0055"}},{"type":"Feature","geometry":{"type":"Point","coordinates":[-100.63447,25.80991]},"properties":{"s":2.1,"a":2.4,"t":0.0,"f":0.0,"fi":0,"c":0.0,"nc":0,"sm":0,"sb":0.0,"k":"19018_0055"}},{"type":"Feature","geometry":{"type":"Point","coordinates":[-100.63547,25.80811]},"properties":{"s":1.9,"a":2.2,"t":0.0,"f":0.0,"fi":0,"c":0.0,"nc":0,"sm":0,"sb":0.0,"k":"19018_0055"}},{"type":"Feature","geometry":{"type":"Point","coordinates":[-100.63447,25.80811]},"properties":{"s":1.9,"a":2.2,"t":0.0,"f":0.0,"fi":0,"c":0.0,"nc":0,"sm":0,"sb":0.0,"k":"19018_0055"}},{"type":"Feature","geometry":{"type":"Point","coordinates":[-100.63347,25.80811]},"properties":{"s":1.6,"a":0.8,"t":0.0,"f":1.0,"fi":3,"c":0.0,"nc":0,"sm":0,"sb":0.0,"k":"19018_0055"}},{"type":"Feature","geometry":{"type":"Point","coordinates":[-100.63248,25.80901]},"properties":{"s":1.2,"a":0.4,"t":0.0,"f":1.0,"fi":3,"c":0.0,"nc":0,"sm":0,"sb":0.0,"k":"19018_0055"}},{"type":"Feature","geometry":{"type":"Point","coordinates":[-100.63846,25.80991]},"properties":{"s":1.0,"a":1.2,"t":0.0,"f":0.0,"fi":0,"c":0.0,"nc":0,"sm":0,"sb":0.0,"k":"19018_0055"}},{"type":"Feature","geometry":{"type":"Point","coordinates":[-100.63846,25.81082]},"properties":{"s":1.0,"a":1.2,"t":0.0,"f":0.0,"fi":0,"c":0.0,"nc":0,"sm":0,"sb":0.0,"k":"19018_0055"}},{"type":"Feature","geometry":{"type":"Point","coordinates":[-100.63347,25.80901]},"properties":{"s":1.0,"a":1.2,"t":0.0,"f":0.0,"fi":0,"c":0.0,"nc":0,"sm":0,"sb":0.0,"k":"19018_0055"}},{"type":"Feature","geometry":{"type":"Point","coordinates":[-100.60257,25.79906]},"properties":{"s":10.0,"a":9.5,"t":0.0,"f":1.0,"fi":3,"c":0.0,"nc":0,"sm":0,"sb":0.0,"k":"19018_0077"}},{"type":"Feature","geometry":{"type":"Point","coordinates":[-100.60257,25.79815]},"properties":{"s":8.8,"a":8.3,"t":0.0,"f":1.0,"fi":3,"c":0.0,"nc":0,"sm":0,"sb":0.0,"k":"19018_0077"}},{"type":"Feature","geometry":{"type":"Point","coordinates":[-100.60157,25.79906]},"properties":{"s":8.0,"a":8.5,"t":0.0,"f":0.0,"fi":0,"c":0.0,"nc":0,"sm":0,"sb":0.0,"k":"19018_0077"}},{"type":"Feature","geometry":{"type":"Point","coordinates":[-100.60157,25.79815]},"properties":{"s":7.4,"a":6.8,"t":0.0,"f":1.0,"fi":3,"c":0.0,"nc":0,"sm":0,"sb":0.0,"k":"19018_0077"}},{"type":"Feature","geometry":{"type":"Point","coordinates":[-100.60357,25.79906]},"properties":{"s":7.1,"a":6.5,"t":0.0,"f":1.0,"fi":3,"c":0.0,"nc":0,"sm":0,"sb":0.0,"k":"19018_0077"}},{"type":"Feature","geometry":{"type":"Point","coordinates":[-100.60157,25.79725]},"properties":{"s":7.0,"a":7.4,"t":0.0,"f":0.0,"fi":0,"c":0.0,"nc":0,"sm":0,"sb":0.0,"k":"19018_0077"}},{"type":"Feature","geometry":{"type":"Point","coordinates":[-100.60357,25.79815]},"properties":{"s":6.5,"a":6.8,"t":0.0,"f":0.0,"fi":0,"c":0.0,"nc":0,"sm":0,"sb":0.0,"k":"19018_0077"}},{"type":"Feature","geometry":{"type":"Point","coordinates":[-100.60057,25.79725]},"properties":{"s":6.5,"a":5.9,"t":0.0,"f":1.0,"fi":3,"c":0.0,"nc":0,"sm":0,"sb":0.0,"k":"19018_0077"}},{"type":"Feature","geometry":{"type":"Point","coordinates":[-100.60456,25.79906]},"properties":{"s":6.4,"a":5.7,"t":0.0,"f":1.0,"fi":3,"c":0.0,"nc":0,"sm":0,"sb":0.0,"k":"19018_0077"}},{"type":"Feature","geometry":{"type":"Point","coordinates":[-100.60456,25.79815]},"properties":{"s":5.1,"a":4.9,"t":0.0,"f":0.5,"fi":2,"c":0.0,"nc":0,"sm":0,"sb":0.0,"k":"19018_0077"}},{"type":"Feature","geometry":{"type":"Point","coordinates":[-100.60357,25.80087]},"properties":{"s":5.1,"a":5.2,"t":0.0,"f":0.5,"fi":2,"c":0.3,"nc":1,"sm":0,"sb":0.0,"k":"19018_0077"}},{"type":"Feature","geometry":{"type":"Point","coordinates":[-100.59958,25.79815]},"properties":{"s":5.1,"a":5.4,"t":0.0,"f":0.0,"fi":0,"c":0.0,"nc":0,"sm":0,"sb":0.0,"k":"19018_0077"}},{"type":"Feature","geometry":{"type":"Point","coordinates":[-100.59958,25.79906]},"properties":{"s":4.6,"a":4.9,"t":0.0,"f":0.0,"fi":0,"c":0.0,"nc":0,"sm":0,"sb":0.0,"k":"19018_0077"}},{"type":"Feature","geometry":{"type":"Point","coordinates":[-100.60057,25.79906]},"properties":{"s":4.0,"a":4.2,"t":0.0,"f":0.0,"fi":0,"c":0.0,"nc":0,"sm":0,"sb":0.0,"k":"19018_0077"}},{"type":"Feature","geometry":{"type":"Point","coordinates":[-100.60057,25.79815]},"properties":{"s":3.8,"a":2.9,"t":0.0,"f":1.0,"fi":3,"c":0.0,"nc":0,"sm":0,"sb":0.0,"k":"19018_0077"}},{"type":"Feature","geometry":{"type":"Point","coordinates":[-100.60157,25.79996]},"properties":{"s":3.5,"a":3.7,"t":0.0,"f":0.0,"fi":0,"c":0.0,"nc":0,"sm":0,"sb":0.0,"k":"19018_0077"}},{"type":"Feature","geometry":{"type":"Point","coordinates":[-100.60357,25.79996]},"properties":{"s":2.7,"a":2.8,"t":0.0,"f":0.0,"fi":0,"c":0.0,"nc":0,"sm":0,"sb":0.0,"k":"19018_0077"}},{"type":"Feature","geometry":{"type":"Point","coordinates":[-100.60257,25.79996]},"properties":{"s":2.3,"a":2.4,"t":0.0,"f":0.0,"fi":0,"c":0.0,"nc":0,"sm":0,"sb":0.0,"k":"19018_0077"}},{"type":"Feature","geometry":{"type":"Point","coordinates":[-100.5916,25.82348]},"properties":{"s":3.7,"a":5.2,"t":1.0,"f":0.0,"fi":0,"c":0.6,"nc":1,"sm":0,"sb":0.0,"k":"19018_0076"}},{"type":"Feature","geometry":{"type":"Point","coordinates":[-100.5916,25.82439]},"properties":{"s":3.3,"a":5.0,"t":1.0,"f":0.0,"fi":0,"c":0.9,"nc":1,"sm":0,"sb":0.0,"k":"19018_0076"}},{"type":"Feature","geometry":{"type":"Point","coordinates":[-100.58761,25.82439]},"properties":{"s":2.8,"a":3.9,"t":2.0,"f":0.0,"fi":0,"c":1.7,"nc":1,"sm":0,"sb":0.0,"k":"19018_0076"}},{"type":"Feature","geometry":{"type":"Point","coordinates":[-100.59459,25.82348]},"properties":{"s":2.7,"a":4.1,"t":0.0,"f":0.0,"fi":0,"c":0.0,"nc":0,"sm":0,"sb":0.0,"k":"19018_0076"}},{"type":"Feature","geometry":{"type":"Point","coordinates":[-100.59559,25.82439]},"properties":{"s":2.5,"a":2.8,"t":1.0,"f":0.0,"fi":0,"c":0.0,"nc":0,"sm":0,"sb":0.0,"k":"19018_0076"}},{"type":"Feature","geometry":{"type":"Point","coordinates":[-100.5936,25.82348]},"properties":{"s":2.4,"a":3.6,"t":0.0,"f":0.0,"fi":0,"c":0.0,"nc":0,"sm":0,"sb":0.0,"k":"19018_0076"}},{"type":"Feature","geometry":{"type":"Point","coordinates":[-100.5936,25.82439]},"properties":{"s":2.4,"a":3.7,"t":0.0,"f":0.0,"fi":0,"c":0.0,"nc":0,"sm":0,"sb":0.0,"k":"19018_0076"}},{"type":"Feature","geometry":{"type":"Point","coordinates":[-100.5926,25.82439]},"properties":{"s":2.3,"a":2.5,"t":1.0,"f":0.0,"fi":0,"c":0.0,"nc":0,"sm":0,"sb":0.0,"k":"19018_0076"}},{"type":"Feature","geometry":{"type":"Point","coordinates":[-100.59061,25.82439]},"properties":{"s":2.2,"a":4.6,"t":1.0,"f":0.0,"fi":0,"c":2.3,"nc":1,"sm":0,"sb":0.0,"k":"19018_0076"}},{"type":"Feature","geometry":{"type":"Point","coordinates":[-100.59459,25.82439]},"properties":{"s":2.1,"a":3.2,"t":0.0,"f":0.0,"fi":0,"c":0.0,"nc":0,"sm":0,"sb":0.0,"k":"19018_0076"}},{"type":"Feature","geometry":{"type":"Point","coordinates":[-100.5926,25.82348]},"properties":{"s":2.0,"a":2.0,"t":1.0,"f":0.0,"fi":0,"c":0.0,"nc":0,"sm":0,"sb":0.0,"k":"19018_0076"}},{"type":"Feature","geometry":{"type":"Point","coordinates":[-100.59559,25.82348]},"properties":{"s":1.9,"a":2.8,"t":0.0,"f":0.0,"fi":0,"c":0.0,"nc":0,"sm":0,"sb":0.0,"k":"19018_0076"}},{"type":"Feature","geometry":{"type":"Point","coordinates":[-100.59061,25.82348]},"properties":{"s":1.8,"a":4.3,"t":0.0,"f":0.0,"fi":0,"c":1.7,"nc":1,"sm":0,"sb":0.0,"k":"19018_0076"}},{"type":"Feature","geometry":{"type":"Point","coordinates":[-100.58961,25.82348]},"properties":{"s":1.8,"a":5.1,"t":0.0,"f":0.0,"fi":0,"c":2.4,"nc":1,"sm":0,"sb":0.0,"k":"19018_0076"}},{"type":"Feature","geometry":{"type":"Point","coordinates":[-100.59459,25.82529]},"properties":{"s":1.6,"a":2.4,"t":0.0,"f":0.0,"fi":0,"c":0.0,"nc":0,"sm":0,"sb":0.0,"k":"19018_0076"}},{"type":"Feature","geometry":{"type":"Point","coordinates":[-100.58861,25.82529]},"properties":{"s":1.3,"a":3.5,"t":1.0,"f":0.0,"fi":0,"c":2.6,"nc":1,"sm":0,"sb":0.0,"k":"19018_0076"}},{"type":"Feature","geometry":{"type":"Point","coordinates":[-100.59659,25.82348]},"properties":{"s":1.2,"a":0.8,"t":1.0,"f":0.0,"fi":0,"c":0.0,"nc":0,"sm":0,"sb":0.0,"k":"19018_0076"}},{"type":"Feature","geometry":{"type":"Point","coordinates":[-100.59659,25.82439]},"properties":{"s":1.2,"a":0.8,"t":1.0,"f":0.0,"fi":0,"c":0.0,"nc":0,"sm":0,"sb":0.0,"k":"19018_0076"}},{"type":"Feature","geometry":{"type":"Point","coordinates":[-100.5916,25.82258]},"properties":{"s":1.2,"a":1.8,"t":0.0,"f":0.0,"fi":0,"c":0.0,"nc":0,"sm":0,"sb":0.0,"k":"19018_0076"}},{"type":"Feature","geometry":{"type":"Point","coordinates":[-100.5916,25.82529]},"properties":{"s":1.2,"a":2.5,"t":0.0,"f":0.0,"fi":0,"c":0.8,"nc":1,"sm":0,"sb":0.0,"k":"19018_0076"}},{"type":"Feature","geometry":{"type":"Point","coordinates":[-100.59559,25.82529]},"properties":{"s":1.1,"a":1.6,"t":0.0,"f":0.0,"fi":0,"c":0.0,"nc":0,"sm":0,"sb":0.0,"k":"19018_0076"}},{"type":"Feature","geometry":{"type":"Point","coordinates":[-100.5926,25.82529]},"properties":{"s":1.1,"a":1.6,"t":0.0,"f":0.0,"fi":0,"c":0.0,"nc":0,"sm":0,"sb":0.0,"k":"19018_0076"}},{"type":"Feature","geometry":{"type":"Point","coordinates":[-100.58961,25.82439]},"properties":{"s":1.0,"a":4.1,"t":1.0,"f":0.0,"fi":0,"c":3.5,"nc":1,"sm":0,"sb":0.0,"k":"19018_0076"}},{"type":"Feature","geometry":{"type":"Point","coordinates":[-100.58861,25.82439]},"properties":{"s":1.0,"a":3.5,"t":1.0,"f":0.0,"fi":0,"c":3.0,"nc":1,"sm":0,"sb":0.0,"k":"19018_0076"}},{"type":"Feature","geometry":{"type":"Point","coordinates":[-100.58761,25.82348]},"properties":{"s":1.0,"a":2.7,"t":0.0,"f":0.0,"fi":0,"c":1.2,"nc":1,"sm":0,"sb":0.0,"k":"19018_0076"}},{"type":"Feature","geometry":{"type":"Point","coordinates":[-100.59061,25.82529]},"properties":{"s":0.9,"a":3.4,"t":0.0,"f":0.0,"fi":0,"c":2.0,"nc":1,"sm":0,"sb":0.0,"k":"19018_0076"}},{"type":"Feature","geometry":{"type":"Point","coordinates":[-100.58861,25.82348]},"properties":{"s":0.9,"a":3.5,"t":0.0,"f":0.0,"fi":0,"c":2.1,"nc":1,"sm":0,"sb":0.0,"k":"19018_0076"}},{"type":"Feature","geometry":{"type":"Point","coordinates":[-100.59559,25.82258]},"properties":{"s":0.8,"a":1.2,"t":0.0,"f":0.0,"fi":0,"c":0.0,"nc":0,"sm":0,"sb":0.0,"k":"19018_0076"}},{"type":"Feature","geometry":{"type":"Point","coordinates":[-100.5936,25.82258]},"properties":{"s":0.8,"a":1.2,"t":0.0,"f":0.0,"fi":0,"c":0.0,"nc":0,"sm":0,"sb":0.0,"k":"19018_0076"}},{"type":"Feature","geometry":{"type":"Point","coordinates":[-100.59758,25.82439]},"properties":{"s":0.7,"a":1.0,"t":0.0,"f":0.0,"fi":0,"c":0.0,"nc":0,"sm":0,"sb":0.0,"k":"19018_0076"}},{"type":"Feature","geometry":{"type":"Point","coordinates":[-100.59459,25.82258]},"properties":{"s":0.5,"a":0.8,"t":0.0,"f":0.0,"fi":0,"c":0.0,"nc":0,"sm":0,"sb":0.0,"k":"19018_0076"}},{"type":"Feature","geometry":{"type":"Point","coordinates":[-100.5936,25.82529]},"properties":{"s":0.5,"a":0.8,"t":0.0,"f":0.0,"fi":0,"c":0.0,"nc":0,"sm":0,"sb":0.0,"k":"19018_0076"}},{"type":"Feature","geometry":{"type":"Point","coordinates":[-100.59061,25.82258]},"properties":{"s":0.5,"a":1.4,"t":0.0,"f":0.0,"fi":0,"c":0.6,"nc":1,"sm":0,"sb":0.0,"k":"19018_0076"}},{"type":"Feature","geometry":{"type":"Point","coordinates":[-100.59659,25.82168]},"properties":{"s":0.3,"a":0.4,"t":0.0,"f":0.0,"fi":0,"c":0.0,"nc":0,"sm":0,"sb":0.0,"k":"19018_0076"}},{"type":"Feature","geometry":{"type":"Point","coordinates":[-100.59659,25.82258]},"properties":{"s":0.3,"a":0.4,"t":0.0,"f":0.0,"fi":0,"c":0.0,"nc":0,"sm":0,"sb":0.0,"k":"19018_0076"}},{"type":"Feature","geometry":{"type":"Point","coordinates":[-100.5926,25.82258]},"properties":{"s":0.3,"a":0.4,"t":0.0,"f":0.0,"fi":0,"c":0.0,"nc":0,"sm":0,"sb":0.0,"k":"19018_0076"}},{"type":"Feature","geometry":{"type":"Point","coordinates":[-100.61254,25.81534]},"properties":{"s":4.3,"a":5.3,"t":0.0,"f":0.0,"fi":0,"c":0.0,"nc":0,"sm":0,"sb":-0.0,"k":"19018_0003"}},{"type":"Feature","geometry":{"type":"Point","coordinates":[-100.61453,25.81625]},"properties":{"s":4.2,"a":5.2,"t":0.0,"f":0.0,"fi":0,"c":0.0,"nc":0,"sm":0,"sb":-0.0,"k":"19018_0003"}},{"type":"Feature","geometry":{"type":"Point","coordinates":[-100.61254,25.81715]},"properties":{"s":3.5,"a":4.3,"t":0.0,"f":0.0,"fi":0,"c":0.0,"nc":0,"sm":0,"sb":-0.0,"k":"19018_0003"}},{"type":"Feature","geometry":{"type":"Point","coordinates":[-100.61852,25.81715]},"properties":{"s":1.9,"a":0.8,"t":1.0,"f":0.5,"fi":2,"c":0.0,"nc":0,"sm":0,"sb":-0.0,"k":"19018_0003"}},{"type":"Feature","geometry":{"type":"Point","coordinates":[-100.60955,25.81353]},"properties":{"s":1.6,"a":1.5,"t":0.0,"f":0.5,"fi":2,"c":0.0,"nc":0,"sm":0,"sb":-0.0,"k":"19018_0003"}},{"type":"Feature","geometry":{"type":"Point","coordinates":[-100.60855,25.81353]},"properties":{"s":1.6,"a":1.5,"t":0.0,"f":0.5,"fi":2,"c":0.0,"nc":0,"sm":0,"sb":-0.0,"k":"19018_0003"}},{"type":"Feature","geometry":{"type":"Point","coordinates":[-100.60755,25.81353]},"properties":{"s":1.6,"a":1.5,"t":0.0,"f":0.5,"fi":2,"c":0.0,"nc":0,"sm":0,"sb":-0.0,"k":"19018_0003"}},{"type":"Feature","geometry":{"type":"Point","coordinates":[-100.61852,25.81625]},"properties":{"s":1.5,"a":1.4,"t":0.0,"f":0.5,"fi":2,"c":0.0,"nc":0,"sm":0,"sb":-0.0,"k":"19018_0003"}},{"type":"Feature","geometry":{"type":"Point","coordinates":[-100.61453,25.81263]},"properties":{"s":1.4,"a":1.2,"t":0.0,"f":0.5,"fi":2,"c":0.0,"nc":0,"sm":0,"sb":-0.0,"k":"19018_0003"}},{"type":"Feature","geometry":{"type":"Point","coordinates":[-100.61653,25.81806]},"properties":{"s":1.2,"a":1.0,"t":0.0,"f":0.5,"fi":2,"c":0.0,"nc":0,"sm":0,"sb":-0.0,"k":"19018_0003"}},{"type":"Feature","geometry":{"type":"Point","coordinates":[-100.60855,25.81444]},"properties":{"s":1.2,"a":1.5,"t":0.0,"f":0.0,"fi":0,"c":0.0,"nc":0,"sm":0,"sb":-0.0,"k":"19018_0003"}},{"type":"Feature","geometry":{"type":"Point","coordinates":[-100.61752,25.81806]},"properties":{"s":1.1,"a":0.8,"t":0.0,"f":0.5,"fi":2,"c":0.0,"nc":0,"sm":0,"sb":-0.0,"k":"19018_0003"}},{"type":"Feature","geometry":{"type":"Point","coordinates":[-100.61553,25.82439]},"properties":{"s":1.1,"a":1.4,"t":0.0,"f":0.0,"fi":0,"c":0.0,"nc":0,"sm":0,"sb":-0.0,"k":"19018_0003"}},{"type":"Feature","geometry":{"type":"Point","coordinates":[-100.61453,25.81444]},"properties":{"s":1.0,"a":1.2,"t":0.0,"f":0.0,"fi":0,"c":0.0,"nc":0,"sm":0,"sb":-0.0,"k":"19018_0003"}},{"type":"Feature","geometry":{"type":"Point","coordinates":[-100.61254,25.81806]},"properties":{"s":1.0,"a":1.2,"t":0.0,"f":0.0,"fi":0,"c":0.0,"nc":0,"sm":0,"sb":-0.0,"k":"19018_0003"}},{"type":"Feature","geometry":{"type":"Point","coordinates":[-100.61154,25.81715]},"properties":{"s":1.0,"a":1.2,"t":0.0,"f":0.0,"fi":0,"c":0.0,"nc":0,"sm":0,"sb":-0.0,"k":"19018_0003"}},{"type":"Feature","geometry":{"type":"Point","coordinates":[-100.61154,25.81806]},"properties":{"s":1.0,"a":1.2,"t":0.0,"f":0.0,"fi":0,"c":0.0,"nc":0,"sm":0,"sb":-0.0,"k":"19018_0003"}},{"type":"Feature","geometry":{"type":"Point","coordinates":[-100.61752,25.81715]},"properties":{"s":0.8,"a":0.0,"t":1.0,"f":0.0,"fi":0,"c":0.0,"nc":0,"sm":0,"sb":-0.0,"k":"19018_0003"}},{"type":"Feature","geometry":{"type":"Point","coordinates":[-100.61752,25.82439]},"properties":{"s":0.8,"a":0.0,"t":1.0,"f":0.0,"fi":0,"c":0.0,"nc":0,"sm":0,"sb":-0.0,"k":"19018_0003"}},{"type":"Feature","geometry":{"type":"Point","coordinates":[-100.61653,25.82439]},"properties":{"s":0.8,"a":1.0,"t":0.0,"f":0.0,"fi":0,"c":0.0,"nc":0,"sm":0,"sb":-0.0,"k":"19018_0003"}},{"type":"Feature","geometry":{"type":"Point","coordinates":[-100.61553,25.81806]},"properties":{"s":0.8,"a":1.0,"t":0.0,"f":0.0,"fi":0,"c":0.0,"nc":0,"sm":0,"sb":-0.0,"k":"19018_0003"}},{"type":"Feature","geometry":{"type":"Point","coordinates":[-100.60855,25.8262]},"properties":{"s":0.8,"a":0.0,"t":0.0,"f":1.0,"fi":3,"c":0.0,"nc":0,"sm":0,"sb":-0.0,"k":"19018_0003"}},{"type":"Feature","geometry":{"type":"Point","coordinates":[-100.60755,25.8262]},"properties":{"s":0.8,"a":0.0,"t":0.0,"f":1.0,"fi":3,"c":0.0,"nc":0,"sm":0,"sb":-0.0,"k":"19018_0003"}},{"type":"Feature","geometry":{"type":"Point","coordinates":[-100.61553,25.81625]},"properties":{"s":0.6,"a":0.8,"t":0.0,"f":0.0,"fi":0,"c":0.0,"nc":0,"sm":0,"sb":-0.0,"k":"19018_0003"}},{"type":"Feature","geometry":{"type":"Point","coordinates":[-100.61154,25.81625]},"properties":{"s":0.6,"a":0.8,"t":0.0,"f":0.0,"fi":0,"c":0.0,"nc":0,"sm":0,"sb":-0.0,"k":"19018_0003"}},{"type":"Feature","geometry":{"type":"Point","coordinates":[-100.60456,25.82529]},"properties":{"s":0.6,"a":0.8,"t":0.0,"f":0.0,"fi":0,"c":0.0,"nc":0,"sm":0,"sb":-0.0,"k":"19018_0003"}},{"type":"Feature","geometry":{"type":"Point","coordinates":[-100.61353,25.81263]},"properties":{"s":0.4,"a":0.0,"t":0.0,"f":0.5,"fi":2,"c":0.0,"nc":0,"sm":0,"sb":-0.0,"k":"19018_0003"}},{"type":"Feature","geometry":{"type":"Point","coordinates":[-100.61254,25.81353]},"properties":{"s":0.4,"a":0.0,"t":0.0,"f":0.5,"fi":2,"c":0.0,"nc":0,"sm":0,"sb":-0.0,"k":"19018_0003"}},{"type":"Feature","geometry":{"type":"Point","coordinates":[-100.61154,25.81353]},"properties":{"s":0.4,"a":0.0,"t":0.0,"f":0.5,"fi":2,"c":0.0,"nc":0,"sm":0,"sb":-0.0,"k":"19018_0003"}},{"type":"Feature","geometry":{"type":"Point","coordinates":[-100.61054,25.81353]},"properties":{"s":0.4,"a":0.0,"t":0.0,"f":0.5,"fi":2,"c":0.0,"nc":0,"sm":0,"sb":-0.0,"k":"19018_0003"}},{"type":"Feature","geometry":{"type":"Point","coordinates":[-100.61653,25.81534]},"properties":{"s":0.3,"a":0.4,"t":0.0,"f":0.0,"fi":0,"c":0.0,"nc":0,"sm":0,"sb":-0.0,"k":"19018_0003"}},{"type":"Feature","geometry":{"type":"Point","coordinates":[-100.61553,25.81534]},"properties":{"s":0.3,"a":0.4,"t":0.0,"f":0.0,"fi":0,"c":0.0,"nc":0,"sm":0,"sb":-0.0,"k":"19018_0003"}},{"type":"Feature","geometry":{"type":"Point","coordinates":[-100.61553,25.81715]},"properties":{"s":0.3,"a":0.4,"t":0.0,"f":0.0,"fi":0,"c":0.0,"nc":0,"sm":0,"sb":-0.0,"k":"19018_0003"}},{"type":"Feature","geometry":{"type":"Point","coordinates":[-100.61453,25.81715]},"properties":{"s":0.3,"a":0.4,"t":0.0,"f":0.0,"fi":0,"c":0.0,"nc":0,"sm":0,"sb":-0.0,"k":"19018_0003"}},{"type":"Feature","geometry":{"type":"Point","coordinates":[-100.61453,25.82348]},"properties":{"s":0.3,"a":0.4,"t":0.0,"f":0.0,"fi":0,"c":0.0,"nc":0,"sm":0,"sb":-0.0,"k":"19018_0003"}},{"type":"Feature","geometry":{"type":"Point","coordinates":[-100.61353,25.81806]},"properties":{"s":0.3,"a":0.4,"t":0.0,"f":0.0,"fi":0,"c":0.0,"nc":0,"sm":0,"sb":-0.0,"k":"19018_0003"}},{"type":"Feature","geometry":{"type":"Point","coordinates":[-100.61254,25.81444]},"properties":{"s":0.3,"a":0.4,"t":0.0,"f":0.0,"fi":0,"c":0.0,"nc":0,"sm":0,"sb":-0.0,"k":"19018_0003"}},{"type":"Feature","geometry":{"type":"Point","coordinates":[-100.61054,25.81625]},"properties":{"s":0.3,"a":0.4,"t":0.0,"f":0.0,"fi":0,"c":0.0,"nc":0,"sm":0,"sb":-0.0,"k":"19018_0003"}},{"type":"Feature","geometry":{"type":"Point","coordinates":[-100.61054,25.81715]},"properties":{"s":0.3,"a":0.4,"t":0.0,"f":0.0,"fi":0,"c":0.0,"nc":0,"sm":0,"sb":-0.0,"k":"19018_0003"}},{"type":"Feature","geometry":{"type":"Point","coordinates":[-100.61054,25.81806]},"properties":{"s":0.3,"a":0.4,"t":0.0,"f":0.0,"fi":0,"c":0.0,"nc":0,"sm":0,"sb":-0.0,"k":"19018_0003"}},{"type":"Feature","geometry":{"type":"Point","coordinates":[-100.60556,25.82348]},"properties":{"s":0.3,"a":0.4,"t":0.0,"f":0.0,"fi":0,"c":0.0,"nc":0,"sm":0,"sb":-0.0,"k":"19018_0003"}},{"type":"Feature","geometry":{"type":"Point","coordinates":[-100.60556,25.82439]},"properties":{"s":0.3,"a":0.4,"t":0.0,"f":0.0,"fi":0,"c":0.0,"nc":0,"sm":0,"sb":-0.0,"k":"19018_0003"}},{"type":"Feature","geometry":{"type":"Point","coordinates":[-100.60556,25.82529]},"properties":{"s":0.3,"a":0.4,"t":0.0,"f":0.0,"fi":0,"c":0.0,"nc":0,"sm":0,"sb":-0.0,"k":"19018_0003"}},{"type":"Feature","geometry":{"type":"Point","coordinates":[-100.60456,25.8262]},"properties":{"s":0.3,"a":0.4,"t":0.0,"f":0.0,"fi":0,"c":0.0,"nc":0,"sm":0,"sb":-0.0,"k":"19018_0003"}}]}