{"type":"FeatureCollection","features":[{"type":"Feature","geometry":{"type":"Point","coordinates":[-100.463,25.69955]},"properties":{"s":15.6,"a":14.7,"t":1.0,"f":0.0,"fi":0,"c":0.4,"nc":1,"sm":0,"sb":0.0,"k":"19048_0220"}},{"type":"Feature","geometry":{"type":"Point","coordinates":[-100.462,25.69955]},"properties":{"s":14.5,"a":11.7,"t":2.0,"f":0.5,"fi":2,"c":0.0,"nc":0,"sm":0,"sb":0.0,"k":"19048_0220"}},{"type":"Feature","geometry":{"type":"Point","coordinates":[-100.462,25.70045]},"properties":{"s":12.4,"a":10.7,"t":1.0,"f":0.5,"fi":2,"c":0.0,"nc":0,"sm":0,"sb":0.0,"k":"19048_0220"}},{"type":"Feature","geometry":{"type":"Point","coordinates":[-100.463,25.69864]},"properties":{"s":12.1,"a":12.1,"t":0.0,"f":0.0,"fi":0,"c":0.2,"nc":1,"sm":0,"sb":0.0,"k":"19048_0220"}},{"type":"Feature","geometry":{"type":"Point","coordinates":[-100.461,25.70045]},"properties":{"s":11.0,"a":9.8,"t":1.0,"f":0.0,"fi":0,"c":0.0,"nc":0,"sm":0,"sb":0.0,"k":"19048_0220"}},{"type":"Feature","geometry":{"type":"Point","coordinates":[-100.462,25.70136]},"properties":{"s":9.6,"a":9.6,"t":0.0,"f":0.0,"fi":0,"c":0.2,"nc":1,"sm":0,"sb":0.0,"k":"19048_0220"}},{"type":"Feature","geometry":{"type":"Point","coordinates":[-100.462,25.69774]},"properties":{"s":8.8,"a":8.7,"t":0.0,"f":0.0,"fi":0,"c":0.0,"nc":0,"sm":0,"sb":0.0,"k":"19048_0220"}},{"type":"Feature","geometry":{"type":"Point","coordinates":[-100.463,25.69774]},"properties":{"s":8.0,"a":8.1,"t":0.0,"f":0.5,"fi":2,"c":0.7,"nc":1,"sm":0,"sb":0.0,"k":"19048_0220"}},{"type":"Feature","geometry":{"type":"Point","coordinates":[-100.46001,25.70226]},"properties":{"s":7.9,"a":7.7,"t":0.0,"f":0.0,"fi":0,"c":0.0,"nc":0,"sm":0,"sb":0.0,"k":"19048_0220"}},{"type":"Feature","geometry":{"type":"Point","coordinates":[-100.463,25.69593]},"properties":{"s":7.2,"a":5.7,"t":1.0,"f":0.5,"fi":2,"c":0.2,"nc":1,"sm":0,"sb":0.0,"k":"19048_0220"}},{"type":"Feature","geometry":{"type":"Point","coordinates":[-100.46001,25.69864]},"properties":{"s":7.2,"a":6.7,"t":0.0,"f":0.5,"fi":2,"c":0.1,"nc":1,"sm":0,"sb":0.0,"k":"19048_0220"}},{"type":"Feature","geometry":{"type":"Point","coordinates":[-100.462,25.69864]},"properties":{"s":7.1,"a":6.4,"t":0.0,"f":0.5,"fi":2,"c":0.0,"nc":0,"sm":0,"sb":0.0,"k":"19048_0220"}},{"type":"Feature","geometry":{"type":"Point","coordinates":[-100.45702,25.69774]},"properties":{"s":6.9,"a":5.3,"t":1.0,"f":0.5,"fi":2,"c":0.0,"nc":1,"sm":0,"sb":0.0,"k":"19048_0220"}},{"type":"Feature","geometry":{"type":"Point","coordinates":[-100.461,25.70136]},"properties":{"s":6.8,"a":6.7,"t":0.0,"f":0.0,"fi":0,"c":0.0,"nc":0,"sm":0,"sb":0.0,"k":"19048_0220"}},{"type":"Feature","geometry":{"type":"Point","coordinates":[-100.462,25.69683]},"properties":{"s":6.7,"a":6.9,"t":0.0,"f":0.0,"fi":0,"c":0.3,"nc":1,"sm":0,"sb":0.0,"k":"19048_0220"}},{"type":"Feature","geometry":{"type":"Point","coordinates":[-100.461,25.69864]},"properties":{"s":6.6,"a":6.5,"t":0.0,"f":0.0,"fi":0,"c":0.0,"nc":0,"sm":0,"sb":0.0,"k":"19048_0220"}},{"type":"Feature","geometry":{"type":"Point","coordinates":[-100.463,25.69502]},"properties":{"s":6.5,"a":5.4,"t":0.0,"f":1.0,"fi":3,"c":0.0,"nc":0,"sm":0,"sb":0.0,"k":"19048_0220"}},{"type":"Feature","geometry":{"type":"Point","coordinates":[-100.461,25.69502]},"properties":{"s":6.4,"a":7.1,"t":0.0,"f":0.5,"fi":2,"c":1.3,"nc":1,"sm":0,"sb":0.0,"k":"19048_0220"}},{"type":"Feature","geometry":{"type":"Point","coordinates":[-100.461,25.69955]},"properties":{"s":6.4,"a":4.8,"t":1.0,"f":0.5,"fi":2,"c":0.0,"nc":0,"sm":0,"sb":0.0,"k":"19048_0220"}},{"type":"Feature","geometry":{"type":"Point","coordinates":[-100.45901,25.69864]},"properties":{"s":6.4,"a":5.9,"t":0.0,"f":0.5,"fi":2,"c":0.2,"nc":1,"sm":0,"sb":0.0,"k":"19048_0220"}},{"type":"Feature","geometry":{"type":"Point","coordinates":[-100.464,25.69502]},"properties":{"s":6.3,"a":5.2,"t":0.0,"f":1.0,"fi":3,"c":0.1,"nc":1,"sm":0,"sb":0.0,"k":"19048_0220"}},{"type":"Feature","geometry":{"type":"Point","coordinates":[-100.464,25.69683]},"properties":{"s":6.3,"a":6.7,"t":1.0,"f":0.5,"fi":2,"c":1.9,"nc":1,"sm":0,"sb":0.0,"k":"19048_0220"}},{"type":"Feature","geometry":{"type":"Point","coordinates":[-100.463,25.69683]},"properties":{"s":6.3,"a":5.3,"t":1.0,"f":0.5,"fi":2,"c":0.7,"nc":1,"sm":0,"sb":0.0,"k":"19048_0220"}},{"type":"Feature","geometry":{"type":"Point","coordinates":[-100.45801,25.69864]},"properties":{"s":6.3,"a":5.7,"t":0.0,"f":0.5,"fi":2,"c":0.0,"nc":0,"sm":0,"sb":0.0,"k":"19048_0220"}},{"type":"Feature","geometry":{"type":"Point","coordinates":[-100.46001,25.69502]},"properties":{"s":6.0,"a":6.7,"t":1.0,"f":0.5,"fi":2,"c":2.3,"nc":2,"sm":0,"sb":0.0,"k":"19048_0220"}},{"type":"Feature","geometry":{"type":"Point","coordinates":[-100.46001,25.70136]},"properties":{"s":5.7,"a":5.6,"t":0.0,"f":0.0,"fi":0,"c":0.0,"nc":0,"sm":0,"sb":0.0,"k":"19048_0220"}},{"type":"Feature","geometry":{"type":"Point","coordinates":[-100.461,25.69412]},"properties":{"s":5.6,"a":3.8,"t":1.0,"f":1.0,"fi":3,"c":0.4,"nc":1,"sm":0,"sb":0.0,"k":"19048_0220"}},{"type":"Feature","geometry":{"type":"Point","coordinates":[-100.461,25.70226]},"properties":{"s":5.4,"a":5.2,"t":0.0,"f":0.0,"fi":0,"c":0.0,"nc":0,"sm":0,"sb":0.0,"k":"19048_0220"}},{"type":"Feature","geometry":{"type":"Point","coordinates":[-100.46001,25.70045]},"properties":{"s":5.4,"a":5.2,"t":0.0,"f":0.0,"fi":0,"c":0.0,"nc":0,"sm":0,"sb":0.0,"k":"19048_0220"}},{"type":"Feature","geometry":{"type":"Point","coordinates":[-100.45702,25.69864]},"properties":{"s":5.4,"a":5.3,"t":0.0,"f":0.0,"fi":0,"c":0.0,"nc":0,"sm":0,"sb":0.0,"k":"19048_0220"}},{"type":"Feature","geometry":{"type":"Point","coordinates":[-100.45901,25.70136]},"properties":{"s":5.2,"a":4.1,"t":1.0,"f":0.0,"fi":0,"c":0.0,"nc":0,"sm":0,"sb":0.0,"k":"19048_0220"}},{"type":"Feature","geometry":{"type":"Point","coordinates":[-100.46001,25.69412]},"properties":{"s":5.1,"a":5.5,"t":1.0,"f":0.5,"fi":2,"c":2.0,"nc":2,"sm":0,"sb":0.0,"k":"19048_0220"}},{"type":"Feature","geometry":{"type":"Point","coordinates":[-100.462,25.69412]},"properties":{"s":5.0,"a":3.9,"t":0.0,"f":1.0,"fi":3,"c":0.0,"nc":0,"sm":0,"sb":0.0,"k":"19048_0220"}},{"type":"Feature","geometry":{"type":"Point","coordinates":[-100.462,25.69593]},"properties":{"s":5.0,"a":4.8,"t":0.0,"f":0.5,"fi":2,"c":0.5,"nc":1,"sm":0,"sb":0.0,"k":"19048_0220"}},{"type":"Feature","geometry":{"type":"Point","coordinates":[-100.45901,25.69955]},"properties":{"s":5.0,"a":4.8,"t":0.0,"f":0.0,"fi":0,"c":0.0,"nc":0,"sm":0,"sb":0.0,"k":"19048_0220"}},{"type":"Feature","geometry":{"type":"Point","coordinates":[-100.45801,25.69774]},"properties":{"s":5.0,"a":5.3,"t":0.0,"f":0.5,"fi":2,"c":0.9,"nc":1,"sm":0,"sb":0.0,"k":"19048_0220"}},{"type":"Feature","geometry":{"type":"Point","coordinates":[-100.464,25.69593]},"properties":{"s":4.6,"a":4.2,"t":1.0,"f":0.5,"fi":2,"c":1.2,"nc":1,"sm":0,"sb":0.0,"k":"19048_0220"}},{"type":"Feature","geometry":{"type":"Point","coordinates":[-100.45801,25.69955]},"properties":{"s":4.6,"a":4.5,"t":0.0,"f":0.0,"fi":0,"c":0.0,"nc":0,"sm":0,"sb":0.0,"k":"19048_0220"}},{"type":"Feature","geometry":{"type":"Point","coordinates":[-100.45901,25.69774]},"properties":{"s":4.5,"a":5.9,"t":0.0,"f":0.0,"fi":0,"c":1.5,"nc":1,"sm":0,"sb":0.0,"k":"19048_0220"}},{"type":"Feature","geometry":{"type":"Point","coordinates":[-100.46001,25.69955]},"properties":{"s":4.2,"a":3.6,"t":0.0,"f":0.5,"fi":2,"c":0.0,"nc":0,"sm":0,"sb":0.0,"k":"19048_0220"}},{"type":"Feature","geometry":{"type":"Point","coordinates":[-100.45901,25.69593]},"properties":{"s":4.1,"a":7.0,"t":0.0,"f":0.5,"fi":2,"c":3.5,"nc":1,"sm":0,"sb":0.0,"k":"19048_0220"}},{"type":"Feature","geometry":{"type":"Point","coordinates":[-100.45901,25.70045]},"properties":{"s":4.1,"a":4.0,"t":0.0,"f":0.0,"fi":0,"c":0.0,"nc":0,"sm":0,"sb":0.0,"k":"19048_0220"}},{"type":"Feature","geometry":{"type":"Point","coordinates":[-100.46499,25.69593]},"properties":{"s":4.0,"a":5.8,"t":0.0,"f":0.0,"fi":0,"c":1.9,"nc":1,"sm":0,"sb":0.0,"k":"19048_0220"}},{"type":"Feature","geometry":{"type":"Point","coordinates":[-100.462,25.69502]},"properties":{"s":3.9,"a":4.0,"t":0.0,"f":0.0,"fi":0,"c":0.2,"nc":1,"sm":0,"sb":0.0,"k":"19048_0220"}},{"type":"Feature","geometry":{"type":"Point","coordinates":[-100.45801,25.70136]},"properties":{"s":3.9,"a":2.8,"t":1.0,"f":0.0,"fi":0,"c":0.0,"nc":0,"sm":0,"sb":0.0,"k":"19048_0220"}},{"type":"Feature","geometry":{"type":"Point","coordinates":[-100.464,25.69774]},"properties":{"s":3.5,"a":5.4,"t":0.0,"f":0.0,"fi":0,"c":2.0,"nc":1,"sm":0,"sb":0.0,"k":"19048_0220"}},{"type":"Feature","geometry":{"type":"Point","coordinates":[-100.45602,25.69955]},"properties":{"s":3.3,"a":3.2,"t":0.0,"f":0.0,"fi":0,"c":0.0,"nc":0,"sm":0,"sb":0.0,"k":"19048_0220"}},{"type":"Feature","geometry":{"type":"Point","coordinates":[-100.45801,25.69683]},"properties":{"s":3.2,"a":5.0,"t":0.0,"f":0.0,"fi":0,"c":1.9,"nc":1,"sm":0,"sb":0.0,"k":"19048_0220"}},{"type":"Feature","geometry":{"type":"Point","coordinates":[-100.461,25.69683]},"properties":{"s":2.7,"a":4.2,"t":0.0,"f":0.0,"fi":0,"c":1.5,"nc":1,"sm":0,"sb":0.0,"k":"19048_0220"}},{"type":"Feature","geometry":{"type":"Point","coordinates":[-100.45901,25.69502]},"properties":{"s":2.6,"a":5.7,"t":0.0,"f":0.0,"fi":0,"c":3.2,"nc":2,"sm":0,"sb":0.0,"k":"19048_0220"}},{"type":"Feature","geometry":{"type":"Point","coordinates":[-100.45702,25.69955]},"properties":{"s":2.5,"a":2.4,"t":0.0,"f":0.0,"fi":0,"c":0.0,"nc":0,"sm":0,"sb":0.0,"k":"19048_0220"}},{"type":"Feature","geometry":{"type":"Point","coordinates":[-100.461,25.69593]},"properties":{"s":2.3,"a":3.6,"t":0.0,"f":0.5,"fi":2,"c":1.8,"nc":1,"sm":0,"sb":0.0,"k":"19048_0220"}},{"type":"Feature","geometry":{"type":"Point","coordinates":[-100.461,25.69774]},"properties":{"s":2.1,"a":2.8,"t":0.0,"f":0.0,"fi":0,"c":0.7,"nc":1,"sm":0,"sb":0.0,"k":"19048_0220"}},{"type":"Feature","geometry":{"type":"Point","coordinates":[-100.45901,25.69412]},"properties":{"s":2.0,"a":4.5,"t":0.0,"f":0.5,"fi":2,"c":3.0,"nc":2,"sm":0,"sb":0.0,"k":"19048_0220"}},{"type":"Feature","geometry":{"type":"Point","coordinates":[-100.45801,25.69593]},"properties":{"s":2.0,"a":4.2,"t":0.0,"f":0.0,"fi":0,"c":2.2,"nc":1,"sm":0,"sb":0.0,"k":"19048_0220"}},{"type":"Feature","geometry":{"type":"Point","coordinates":[-100.46001,25.69593]},"properties":{"s":1.8,"a":4.9,"t":0.0,"f":0.0,"fi":0,"c":3.1,"nc":1,"sm":0,"sb":0.0,"k":"19048_0220"}},{"type":"Feature","geometry":{"type":"Point","coordinates":[-100.46001,25.69683]},"properties":{"s":1.8,"a":4.4,"t":0.0,"f":0.0,"fi":0,"c":2.6,"nc":1,"sm":0,"sb":0.0,"k":"19048_0220"}},{"type":"Feature","geometry":{"type":"Point","coordinates":[-100.46001,25.69774]},"properties":{"s":1.8,"a":3.2,"t":0.0,"f":0.0,"fi":0,"c":1.4,"nc":1,"sm":0,"sb":0.0,"k":"19048_0220"}},{"type":"Feature","geometry":{"type":"Point","coordinates":[-100.45702,25.70045]},"properties":{"s":1.6,"a":1.6,"t":0.0,"f":0.0,"fi":0,"c":0.0,"nc":0,"sm":0,"sb":0.0,"k":"19048_0220"}},{"type":"Feature","geometry":{"type":"Point","coordinates":[-100.45901,25.69683]},"properties":{"s":1.4,"a":3.6,"t":0.0,"f":0.5,"fi":2,"c":2.8,"nc":1,"sm":0,"sb":0.0,"k":"19048_0220"}},{"type":"Feature","geometry":{"type":"Point","coordinates":[-100.45801,25.70045]},"properties":{"s":1.2,"a":1.2,"t":0.0,"f":0.0,"fi":0,"c":0.0,"nc":0,"sm":0,"sb":0.0,"k":"19048_0220"}},{"type":"Feature","geometry":{"type":"Point","coordinates":[-100.45602,25.70045]},"properties":{"s":1.2,"a":1.2,"t":0.0,"f":0.0,"fi":0,"c":0.0,"nc":0,"sm":0,"sb":0.0,"k":"19048_0220"}},{"type":"Feature","geometry":{"type":"Point","coordinates":[-100.42013,25.68869]},"properties":{"s":8.3,"a":6.9,"t":2.0,"f":0.0,"fi":0,"c":0.0,"nc":0,"sm":0,"sb":0.1,"k":"19048_0115"}},{"type":"Feature","geometry":{"type":"Point","coordinates":[-100.42013,25.6905]},"properties":{"s":6.6,"a":7.1,"t":0.0,"f":0.0,"fi":0,"c":0.0,"nc":0,"sm":0,"sb":0.1,"k":"19048_0115"}},{"type":"Feature","geometry":{"type":"Point","coordinates":[-100.42113,25.6896]},"properties":{"s":6.4,"a":5.8,"t":1.0,"f":0.0,"fi":0,"c":0.0,"nc":0,"sm":0,"sb":0.1,"k":"19048_0115"}},{"type":"Feature","geometry":{"type":"Point","coordinates":[-100.42013,25.6896]},"properties":{"s":5.8,"a":6.2,"t":0.0,"f":0.0,"fi":0,"c":0.0,"nc":0,"sm":0,"sb":0.1,"k":"19048_0115"}},{"type":"Feature","geometry":{"type":"Point","coordinates":[-100.42113,25.68869]},"properties":{"s":5.4,"a":4.8,"t":1.0,"f":0.0,"fi":0,"c":0.0,"nc":0,"sm":0,"sb":0.1,"k":"19048_0115"}},{"type":"Feature","geometry":{"type":"Point","coordinates":[-100.42113,25.6905]},"properties":{"s":5.4,"a":5.8,"t":0.0,"f":0.0,"fi":0,"c":0.0,"nc":0,"sm":0,"sb":0.1,"k":"19048_0115"}},{"type":"Feature","geometry":{"type":"Point","coordinates":[-100.41913,25.6896]},"properties":{"s":5.3,"a":5.6,"t":0.0,"f":0.0,"fi":0,"c":0.0,"nc":0,"sm":0,"sb":0.1,"k":"19048_0115"}},{"type":"Feature","geometry":{"type":"Point","coordinates":[-100.41913,25.68869]},"properties":{"s":4.7,"a":4.1,"t":1.0,"f":0.0,"fi":0,"c":0.0,"nc":0,"sm":0,"sb":0.1,"k":"19048_0115"}},{"type":"Feature","geometry":{"type":"Point","coordinates":[-100.42113,25.69141]},"properties":{"s":4.6,"a":4.9,"t":0.0,"f":0.0,"fi":0,"c":0.0,"nc":0,"sm":0,"sb":0.1,"k":"19048_0115"}},{"type":"Feature","geometry":{"type":"Point","coordinates":[-100.42013,25.69141]},"properties":{"s":4.6,"a":4.9,"t":0.0,"f":0.0,"fi":0,"c":0.0,"nc":0,"sm":0,"sb":0.1,"k":"19048_0115"}},{"type":"Feature","geometry":{"type":"Point","coordinates":[-100.41913,25.6905]},"properties":{"s":4.3,"a":4.6,"t":0.0,"f":0.0,"fi":0,"c":0.0,"nc":0,"sm":0,"sb":0.0,"k":"19048_0115"}},{"type":"Feature","geometry":{"type":"Point","coordinates":[-100.42212,25.68869]},"properties":{"s":3.8,"a":4.0,"t":0.0,"f":0.0,"fi":0,"c":0.0,"nc":0,"sm":0,"sb":0.0,"k":"19048_0115"}},{"type":"Feature","geometry":{"type":"Point","coordinates":[-100.42013,25.68779]},"properties":{"s":3.8,"a":4.1,"t":0.0,"f":0.0,"fi":0,"c":0.0,"nc":0,"sm":0,"sb":0.0,"k":"19048_0115"}},{"type":"Feature","geometry":{"type":"Point","coordinates":[-100.42312,25.6896]},"properties":{"s":3.0,"a":3.2,"t":0.0,"f":0.0,"fi":0,"c":0.0,"nc":0,"sm":0,"sb":0.0,"k":"19048_0115"}},{"type":"Feature","geometry":{"type":"Point","coordinates":[-100.42212,25.6896]},"properties":{"s":2.8,"a":3.0,"t":0.0,"f":0.0,"fi":0,"c":0.0,"nc":0,"sm":0,"sb":0.0,"k":"19048_0115"}},{"type":"Feature","geometry":{"type":"Point","coordinates":[-100.42212,25.6905]},"properties":{"s":2.4,"a":2.6,"t":0.0,"f":0.0,"fi":0,"c":0.0,"nc":0,"sm":0,"sb":0.0,"k":"19048_0115"}},{"type":"Feature","geometry":{"type":"Point","coordinates":[-100.42312,25.68869]},"properties":{"s":2.3,"a":2.4,"t":0.0,"f":0.0,"fi":0,"c":0.0,"nc":0,"sm":0,"sb":0.0,"k":"19048_0115"}},{"type":"Feature","geometry":{"type":"Point","coordinates":[-100.42312,25.6905]},"properties":{"s":2.3,"a":2.4,"t":0.0,"f":0.0,"fi":0,"c":0.0,"nc":0,"sm":0,"sb":0.0,"k":"19048_0115"}},{"type":"Feature","geometry":{"type":"Point","coordinates":[-100.42212,25.69141]},"properties":{"s":0.8,"a":0.8,"t":0.0,"f":0.0,"fi":0,"c":0.0,"nc":0,"sm":0,"sb":0.0,"k":"19048_0115"}},{"type":"Feature","geometry":{"type":"Point","coordinates":[-100.42412,25.68598]},"properties":{"s":7.2,"a":6.4,"t":0.0,"f":0.5,"fi":2,"c":0.0,"nc":0,"sm":0,"sb":0.0,"k":"19048_0058"}},{"type":"Feature","geometry":{"type":"Point","coordinates":[-100.42312,25.68598]},"properties":{"s":6.5,"a":4.8,"t":1.0,"f":0.5,"fi":2,"c":0.0,"nc":0,"sm":0,"sb":0.0,"k":"19048_0058"}},{"type":"Feature","geometry":{"type":"Point","coordinates":[-100.42212,25.68598]},"properties":{"s":6.3,"a":4.6,"t":1.0,"f":0.5,"fi":2,"c":0.0,"nc":0,"sm":0,"sb":0.0,"k":"19048_0058"}},{"type":"Feature","geometry":{"type":"Point","coordinates":[-100.41814,25.68688]},"properties":{"s":6.2,"a":5.1,"t":2.0,"f":0.0,"fi":0,"c":1.1,"nc":1,"sm":0,"sb":0.0,"k":"19048_0058"}},{"type":"Feature","geometry":{"type":"Point","coordinates":[-100.42412,25.68688]},"properties":{"s":6.1,"a":5.9,"t":0.0,"f":0.0,"fi":0,"c":0.0,"nc":0,"sm":0,"sb":0.0,"k":"19048_0058"}},{"type":"Feature","geometry":{"type":"Point","coordinates":[-100.42312,25.68688]},"properties":{"s":5.8,"a":5.6,"t":0.0,"f":0.0,"fi":0,"c":0.0,"nc":0,"sm":0,"sb":0.0,"k":"19048_0058"}},{"type":"Feature","geometry":{"type":"Point","coordinates":[-100.42511,25.68688]},"properties":{"s":5.1,"a":5.0,"t":0.0,"f":0.0,"fi":0,"c":0.0,"nc":0,"sm":0,"sb":0.0,"k":"19048_0058"}},{"type":"Feature","geometry":{"type":"Point","coordinates":[-100.41913,25.68507]},"properties":{"s":5.0,"a":6.6,"t":1.0,"f":0.5,"fi":2,"c":3.2,"nc":1,"sm":0,"sb":0.0,"k":"19048_0058"}},{"type":"Feature","geometry":{"type":"Point","coordinates":[-100.41913,25.68688]},"properties":{"s":5.0,"a":6.0,"t":0.0,"f":0.0,"fi":0,"c":1.1,"nc":1,"sm":0,"sb":0.0,"k":"19048_0058"}},{"type":"Feature","geometry":{"type":"Point","coordinates":[-100.41714,25.68598]},"properties":{"s":4.7,"a":5.2,"t":1.0,"f":0.0,"fi":0,"c":1.6,"nc":1,"sm":0,"sb":0.0,"k":"19048_0058"}},{"type":"Feature","geometry":{"type":"Point","coordinates":[-100.42212,25.68779]},"properties":{"s":4.6,"a":4.4,"t":0.0,"f":0.0,"fi":0,"c":0.0,"nc":0,"sm":0,"sb":0.0,"k":"19048_0058"}},{"type":"Feature","geometry":{"type":"Point","coordinates":[-100.42013,25.68688]},"properties":{"s":4.5,"a":4.9,"t":0.0,"f":0.0,"fi":0,"c":0.5,"nc":1,"sm":0,"sb":0.0,"k":"19048_0058"}},{"type":"Feature","geometry":{"type":"Point","coordinates":[-100.42312,25.68779]},"properties":{"s":4.4,"a":4.2,"t":0.0,"f":0.0,"fi":0,"c":0.0,"nc":0,"sm":0,"sb":0.0,"k":"19048_0058"}},{"type":"Feature","geometry":{"type":"Point","coordinates":[-100.42113,25.68779]},"properties":{"s":4.2,"a":4.1,"t":0.0,"f":0.0,"fi":0,"c":0.0,"nc":0,"sm":0,"sb":0.0,"k":"19048_0058"}},{"type":"Feature","geometry":{"type":"Point","coordinates":[-100.42412,25.68779]},"properties":{"s":3.9,"a":3.8,"t":0.0,"f":0.0,"fi":0,"c":0.0,"nc":0,"sm":0,"sb":0.0,"k":"19048_0058"}},{"type":"Feature","geometry":{"type":"Point","coordinates":[-100.41814,25.68507]},"properties":{"s":3.9,"a":6.7,"t":0.0,"f":0.5,"fi":2,"c":3.4,"nc":1,"sm":0,"sb":0.0,"k":"19048_0058"}},{"type":"Feature","geometry":{"type":"Point","coordinates":[-100.42113,25.68688]},"properties":{"s":3.7,"a":3.6,"t":0.0,"f":0.0,"fi":0,"c":0.0,"nc":0,"sm":0,"sb":0.0,"k":"19048_0058"}},{"type":"Feature","geometry":{"type":"Point","coordinates":[-100.42212,25.68688]},"properties":{"s":3.3,"a":3.2,"t":0.0,"f":0.0,"fi":0,"c":0.0,"nc":0,"sm":0,"sb":0.0,"k":"19048_0058"}},{"type":"Feature","geometry":{"type":"Point","coordinates":[-100.41913,25.68598]},"properties":{"s":2.9,"a":5.1,"t":0.0,"f":0.0,"fi":0,"c":2.3,"nc":1,"sm":0,"sb":0.0,"k":"19048_0058"}},{"type":"Feature","geometry":{"type":"Point","coordinates":[-100.42511,25.68779]},"properties":{"s":2.5,"a":2.4,"t":0.0,"f":0.0,"fi":0,"c":0.0,"nc":0,"sm":0,"sb":0.0,"k":"19048_0058"}},{"type":"Feature","geometry":{"type":"Point","coordinates":[-100.41814,25.68598]},"properties":{"s":2.4,"a":4.7,"t":0.0,"f":0.0,"fi":0,"c":2.4,"nc":1,"sm":0,"sb":0.0,"k":"19048_0058"}},{"type":"Feature","geometry":{"type":"Point","coordinates":[-100.42113,25.68598]},"properties":{"s":2.2,"a":2.4,"t":0.0,"f":0.0,"fi":0,"c":0.3,"nc":1,"sm":0,"sb":0.0,"k":"19048_0058"}},{"type":"Feature","geometry":{"type":"Point","coordinates":[-100.42013,25.68598]},"properties":{"s":2.0,"a":2.4,"t":1.0,"f":0.0,"fi":0,"c":1.4,"nc":1,"sm":0,"sb":0.0,"k":"19048_0058"}},{"type":"Feature","geometry":{"type":"Point","coordinates":[-100.47995,25.67874]},"properties":{"s":6.8,"a":6.8,"t":0.0,"f":1.0,"fi":3,"c":0.0,"nc":0,"sm":0,"sb":-0.1,"k":"19048_0195"}},{"type":"Feature","geometry":{"type":"Point","coordinates":[-100.48593,25.68326]},"properties":{"s":6.0,"a":1.9,"t":4.0,"f":1.0,"fi":3,"c":0.0,"nc":0,"sm":0,"sb":-0.0,"k":"19048_0195"}},{"type":"Feature","geometry":{"type":"Point","coordinates":[-100.48094,25.67874]},"properties":{"s":6.0,"a":4.8,"t":1.0,"f":1.0,"fi":3,"c":0.0,"nc":0,"sm":0,"sb":-0.0,"k":"19048_0195"}},{"type":"Feature","geometry":{"type":"Point","coordinates":[-100.48393,25.68145]},"properties":{"s":5.6,"a":3.8,"t":3.0,"f":1.0,"fi":3,"c":1.4,"nc":2,"sm":0,"sb":-0.0,"k":"19048_0195"}},{"type":"Feature","geometry":{"type":"Point","coordinates":[-100.48493,25.68507]},"properties":{"s":4.8,"a":0.0,"t":4.0,"f":1.5,"fi":4,"c":0.0,"nc":0,"sm":0,"sb":-0.0,"k":"19048_0195"}},{"type":"Feature","geometry":{"type":"Point","coordinates":[-100.48294,25.68055]},"properties":{"s":4.7,"a":2.8,"t":3.0,"f":1.0,"fi":3,"c":1.4,"nc":2,"sm":0,"sb":-0.0,"k":"19048_0195"}},{"type":"Feature","geometry":{"type":"Point","coordinates":[-100.48094,25.67965]},"properties":{"s":4.7,"a":4.3,"t":1.0,"f":0.0,"fi":0,"c":0.0,"nc":0,"sm":0,"sb":-0.0,"k":"19048_0195"}},{"type":"Feature","geometry":{"type":"Point","coordinates":[-100.48294,25.68145]},"properties":{"s":4.2,"a":3.8,"t":1.0,"f":0.5,"fi":2,"c":0.5,"nc":1,"sm":0,"sb":-0.0,"k":"19048_0195"}},{"type":"Feature","geometry":{"type":"Point","coordinates":[-100.48094,25.68507]},"properties":{"s":3.9,"a":1.0,"t":2.0,"f":1.5,"fi":4,"c":0.0,"nc":0,"sm":0,"sb":-0.0,"k":"19048_0195"}},{"type":"Feature","geometry":{"type":"Point","coordinates":[-100.48194,25.68055]},"properties":{"s":3.8,"a":3.4,"t":1.0,"f":0.0,"fi":0,"c":0.0,"nc":0,"sm":0,"sb":-0.0,"k":"19048_0195"}},{"type":"Feature","geometry":{"type":"Point","coordinates":[-100.48194,25.67965]},"properties":{"s":3.6,"a":1.2,"t":2.0,"f":1.0,"fi":3,"c":0.1,"nc":1,"sm":0,"sb":-0.0,"k":"19048_0195"}},{"type":"Feature","geometry":{"type":"Point","coordinates":[-100.48692,25.68417]},"properties":{"s":3.5,"a":1.0,"t":2.0,"f":1.0,"fi":3,"c":0.0,"nc":0,"sm":0,"sb":-0.0,"k":"19048_0195"}},{"type":"Feature","geometry":{"type":"Point","coordinates":[-100.48194,25.68145]},"properties":{"s":3.3,"a":3.8,"t":0.0,"f":0.0,"fi":0,"c":0.0,"nc":0,"sm":0,"sb":-0.0,"k":"19048_0195"}},{"type":"Feature","geometry":{"type":"Point","coordinates":[-100.48493,25.68236]},"properties":{"s":3.2,"a":1.9,"t":1.0,"f":1.0,"fi":3,"c":0.3,"nc":1,"sm":0,"sb":-0.0,"k":"19048_0195"}},{"type":"Feature","geometry":{"type":"Point","coordinates":[-100.48593,25.68507]},"properties":{"s":3.1,"a":0.0,"t":2.0,"f":1.5,"fi":4,"c":0.0,"nc":0,"sm":0,"sb":-0.0,"k":"19048_0195"}},{"type":"Feature","geometry":{"type":"Point","coordinates":[-100.47995,25.68507]},"properties":{"s":3.1,"a":1.0,"t":1.0,"f":1.5,"fi":4,"c":0.0,"nc":0,"sm":0,"sb":-0.0,"k":"19048_0195"}},{"type":"Feature","geometry":{"type":"Point","coordinates":[-100.48094,25.68145]},"properties":{"s":3.0,"a":3.4,"t":0.0,"f":0.0,"fi":0,"c":0.0,"nc":0,"sm":0,"sb":-0.0,"k":"19048_0195"}},{"type":"Feature","geometry":{"type":"Point","coordinates":[-100.48094,25.68055]},"properties":{"s":2.3,"a":2.6,"t":0.0,"f":0.0,"fi":0,"c":0.0,"nc":0,"sm":0,"sb":-0.0,"k":"19048_0195"}},{"type":"Feature","geometry":{"type":"Point","coordinates":[-100.47995,25.68055]},"properties":{"s":2.3,"a":2.6,"t":0.0,"f":0.0,"fi":0,"c":0.0,"nc":0,"sm":0,"sb":-0.0,"k":"19048_0195"}},{"type":"Feature","geometry":{"type":"Point","coordinates":[-100.47995,25.68145]},"properties":{"s":2.3,"a":2.6,"t":0.0,"f":0.0,"fi":0,"c":0.0,"nc":0,"sm":0,"sb":-0.0,"k":"19048_0195"}},{"type":"Feature","geometry":{"type":"Point","coordinates":[-100.48393,25.68507]},"properties":{"s":2.2,"a":0.0,"t":1.0,"f":1.5,"fi":4,"c":0.0,"nc":0,"sm":0,"sb":-0.0,"k":"19048_0195"}},{"type":"Feature","geometry":{"type":"Point","coordinates":[-100.48194,25.68507]},"properties":{"s":2.2,"a":0.0,"t":1.0,"f":1.5,"fi":4,"c":0.0,"nc":0,"sm":0,"sb":-0.0,"k":"19048_0195"}},{"type":"Feature","geometry":{"type":"Point","coordinates":[-100.47895,25.68507]},"properties":{"s":2.2,"a":1.0,"t":0.0,"f":1.5,"fi":4,"c":0.0,"nc":0,"sm":0,"sb":-0.0,"k":"19048_0195"}},{"type":"Feature","geometry":{"type":"Point","coordinates":[-100.48094,25.68417]},"properties":{"s":1.7,"a":1.0,"t":1.0,"f":0.0,"fi":0,"c":0.0,"nc":0,"sm":0,"sb":-0.0,"k":"19048_0195"}},{"type":"Feature","geometry":{"type":"Point","coordinates":[-100.47995,25.68417]},"properties":{"s":1.7,"a":1.0,"t":1.0,"f":0.0,"fi":0,"c":0.0,"nc":0,"sm":0,"sb":-0.0,"k":"19048_0195"}},{"type":"Feature","geometry":{"type":"Point","coordinates":[-100.48294,25.68236]},"properties":{"s":1.5,"a":1.2,"t":0.0,"f":0.5,"fi":2,"c":0.0,"nc":0,"sm":0,"sb":-0.0,"k":"19048_0195"}},{"type":"Feature","geometry":{"type":"Point","coordinates":[-100.48892,25.68507]},"properties":{"s":1.3,"a":0.0,"t":0.0,"f":1.5,"fi":4,"c":0.0,"nc":0,"sm":0,"sb":-0.0,"k":"19048_0195"}},{"type":"Feature","geometry":{"type":"Point","coordinates":[-100.48792,25.68507]},"properties":{"s":1.3,"a":0.0,"t":0.0,"f":1.5,"fi":4,"c":0.0,"nc":0,"sm":0,"sb":-0.0,"k":"19048_0195"}},{"type":"Feature","geometry":{"type":"Point","coordinates":[-100.48692,25.68507]},"properties":{"s":1.3,"a":0.0,"t":0.0,"f":1.5,"fi":4,"c":0.0,"nc":0,"sm":0,"sb":-0.0,"k":"19048_0195"}},{"type":"Feature","geometry":{"type":"Point","coordinates":[-100.48294,25.68507]},"properties":{"s":1.3,"a":0.0,"t":0.0,"f":1.5,"fi":4,"c":0.0,"nc":0,"sm":0,"sb":-0.0,"k":"19048_0195"}},{"type":"Feature","geometry":{"type":"Point","coordinates":[-100.47795,25.68507]},"properties":{"s":1.3,"a":0.0,"t":0.0,"f":1.5,"fi":4,"c":0.0,"nc":0,"sm":0,"sb":-0.0,"k":"19048_0195"}},{"type":"Feature","geometry":{"type":"Point","coordinates":[-100.47696,25.68507]},"properties":{"s":1.3,"a":0.0,"t":0.0,"f":1.5,"fi":4,"c":0.0,"nc":0,"sm":0,"sb":-0.0,"k":"19048_0195"}},{"type":"Feature","geometry":{"type":"Point","coordinates":[-100.47596,25.68507]},"properties":{"s":1.3,"a":0.0,"t":0.0,"f":1.5,"fi":4,"c":0.0,"nc":0,"sm":0,"sb":-0.0,"k":"19048_0195"}},{"type":"Feature","geometry":{"type":"Point","coordinates":[-100.47496,25.68507]},"properties":{"s":1.3,"a":0.0,"t":0.0,"f":1.5,"fi":4,"c":0.0,"nc":0,"sm":0,"sb":-0.0,"k":"19048_0195"}},{"type":"Feature","geometry":{"type":"Point","coordinates":[-100.48792,25.68417]},"properties":{"s":1.2,"a":0.4,"t":0.0,"f":1.0,"fi":3,"c":0.0,"nc":0,"sm":0,"sb":-0.0,"k":"19048_0195"}},{"type":"Feature","geometry":{"type":"Point","coordinates":[-100.48094,25.68236]},"properties":{"s":1.2,"a":1.4,"t":0.0,"f":0.0,"fi":0,"c":0.0,"nc":0,"sm":0,"sb":-0.0,"k":"19048_0195"}},{"type":"Feature","geometry":{"type":"Point","coordinates":[-100.48393,25.68236]},"properties":{"s":1.1,"a":1.4,"t":0.0,"f":0.0,"fi":0,"c":0.1,"nc":1,"sm":0,"sb":-0.0,"k":"19048_0195"}},{"type":"Feature","geometry":{"type":"Point","coordinates":[-100.47696,25.68326]},"properties":{"s":1.1,"a":1.2,"t":0.0,"f":0.0,"fi":0,"c":0.0,"nc":0,"sm":0,"sb":-0.0,"k":"19048_0195"}},{"type":"Feature","geometry":{"type":"Point","coordinates":[-100.47596,25.68326]},"properties":{"s":1.1,"a":1.2,"t":0.0,"f":0.0,"fi":0,"c":0.0,"nc":0,"sm":0,"sb":-0.0,"k":"19048_0195"}},{"type":"Feature","geometry":{"type":"Point","coordinates":[-100.47596,25.68417]},"properties":{"s":1.1,"a":1.2,"t":0.0,"f":0.0,"fi":0,"c":0.0,"nc":0,"sm":0,"sb":-0.0,"k":"19048_0195"}},{"type":"Feature","geometry":{"type":"Point","coordinates":[-100.48194,25.68236]},"properties":{"s":1.0,"a":1.2,"t":0.0,"f":0.0,"fi":0,"c":0.0,"nc":0,"sm":0,"sb":-0.0,"k":"19048_0195"}},{"type":"Feature","geometry":{"type":"Point","coordinates":[-100.47995,25.67965]},"properties":{"s":1.0,"a":1.2,"t":0.0,"f":0.0,"fi":0,"c":0.0,"nc":0,"sm":0,"sb":-0.0,"k":"19048_0195"}},{"type":"Feature","geometry":{"type":"Point","coordinates":[-100.47995,25.68236]},"properties":{"s":1.0,"a":1.2,"t":0.0,"f":0.0,"fi":0,"c":0.0,"nc":0,"sm":0,"sb":-0.0,"k":"19048_0195"}},{"type":"Feature","geometry":{"type":"Point","coordinates":[-100.47895,25.68055]},"properties":{"s":1.0,"a":1.2,"t":0.0,"f":0.0,"fi":0,"c":0.0,"nc":0,"sm":0,"sb":-0.0,"k":"19048_0195"}},{"type":"Feature","geometry":{"type":"Point","coordinates":[-100.48593,25.68417]},"properties":{"s":0.9,"a":1.0,"t":0.0,"f":0.0,"fi":0,"c":0.0,"nc":0,"sm":0,"sb":-0.0,"k":"19048_0195"}},{"type":"Feature","geometry":{"type":"Point","coordinates":[-100.47895,25.68417]},"properties":{"s":0.9,"a":1.0,"t":0.0,"f":0.0,"fi":0,"c":0.0,"nc":0,"sm":0,"sb":-0.0,"k":"19048_0195"}},{"type":"Feature","geometry":{"type":"Point","coordinates":[-100.48493,25.68326]},"properties":{"s":0.8,"a":0.9,"t":0.0,"f":0.0,"fi":0,"c":0.0,"nc":0,"sm":0,"sb":-0.0,"k":"19048_0195"}},{"type":"Feature","geometry":{"type":"Point","coordinates":[-100.47895,25.68145]},"properties":{"s":0.7,"a":0.8,"t":0.0,"f":0.0,"fi":0,"c":0.0,"nc":0,"sm":0,"sb":-0.0,"k":"19048_0195"}},{"type":"Feature","geometry":{"type":"Point","coordinates":[-100.47895,25.68236]},"properties":{"s":0.7,"a":0.8,"t":0.0,"f":0.0,"fi":0,"c":0.0,"nc":0,"sm":0,"sb":-0.0,"k":"19048_0195"}},{"type":"Feature","geometry":{"type":"Point","coordinates":[-100.48294,25.68326]},"properties":{"s":0.4,"a":0.0,"t":0.0,"f":0.5,"fi":2,"c":0.0,"nc":0,"sm":0,"sb":-0.0,"k":"19048_0195"}},{"type":"Feature","geometry":{"type":"Point","coordinates":[-100.48194,25.68326]},"properties":{"s":0.4,"a":0.0,"t":0.0,"f":0.5,"fi":2,"c":0.0,"nc":0,"sm":0,"sb":-0.0,"k":"19048_0195"}},{"type":"Feature","geometry":{"type":"Point","coordinates":[-100.48194,25.68417]},"properties":{"s":0.4,"a":0.0,"t":0.0,"f":0.5,"fi":2,"c":0.0,"nc":0,"sm":0,"sb":-0.0,"k":"19048_0195"}},{"type":"Feature","geometry":{"type":"Point","coordinates":[-100.48393,25.68326]},"properties":{"s":0.3,"a":0.4,"t":0.0,"f":0.0,"fi":0,"c":0.0,"nc":0,"sm":0,"sb":-0.0,"k":"19048_0195"}},{"type":"Feature","geometry":{"type":"Point","coordinates":[-100.48094,25.68326]},"properties":{"s":0.3,"a":0.4,"t":0.0,"f":0.0,"fi":0,"c":0.0,"nc":0,"sm":0,"sb":-0.0,"k":"19048_0195"}},{"type":"Feature","geometry":{"type":"Point","coordinates":[-100.47895,25.67965]},"properties":{"s":0.3,"a":0.4,"t":0.0,"f":0.0,"fi":0,"c":0.0,"nc":0,"sm":0,"sb":-0.0,"k":"19048_0195"}},{"type":"Feature","geometry":{"type":"Point","coordinates":[-100.42511,25.69502]},"properties":{"s":3.7,"a":3.2,"t":0.0,"f":0.0,"fi":0,"c":0.0,"nc":0,"sm":0,"sb":-0.0,"k":"19048_0151"}},{"type":"Feature","geometry":{"type":"Point","coordinates":[-100.42212,25.69231]},"properties":{"s":3.6,"a":3.2,"t":0.0,"f":0.0,"fi":0,"c":0.0,"nc":0,"sm":0,"sb":-0.0,"k":"19048_0151"}},{"type":"Feature","geometry":{"type":"Point","coordinates":[-100.42212,25.69322]},"properties":{"s":3.6,"a":3.2,"t":0.0,"f":0.0,"fi":0,"c":0.0,"nc":0,"sm":0,"sb":-0.0,"k":"19048_0151"}},{"type":"Feature","geometry":{"type":"Point","coordinates":[-100.42412,25.68869]},"properties":{"s":3.2,"a":2.8,"t":0.0,"f":0.0,"fi":0,"c":0.0,"nc":0,"sm":0,"sb":-0.0,"k":"19048_0151"}},{"type":"Feature","geometry":{"type":"Point","coordinates":[-100.42312,25.69412]},"properties":{"s":3.2,"a":2.8,"t":0.0,"f":0.0,"fi":0,"c":0.0,"nc":0,"sm":0,"sb":-0.0,"k":"19048_0151"}},{"type":"Feature","geometry":{"type":"Point","coordinates":[-100.42412,25.69502]},"properties":{"s":2.7,"a":2.4,"t":0.0,"f":0.0,"fi":0,"c":0.0,"nc":0,"sm":0,"sb":-0.0,"k":"19048_0151"}},{"type":"Feature","geometry":{"type":"Point","coordinates":[-100.42312,25.69231]},"properties":{"s":2.7,"a":2.4,"t":0.0,"f":0.0,"fi":0,"c":0.0,"nc":0,"sm":0,"sb":-0.0,"k":"19048_0151"}},{"type":"Feature","geometry":{"type":"Point","coordinates":[-100.42312,25.69502]},"properties":{"s":2.7,"a":2.4,"t":0.0,"f":0.0,"fi":0,"c":0.0,"nc":0,"sm":0,"sb":-0.0,"k":"19048_0151"}},{"type":"Feature","geometry":{"type":"Point","coordinates":[-100.42212,25.69412]},"properties":{"s":2.7,"a":2.4,"t":0.0,"f":0.0,"fi":0,"c":0.0,"nc":0,"sm":0,"sb":-0.0,"k":"19048_0151"}},{"type":"Feature","geometry":{"type":"Point","coordinates":[-100.42412,25.6896]},"properties":{"s":2.3,"a":2.0,"t":0.0,"f":0.0,"fi":0,"c":0.0,"nc":0,"sm":0,"sb":-0.0,"k":"19048_0151"}},{"type":"Feature","geometry":{"type":"Point","coordinates":[-100.42312,25.69141]},"properties":{"s":2.3,"a":2.0,"t":0.0,"f":0.0,"fi":0,"c":0.0,"nc":0,"sm":0,"sb":-0.0,"k":"19048_0151"}},{"type":"Feature","geometry":{"type":"Point","coordinates":[-100.42412,25.69593]},"properties":{"s":1.4,"a":1.2,"t":0.0,"f":0.0,"fi":0,"c":0.0,"nc":0,"sm":0,"sb":-0.0,"k":"19048_0151"}},{"type":"Feature","geometry":{"type":"Point","coordinates":[-100.42511,25.69593]},"properties":{"s":0.9,"a":0.8,"t":0.0,"f":0.0,"fi":0,"c":0.0,"nc":0,"sm":0,"sb":-0.0,"k":"19048_0151"}},{"type":"Feature","geometry":{"type":"Point","coordinates":[-100.42312,25.69593]},"properties":{"s":0.9,"a":0.8,"t":0.0,"f":0.0,"fi":0,"c":0.0,"nc":0,"sm":0,"sb":-0.0,"k":"19048_0151"}},{"type":"Feature","geometry":{"type":"Point","coordinates":[-100.42212,25.69502]},"properties":{"s":0.9,"a":0.8,"t":0.0,"f":0.0,"fi":0,"c":0.0,"nc":0,"sm":0,"sb":-0.0,"k":"19048_0151"}},{"type":"Feature","geometry":{"type":"Point","coordinates":[-100.4311,25.68326]},"properties":{"s":7.4,"a":5.9,"t":0.0,"f":0.5,"fi":2,"c":0.0,"nc":0,"sm":0,"sb":-0.1,"k":"19048_0216"}},{"type":"Feature","geometry":{"type":"Point","coordinates":[-100.4311,25.68417]},"properties":{"s":6.9,"a":5.5,"t":0.0,"f":0.5,"fi":2,"c":0.0,"nc":0,"sm":0,"sb":-0.1,"k":"19048_0216"}},{"type":"Feature","geometry":{"type":"Point","coordinates":[-100.42811,25.68326]},"properties":{"s":5.9,"a":4.7,"t":0.0,"f":0.5,"fi":2,"c":0.0,"nc":0,"sm":0,"sb":-0.0,"k":"19048_0216"}},{"type":"Feature","geometry":{"type":"Point","coordinates":[-100.4301,25.68417]},"properties":{"s":5.8,"a":4.5,"t":0.0,"f":0.5,"fi":2,"c":0.0,"nc":0,"sm":0,"sb":-0.0,"k":"19048_0216"}},{"type":"Feature","geometry":{"type":"Point","coordinates":[-100.4291,25.68507]},"properties":{"s":5.8,"a":4.1,"t":1.0,"f":0.0,"fi":0,"c":0.0,"nc":0,"sm":0,"sb":-0.0,"k":"19048_0216"}},{"type":"Feature","geometry":{"type":"Point","coordinates":[-100.4291,25.68598]},"properties":{"s":5.8,"a":4.1,"t":1.0,"f":0.0,"fi":0,"c":0.0,"nc":0,"sm":0,"sb":-0.0,"k":"19048_0216"}},{"type":"Feature","geometry":{"type":"Point","coordinates":[-100.4291,25.68688]},"properties":{"s":5.8,"a":5.1,"t":0.0,"f":0.0,"fi":0,"c":0.0,"nc":0,"sm":0,"sb":-0.0,"k":"19048_0216"}},{"type":"Feature","geometry":{"type":"Point","coordinates":[-100.42711,25.68688]},"properties":{"s":5.7,"a":5.0,"t":0.0,"f":0.0,"fi":0,"c":0.0,"nc":0,"sm":0,"sb":-0.0,"k":"19048_0216"}},{"type":"Feature","geometry":{"type":"Point","coordinates":[-100.42811,25.68417]},"properties":{"s":5.6,"a":4.8,"t":0.0,"f":0.0,"fi":0,"c":0.0,"nc":0,"sm":0,"sb":-0.0,"k":"19048_0216"}},{"type":"Feature","geometry":{"type":"Point","coordinates":[-100.42811,25.68598]},"properties":{"s":5.4,"a":3.6,"t":1.0,"f":0.0,"fi":0,"c":0.0,"nc":0,"sm":0,"sb":-0.0,"k":"19048_0216"}},{"type":"Feature","geometry":{"type":"Point","coordinates":[-100.4291,25.68779]},"properties":{"s":5.2,"a":3.0,"t":1.0,"f":0.5,"fi":2,"c":0.0,"nc":0,"sm":0,"sb":-0.0,"k":"19048_0216"}},{"type":"Feature","geometry":{"type":"Point","coordinates":[-100.42711,25.68598]},"properties":{"s":5.2,"a":4.6,"t":0.0,"f":0.0,"fi":0,"c":0.0,"nc":0,"sm":0,"sb":-0.0,"k":"19048_0216"}},{"type":"Feature","geometry":{"type":"Point","coordinates":[-100.42811,25.68688]},"properties":{"s":5.1,"a":4.5,"t":0.0,"f":0.0,"fi":0,"c":0.0,"nc":0,"sm":0,"sb":-0.0,"k":"19048_0216"}},{"type":"Feature","geometry":{"type":"Point","coordinates":[-100.42811,25.68507]},"properties":{"s":4.9,"a":3.2,"t":1.0,"f":0.0,"fi":0,"c":0.0,"nc":0,"sm":0,"sb":-0.0,"k":"19048_0216"}},{"type":"Feature","geometry":{"type":"Point","coordinates":[-100.4301,25.68145]},"properties":{"s":4.8,"a":3.6,"t":0.0,"f":0.5,"fi":2,"c":0.0,"nc":0,"sm":0,"sb":-0.0,"k":"19048_0216"}},{"type":"Feature","geometry":{"type":"Point","coordinates":[-100.4301,25.68326]},"properties":{"s":4.8,"a":3.6,"t":0.0,"f":0.5,"fi":2,"c":0.0,"nc":0,"sm":0,"sb":-0.0,"k":"19048_0216"}},{"type":"Feature","geometry":{"type":"Point","coordinates":[-100.4301,25.68507]},"properties":{"s":4.6,"a":2.4,"t":1.0,"f":0.5,"fi":2,"c":0.0,"nc":0,"sm":0,"sb":-0.0,"k":"19048_0216"}},{"type":"Feature","geometry":{"type":"Point","coordinates":[-100.4291,25.68417]},"properties":{"s":4.3,"a":3.7,"t":0.0,"f":0.0,"fi":0,"c":0.0,"nc":0,"sm":0,"sb":-0.0,"k":"19048_0216"}},{"type":"Feature","geometry":{"type":"Point","coordinates":[-100.4291,25.68869]},"properties":{"s":4.0,"a":2.0,"t":1.0,"f":0.5,"fi":2,"c":0.0,"nc":0,"sm":0,"sb":-0.0,"k":"19048_0216"}},{"type":"Feature","geometry":{"type":"Point","coordinates":[-100.4311,25.68145]},"properties":{"s":3.8,"a":2.8,"t":0.0,"f":0.5,"fi":2,"c":0.0,"nc":0,"sm":0,"sb":-0.0,"k":"19048_0216"}},{"type":"Feature","geometry":{"type":"Point","coordinates":[-100.42811,25.68779]},"properties":{"s":3.7,"a":3.2,"t":0.0,"f":0.0,"fi":0,"c":0.0,"nc":0,"sm":0,"sb":-0.0,"k":"19048_0216"}},{"type":"Feature","geometry":{"type":"Point","coordinates":[-100.4301,25.68598]},"properties":{"s":3.6,"a":1.6,"t":1.0,"f":0.5,"fi":2,"c":0.0,"nc":0,"sm":0,"sb":-0.0,"k":"19048_0216"}},{"type":"Feature","geometry":{"type":"Point","coordinates":[-100.4311,25.68236]},"properties":{"s":3.3,"a":2.9,"t":0.0,"f":0.0,"fi":0,"c":0.0,"nc":0,"sm":0,"sb":-0.0,"k":"19048_0216"}},{"type":"Feature","geometry":{"type":"Point","coordinates":[-100.43209,25.68145]},"properties":{"s":2.9,"a":2.0,"t":0.0,"f":0.5,"fi":2,"c":0.0,"nc":0,"sm":0,"sb":-0.0,"k":"19048_0216"}},{"type":"Feature","geometry":{"type":"Point","coordinates":[-100.4301,25.68236]},"properties":{"s":2.8,"a":2.4,"t":0.0,"f":0.0,"fi":0,"c":0.0,"nc":0,"sm":0,"sb":-0.0,"k":"19048_0216"}},{"type":"Feature","geometry":{"type":"Point","coordinates":[-100.42711,25.68507]},"properties":{"s":2.6,"a":1.8,"t":0.0,"f":0.5,"fi":2,"c":0.0,"nc":0,"sm":0,"sb":-0.0,"k":"19048_0216"}},{"type":"Feature","geometry":{"type":"Point","coordinates":[-100.41913,25.68779]},"properties":{"s":5.0,"a":4.9,"t":1.0,"f":0.0,"fi":0,"c":0.0,"nc":0,"sm":0,"sb":-0.0,"k":"19048_0014"}},{"type":"Feature","geometry":{"type":"Point","coordinates":[-100.41714,25.68688]},"properties":{"s":4.5,"a":2.8,"t":3.0,"f":0.0,"fi":0,"c":0.6,"nc":1,"sm":0,"sb":-0.0,"k":"19048_0014"}},{"type":"Feature","geometry":{"type":"Point","coordinates":[-100.41814,25.68779]},"properties":{"s":4.0,"a":3.6,"t":1.0,"f":0.0,"fi":0,"c":0.0,"nc":0,"sm":0,"sb":-0.0,"k":"19048_0014"}},{"type":"Feature","geometry":{"type":"Point","coordinates":[-100.41714,25.68779]},"properties":{"s":2.7,"a":3.2,"t":0.0,"f":0.0,"fi":0,"c":0.0,"nc":0,"sm":0,"sb":-0.0,"k":"19048_0014"}},{"type":"Feature","geometry":{"type":"Point","coordinates":[-100.41714,25.68869]},"properties":{"s":2.7,"a":3.2,"t":0.0,"f":0.0,"fi":0,"c":0.0,"nc":0,"sm":0,"sb":-0.0,"k":"19048_0014"}},{"type":"Feature","geometry":{"type":"Point","coordinates":[-100.41714,25.6905]},"properties":{"s":2.7,"a":3.2,"t":0.0,"f":0.0,"fi":0,"c":0.0,"nc":0,"sm":0,"sb":-0.0,"k":"19048_0014"}},{"type":"Feature","geometry":{"type":"Point","coordinates":[-100.41814,25.68869]},"properties":{"s":2.4,"a":2.8,"t":0.0,"f":0.0,"fi":0,"c":0.0,"nc":0,"sm":0,"sb":-0.0,"k":"19048_0014"}},{"type":"Feature","geometry":{"type":"Point","coordinates":[-100.41814,25.6896]},"properties":{"s":2.4,"a":2.8,"t":0.0,"f":0.0,"fi":0,"c":0.0,"nc":0,"sm":0,"sb":-0.0,"k":"19048_0014"}},{"type":"Feature","geometry":{"type":"Point","coordinates":[-100.41714,25.6896]},"properties":{"s":2.4,"a":2.8,"t":0.0,"f":0.0,"fi":0,"c":0.0,"nc":0,"sm":0,"sb":-0.0,"k":"19048_0014"}},{"type":"Feature","geometry":{"type":"Point","coordinates":[-100.41714,25.69141]},"properties":{"s":2.4,"a":2.8,"t":0.0,"f":0.0,"fi":0,"c":0.0,"nc":0,"sm":0,"sb":-0.0,"k":"19048_0014"}},{"type":"Feature","geometry":{"type":"Point","coordinates":[-100.41814,25.69141]},"properties":{"s":2.1,"a":2.4,"t":0.0,"f":0.0,"fi":0,"c":0.0,"nc":0,"sm":0,"sb":-0.0,"k":"19048_0014"}},{"type":"Feature","geometry":{"type":"Point","coordinates":[-100.41814,25.69231]},"properties":{"s":1.4,"a":1.6,"t":0.0,"f":0.0,"fi":0,"c":0.0,"nc":0,"sm":0,"sb":-0.0,"k":"19048_0014"}},{"type":"Feature","geometry":{"type":"Point","coordinates":[-100.41714,25.69231]},"properties":{"s":0.7,"a":0.8,"t":0.0,"f":0.0,"fi":0,"c":0.0,"nc":0,"sm":0,"sb":-0.0,"k":"19048_0014"}},{"type":"Feature","geometry":{"type":"Point","coordinates":[-100.41614,25.69141]},"properties":{"s":0.7,"a":0.8,"t":0.0,"f":0.0,"fi":0,"c":0.0,"nc":0,"sm":0,"sb":-0.0,"k":"19048_0014"}},{"type":"Feature","geometry":{"type":"Point","coordinates":[-100.47795,25.67422]},"properties":{"s":5.5,"a":6.8,"t":0.0,"f":0.0,"fi":0,"c":0.3,"nc":1,"sm":0,"sb":-0.1,"k":"19048_0065"}},{"type":"Feature","geometry":{"type":"Point","coordinates":[-100.47396,25.67603]},"properties":{"s":5.4,"a":6.7,"t":2.0,"f":1.0,"fi":3,"c":3.3,"nc":1,"sm":0,"sb":-0.1,"k":"19048_0065"}},{"type":"Feature","geometry":{"type":"Point","coordinates":[-100.47496,25.67331]},"properties":{"s":5.1,"a":6.0,"t":0.0,"f":0.0,"fi":0,"c":0.0,"nc":0,"sm":0,"sb":-0.1,"k":"19048_0065"}},{"type":"Feature","geometry":{"type":"Point","coordinates":[-100.47396,25.67512]},"properties":{"s":5.0,"a":8.6,"t":0.0,"f":0.0,"fi":0,"c":2.8,"nc":1,"sm":0,"sb":-0.1,"k":"19048_0065"}},{"type":"Feature","geometry":{"type":"Point","coordinates":[-100.47795,25.67512]},"properties":{"s":4.9,"a":6.8,"t":0.0,"f":0.0,"fi":0,"c":1.1,"nc":1,"sm":0,"sb":-0.1,"k":"19048_0065"}},{"type":"Feature","geometry":{"type":"Point","coordinates":[-100.47496,25.67603]},"properties":{"s":4.9,"a":2.7,"t":4.0,"f":1.0,"fi":3,"c":2.0,"nc":1,"sm":0,"sb":-0.1,"k":"19048_0065"}},{"type":"Feature","geometry":{"type":"Point","coordinates":[-100.47596,25.67422]},"properties":{"s":4.7,"a":5.6,"t":0.0,"f":0.0,"fi":0,"c":0.0,"nc":0,"sm":0,"sb":-0.1,"k":"19048_0065"}},{"type":"Feature","geometry":{"type":"Point","coordinates":[-100.47596,25.67603]},"properties":{"s":4.1,"a":2.5,"t":3.0,"f":0.0,"fi":0,"c":0.7,"nc":1,"sm":0,"sb":-0.1,"k":"19048_0065"}},{"type":"Feature","geometry":{"type":"Point","coordinates":[-100.47895,25.67422]},"properties":{"s":3.9,"a":5.7,"t":0.0,"f":0.0,"fi":0,"c":1.2,"nc":1,"sm":0,"sb":-0.1,"k":"19048_0065"}},{"type":"Feature","geometry":{"type":"Point","coordinates":[-100.47696,25.67331]},"properties":{"s":3.9,"a":4.6,"t":0.0,"f":0.0,"fi":0,"c":0.0,"nc":0,"sm":0,"sb":-0.1,"k":"19048_0065"}},{"type":"Feature","geometry":{"type":"Point","coordinates":[-100.47596,25.67331]},"properties":{"s":3.9,"a":4.6,"t":0.0,"f":0.0,"fi":0,"c":0.0,"nc":0,"sm":0,"sb":-0.1,"k":"19048_0065"}},{"type":"Feature","geometry":{"type":"Point","coordinates":[-100.47696,25.67422]},"properties":{"s":3.7,"a":4.3,"t":0.0,"f":0.0,"fi":0,"c":0.0,"nc":0,"sm":0,"sb":-0.1,"k":"19048_0065"}},{"type":"Feature","geometry":{"type":"Point","coordinates":[-100.47496,25.67422]},"properties":{"s":3.4,"a":4.9,"t":0.0,"f":0.0,"fi":0,"c":0.9,"nc":1,"sm":0,"sb":-0.1,"k":"19048_0065"}},{"type":"Feature","geometry":{"type":"Point","coordinates":[-100.47596,25.67512]},"properties":{"s":3.0,"a":4.1,"t":0.0,"f":0.0,"fi":0,"c":0.5,"nc":1,"sm":0,"sb":-0.0,"k":"19048_0065"}},{"type":"Feature","geometry":{"type":"Point","coordinates":[-100.47696,25.67693]},"properties":{"s":2.9,"a":1.4,"t":1.0,"f":1.0,"fi":3,"c":0.0,"nc":0,"sm":0,"sb":-0.0,"k":"19048_0065"}},{"type":"Feature","geometry":{"type":"Point","coordinates":[-100.47396,25.67422]},"properties":{"s":2.8,"a":4.9,"t":0.0,"f":0.0,"fi":0,"c":1.5,"nc":1,"sm":0,"sb":-0.0,"k":"19048_0065"}},{"type":"Feature","geometry":{"type":"Point","coordinates":[-100.47297,25.67512]},"properties":{"s":2.7,"a":6.2,"t":1.0,"f":0.0,"fi":0,"c":4.0,"nc":2,"sm":0,"sb":-0.0,"k":"19048_0065"}},{"type":"Feature","geometry":{"type":"Point","coordinates":[-100.47795,25.67603]},"properties":{"s":2.0,"a":3.6,"t":0.0,"f":0.0,"fi":0,"c":1.3,"nc":1,"sm":0,"sb":-0.0,"k":"19048_0065"}},{"type":"Feature","geometry":{"type":"Point","coordinates":[-100.47696,25.67603]},"properties":{"s":2.0,"a":2.4,"t":0.0,"f":0.0,"fi":0,"c":0.0,"nc":0,"sm":0,"sb":-0.0,"k":"19048_0065"}},{"type":"Feature","geometry":{"type":"Point","coordinates":[-100.47496,25.67512]},"properties":{"s":2.0,"a":4.1,"t":0.0,"f":0.0,"fi":0,"c":1.7,"nc":1,"sm":0,"sb":-0.0,"k":"19048_0065"}},{"type":"Feature","geometry":{"type":"Point","coordinates":[-100.47396,25.67331]},"properties":{"s":1.9,"a":3.2,"t":0.0,"f":0.0,"fi":0,"c":0.9,"nc":2,"sm":0,"sb":-0.0,"k":"19048_0065"}},{"type":"Feature","geometry":{"type":"Point","coordinates":[-100.47696,25.67512]},"properties":{"s":1.7,"a":2.0,"t":0.0,"f":0.0,"fi":0,"c":0.0,"nc":0,"sm":0,"sb":-0.0,"k":"19048_0065"}},{"type":"Feature","geometry":{"type":"Point","coordinates":[-100.47396,25.67241]},"properties":{"s":0.7,"a":2.4,"t":0.0,"f":0.0,"fi":0,"c":1.6,"nc":1,"sm":0,"sb":-0.0,"k":"19048_0065"}},{"type":"Feature","geometry":{"type":"Point","coordinates":[-100.47297,25.67422]},"properties":{"s":0.2,"a":2.4,"t":0.0,"f":0.0,"fi":0,"c":2.1,"nc":3,"sm":0,"sb":-0.0,"k":"19048_0065"}},{"type":"Feature","geometry":{"type":"Point","coordinates":[-100.42511,25.68598]},"properties":{"s":6.0,"a":5.0,"t":0.0,"f":0.5,"fi":2,"c":0.0,"nc":0,"sm":0,"sb":-0.1,"k":"19048_0071"}},{"type":"Feature","geometry":{"type":"Point","coordinates":[-100.42611,25.68598]},"properties":{"s":5.6,"a":4.6,"t":0.0,"f":0.5,"fi":2,"c":0.0,"nc":0,"sm":0,"sb":-0.1,"k":"19048_0071"}},{"type":"Feature","geometry":{"type":"Point","coordinates":[-100.42412,25.68326]},"properties":{"s":5.4,"a":4.9,"t":0.0,"f":0.0,"fi":0,"c":0.0,"nc":0,"sm":0,"sb":-0.1,"k":"19048_0071"}},{"type":"Feature","geometry":{"type":"Point","coordinates":[-100.42711,25.68326]},"properties":{"s":5.2,"a":3.2,"t":1.0,"f":0.5,"fi":2,"c":0.0,"nc":0,"sm":0,"sb":-0.1,"k":"19048_0071"}},{"type":"Feature","geometry":{"type":"Point","coordinates":[-100.42511,25.68507]},"properties":{"s":4.7,"a":4.2,"t":0.0,"f":0.0,"fi":0,"c":0.0,"nc":0,"sm":0,"sb":-0.0,"k":"19048_0071"}},{"type":"Feature","geometry":{"type":"Point","coordinates":[-100.42412,25.68236]},"properties":{"s":4.4,"a":3.4,"t":0.0,"f":0.5,"fi":2,"c":0.0,"nc":0,"sm":0,"sb":-0.0,"k":"19048_0071"}},{"type":"Feature","geometry":{"type":"Point","coordinates":[-100.42412,25.68507]},"properties":{"s":4.4,"a":3.9,"t":0.0,"f":0.0,"fi":0,"c":0.0,"nc":0,"sm":0,"sb":-0.0,"k":"19048_0071"}},{"type":"Feature","geometry":{"type":"Point","coordinates":[-100.42312,25.68236]},"properties":{"s":4.4,"a":3.4,"t":0.0,"f":0.5,"fi":2,"c":0.0,"nc":0,"sm":0,"sb":-0.0,"k":"19048_0071"}},{"type":"Feature","geometry":{"type":"Point","coordinates":[-100.42611,25.68326]},"properties":{"s":4.3,"a":2.4,"t":1.0,"f":0.5,"fi":2,"c":0.0,"nc":0,"sm":0,"sb":-0.0,"k":"19048_0071"}},{"type":"Feature","geometry":{"type":"Point","coordinates":[-100.42611,25.68417]},"properties":{"s":4.2,"a":3.8,"t":0.0,"f":0.0,"fi":0,"c":0.0,"nc":0,"sm":0,"sb":-0.0,"k":"19048_0071"}},{"type":"Feature","geometry":{"type":"Point","coordinates":[-100.42312,25.68326]},"properties":{"s":3.3,"a":3.0,"t":0.0,"f":0.0,"fi":0,"c":0.0,"nc":0,"sm":0,"sb":-0.0,"k":"19048_0071"}},{"type":"Feature","geometry":{"type":"Point","coordinates":[-100.42711,25.68417]},"properties":{"s":3.2,"a":2.4,"t":0.0,"f":0.5,"fi":2,"c":0.0,"nc":0,"sm":0,"sb":-0.0,"k":"19048_0071"}},{"type":"Feature","geometry":{"type":"Point","coordinates":[-100.42511,25.68326]},"properties":{"s":3.1,"a":2.8,"t":0.0,"f":0.0,"fi":0,"c":0.0,"nc":0,"sm":0,"sb":-0.0,"k":"19048_0071"}},{"type":"Feature","geometry":{"type":"Point","coordinates":[-100.42611,25.68507]},"properties":{"s":3.0,"a":2.2,"t":0.0,"f":0.5,"fi":2,"c":0.0,"nc":0,"sm":0,"sb":-0.0,"k":"19048_0071"}},{"type":"Feature","geometry":{"type":"Point","coordinates":[-100.42412,25.68417]},"properties":{"s":2.9,"a":2.6,"t":0.0,"f":0.0,"fi":0,"c":0.0,"nc":0,"sm":0,"sb":-0.0,"k":"19048_0071"}},{"type":"Feature","geometry":{"type":"Point","coordinates":[-100.42511,25.68417]},"properties":{"s":2.0,"a":1.8,"t":0.0,"f":0.0,"fi":0,"c":0.0,"nc":0,"sm":0,"sb":-0.0,"k":"19048_0071"}},{"type":"Feature","geometry":{"type":"Point","coordinates":[-100.42312,25.68417]},"properties":{"s":1.9,"a":1.2,"t":0.0,"f":0.5,"fi":2,"c":0.0,"nc":0,"sm":0,"sb":-0.0,"k":"19048_0071"}},{"type":"Feature","geometry":{"type":"Point","coordinates":[-100.46001,25.68417]},"properties":{"s":2.3,"a":1.0,"t":0.0,"f":1.5,"fi":4,"c":0.0,"nc":0,"sm":0,"sb":0.0,"k":"19048_0232"}},{"type":"Feature","geometry":{"type":"Point","coordinates":[-100.45901,25.68417]},"properties":{"s":2.3,"a":1.0,"t":0.0,"f":1.5,"fi":4,"c":0.0,"nc":0,"sm":0,"sb":0.0,"k":"19048_0232"}},{"type":"Feature","geometry":{"type":"Point","coordinates":[-100.462,25.68869]},"properties":{"s":2.2,"a":2.4,"t":0.0,"f":0.0,"fi":0,"c":0.0,"nc":0,"sm":0,"sb":0.0,"k":"19048_0232"}},{"type":"Feature","geometry":{"type":"Point","coordinates":[-100.45702,25.68688]},"properties":{"s":1.9,"a":2.0,"t":0.0,"f":0.0,"fi":0,"c":0.0,"nc":0,"sm":0,"sb":0.0,"k":"19048_0232"}},{"type":"Feature","geometry":{"type":"Point","coordinates":[-100.461,25.68779]},"properties":{"s":1.8,"a":2.0,"t":0.0,"f":0.0,"fi":0,"c":0.0,"nc":0,"sm":0,"sb":0.0,"k":"19048_0232"}},{"type":"Feature","geometry":{"type":"Point","coordinates":[-100.45901,25.68688]},"properties":{"s":1.8,"a":2.0,"t":0.0,"f":0.0,"fi":0,"c":0.0,"nc":0,"sm":0,"sb":0.0,"k":"19048_0232"}},{"type":"Feature","geometry":{"type":"Point","coordinates":[-100.46599,25.69141]},"properties":{"s":1.7,"a":1.9,"t":0.0,"f":0.0,"fi":0,"c":0.0,"nc":0,"sm":0,"sb":0.0,"k":"19048_0232"}},{"type":"Feature","geometry":{"type":"Point","coordinates":[-100.463,25.68507]},"properties":{"s":1.7,"a":0.4,"t":0.0,"f":1.5,"fi":4,"c":0.0,"nc":0,"sm":0,"sb":0.0,"k":"19048_0232"}},{"type":"Feature","geometry":{"type":"Point","coordinates":[-100.46798,25.69322]},"properties":{"s":1.6,"a":0.8,"t":0.0,"f":1.0,"fi":3,"c":0.0,"nc":0,"sm":0,"sb":0.0,"k":"19048_0232"}},{"type":"Feature","geometry":{"type":"Point","coordinates":[-100.463,25.68869]},"properties":{"s":1.5,"a":1.6,"t":0.0,"f":0.0,"fi":0,"c":0.0,"nc":0,"sm":0,"sb":0.0,"k":"19048_0232"}},{"type":"Feature","geometry":{"type":"Point","coordinates":[-100.463,25.6896]},"properties":{"s":1.5,"a":1.6,"t":0.0,"f":0.0,"fi":0,"c":0.0,"nc":0,"sm":0,"sb":0.0,"k":"19048_0232"}},{"type":"Feature","geometry":{"type":"Point","coordinates":[-100.461,25.68688]},"properties":{"s":1.5,"a":1.6,"t":0.0,"f":0.0,"fi":0,"c":0.0,"nc":0,"sm":0,"sb":0.0,"k":"19048_0232"}},{"type":"Feature","geometry":{"type":"Point","coordinates":[-100.46001,25.68688]},"properties":{"s":1.5,"a":1.6,"t":0.0,"f":0.0,"fi":0,"c":0.0,"nc":0,"sm":0,"sb":0.0,"k":"19048_0232"}},{"type":"Feature","geometry":{"type":"Point","coordinates":[-100.46001,25.68779]},"properties":{"s":1.5,"a":1.6,"t":0.0,"f":0.0,"fi":0,"c":0.0,"nc":0,"sm":0,"sb":0.0,"k":"19048_0232"}},{"type":"Feature","geometry":{"type":"Point","coordinates":[-100.45602,25.68688]},"properties":{"s":1.5,"a":1.6,"t":0.0,"f":0.0,"fi":0,"c":0.0,"nc":0,"sm":0,"sb":0.0,"k":"19048_0232"}},{"type":"Feature","geometry":{"type":"Point","coordinates":[-100.462,25.68507]},"properties":{"s":1.4,"a":0.0,"t":0.0,"f":1.5,"fi":4,"c":0.0,"nc":0,"sm":0,"sb":0.0,"k":"19048_0232"}},{"type":"Feature","geometry":{"type":"Point","coordinates":[-100.45801,25.68417]},"properties":{"s":1.4,"a":0.0,"t":0.0,"f":1.5,"fi":4,"c":0.0,"nc":0,"sm":0,"sb":0.0,"k":"19048_0232"}},{"type":"Feature","geometry":{"type":"Point","coordinates":[-100.45602,25.68326]},"properties":{"s":1.4,"a":0.0,"t":0.0,"f":1.5,"fi":4,"c":0.0,"nc":0,"sm":0,"sb":0.0,"k":"19048_0232"}},{"type":"Feature","geometry":{"type":"Point","coordinates":[-100.46898,25.69412]},"properties":{"s":1.1,"a":1.2,"t":0.0,"f":0.0,"fi":0,"c":0.0,"nc":0,"sm":0,"sb":0.0,"k":"19048_0232"}},{"type":"Feature","geometry":{"type":"Point","coordinates":[-100.462,25.68779]},"properties":{"s":1.1,"a":1.2,"t":0.0,"f":0.0,"fi":0,"c":0.0,"nc":0,"sm":0,"sb":0.0,"k":"19048_0232"}},{"type":"Feature","geometry":{"type":"Point","coordinates":[-100.45901,25.68598]},"properties":{"s":1.1,"a":1.2,"t":0.0,"f":0.0,"fi":0,"c":0.0,"nc":0,"sm":0,"sb":0.0,"k":"19048_0232"}},{"type":"Feature","geometry":{"type":"Point","coordinates":[-100.46898,25.69322]},"properties":{"s":0.9,"a":0.0,"t":0.0,"f":1.0,"fi":3,"c":0.0,"nc":0,"sm":0,"sb":0.0,"k":"19048_0232"}},{"type":"Feature","geometry":{"type":"Point","coordinates":[-100.46898,25.69502]},"properties":{"s":0.7,"a":0.8,"t":0.0,"f":0.0,"fi":0,"c":0.0,"nc":0,"sm":0,"sb":0.0,"k":"19048_0232"}},{"type":"Feature","geometry":{"type":"Point","coordinates":[-100.464,25.68869]},"properties":{"s":0.7,"a":0.8,"t":0.0,"f":0.0,"fi":0,"c":0.0,"nc":0,"sm":0,"sb":0.0,"k":"19048_0232"}},{"type":"Feature","geometry":{"type":"Point","coordinates":[-100.464,25.6896]},"properties":{"s":0.7,"a":0.8,"t":0.0,"f":0.0,"fi":0,"c":0.0,"nc":0,"sm":0,"sb":0.0,"k":"19048_0232"}},{"type":"Feature","geometry":{"type":"Point","coordinates":[-100.462,25.68688]},"properties":{"s":0.7,"a":0.8,"t":0.0,"f":0.0,"fi":0,"c":0.0,"nc":0,"sm":0,"sb":0.0,"k":"19048_0232"}},{"type":"Feature","geometry":{"type":"Point","coordinates":[-100.46001,25.68598]},"properties":{"s":0.7,"a":0.8,"t":0.0,"f":0.0,"fi":0,"c":0.0,"nc":0,"sm":0,"sb":0.0,"k":"19048_0232"}},{"type":"Feature","geometry":{"type":"Point","coordinates":[-100.45801,25.68598]},"properties":{"s":0.7,"a":0.8,"t":0.0,"f":0.0,"fi":0,"c":0.0,"nc":0,"sm":0,"sb":0.0,"k":"19048_0232"}},{"type":"Feature","geometry":{"type":"Point","coordinates":[-100.45801,25.68688]},"properties":{"s":0.7,"a":0.8,"t":0.0,"f":0.0,"fi":0,"c":0.0,"nc":0,"sm":0,"sb":0.0,"k":"19048_0232"}},{"type":"Feature","geometry":{"type":"Point","coordinates":[-100.45602,25.68417]},"properties":{"s":0.5,"a":0.0,"t":0.0,"f":0.5,"fi":2,"c":0.0,"nc":0,"sm":0,"sb":0.0,"k":"19048_0232"}},{"type":"Feature","geometry":{"type":"Point","coordinates":[-100.45502,25.68598]},"properties":{"s":0.5,"a":0.0,"t":0.0,"f":0.5,"fi":2,"c":0.0,"nc":0,"sm":0,"sb":0.0,"k":"19048_0232"}},{"type":"Feature","geometry":{"type":"Point","coordinates":[-100.46798,25.69231]},"properties":{"s":0.4,"a":0.4,"t":0.0,"f":0.0,"fi":0,"c":0.0,"nc":0,"sm":0,"sb":0.0,"k":"19048_0232"}},{"type":"Feature","geometry":{"type":"Point","coordinates":[-100.46699,25.69141]},"properties":{"s":0.4,"a":0.4,"t":0.0,"f":0.0,"fi":0,"c":0.0,"nc":0,"sm":0,"sb":0.0,"k":"19048_0232"}},{"type":"Feature","geometry":{"type":"Point","coordinates":[-100.46699,25.69231]},"properties":{"s":0.4,"a":0.4,"t":0.0,"f":0.0,"fi":0,"c":0.0,"nc":0,"sm":0,"sb":0.0,"k":"19048_0232"}},{"type":"Feature","geometry":{"type":"Point","coordinates":[-100.46599,25.6905]},"properties":{"s":0.4,"a":0.4,"t":0.0,"f":0.0,"fi":0,"c":0.0,"nc":0,"sm":0,"sb":0.0,"k":"19048_0232"}},{"type":"Feature","geometry":{"type":"Point","coordinates":[-100.46499,25.6896]},"properties":{"s":0.4,"a":0.4,"t":0.0,"f":0.0,"fi":0,"c":0.0,"nc":0,"sm":0,"sb":0.0,"k":"19048_0232"}},{"type":"Feature","geometry":{"type":"Point","coordinates":[-100.461,25.68598]},"properties":{"s":0.4,"a":0.4,"t":0.0,"f":0.0,"fi":0,"c":0.0,"nc":0,"sm":0,"sb":0.0,"k":"19048_0232"}},{"type":"Feature","geometry":{"type":"Point","coordinates":[-100.45702,25.68598]},"properties":{"s":0.4,"a":0.4,"t":0.0,"f":0.0,"fi":0,"c":0.0,"nc":0,"sm":0,"sb":0.0,"k":"19048_0232"}},{"type":"Feature","geometry":{"type":"Point","coordinates":[-100.47995,25.67784]},"properties":{"s":6.8,"a":7.8,"t":0.0,"f":1.0,"fi":3,"c":1.2,"nc":1,"sm":0,"sb":0.0,"k":"19048_0021"}},{"type":"Feature","geometry":{"type":"Point","coordinates":[-100.47895,25.67693]},"properties":{"s":5.2,"a":5.8,"t":2.0,"f":0.0,"fi":0,"c":2.0,"nc":1,"sm":0,"sb":0.0,"k":"19048_0021"}},{"type":"Feature","geometry":{"type":"Point","coordinates":[-100.47795,25.67693]},"properties":{"s":5.0,"a":3.4,"t":2.0,"f":1.0,"fi":3,"c":0.9,"nc":1,"sm":0,"sb":0.0,"k":"19048_0021"}},{"type":"Feature","geometry":{"type":"Point","coordinates":[-100.48094,25.67784]},"properties":{"s":4.9,"a":6.3,"t":0.0,"f":0.0,"fi":0,"c":0.9,"nc":1,"sm":0,"sb":0.0,"k":"19048_0021"}},{"type":"Feature","geometry":{"type":"Point","coordinates":[-100.47995,25.67422]},"properties":{"s":3.6,"a":5.6,"t":0.0,"f":0.0,"fi":0,"c":1.5,"nc":1,"sm":0,"sb":0.0,"k":"19048_0021"}},{"type":"Feature","geometry":{"type":"Point","coordinates":[-100.48094,25.67512]},"properties":{"s":3.5,"a":6.1,"t":0.0,"f":0.0,"fi":0,"c":2.3,"nc":1,"sm":0,"sb":0.0,"k":"19048_0021"}},{"type":"Feature","geometry":{"type":"Point","coordinates":[-100.47895,25.67512]},"properties":{"s":3.4,"a":6.0,"t":0.0,"f":0.0,"fi":0,"c":2.2,"nc":1,"sm":0,"sb":0.0,"k":"19048_0021"}},{"type":"Feature","geometry":{"type":"Point","coordinates":[-100.48194,25.67422]},"properties":{"s":2.9,"a":3.6,"t":0.0,"f":0.0,"fi":0,"c":0.4,"nc":1,"sm":0,"sb":0.0,"k":"19048_0021"}},{"type":"Feature","geometry":{"type":"Point","coordinates":[-100.48194,25.67512]},"properties":{"s":2.6,"a":4.1,"t":0.0,"f":0.0,"fi":0,"c":1.1,"nc":1,"sm":0,"sb":0.0,"k":"19048_0021"}},{"type":"Feature","geometry":{"type":"Point","coordinates":[-100.48094,25.67422]},"properties":{"s":2.6,"a":4.1,"t":0.0,"f":0.0,"fi":0,"c":1.2,"nc":1,"sm":0,"sb":0.0,"k":"19048_0021"}},{"type":"Feature","geometry":{"type":"Point","coordinates":[-100.47995,25.67693]},"properties":{"s":2.3,"a":5.0,"t":0.0,"f":0.0,"fi":0,"c":2.5,"nc":1,"sm":0,"sb":0.0,"k":"19048_0021"}},{"type":"Feature","geometry":{"type":"Point","coordinates":[-100.48194,25.67331]},"properties":{"s":2.2,"a":2.5,"t":0.0,"f":0.0,"fi":0,"c":0.0,"nc":0,"sm":0,"sb":0.0,"k":"19048_0021"}},{"type":"Feature","geometry":{"type":"Point","coordinates":[-100.48094,25.67331]},"properties":{"s":1.8,"a":2.0,"t":0.0,"f":0.0,"fi":0,"c":0.0,"nc":0,"sm":0,"sb":0.0,"k":"19048_0021"}},{"type":"Feature","geometry":{"type":"Point","coordinates":[-100.47995,25.67331]},"properties":{"s":1.8,"a":2.2,"t":0.0,"f":0.0,"fi":0,"c":0.2,"nc":1,"sm":0,"sb":0.0,"k":"19048_0021"}},{"type":"Feature","geometry":{"type":"Point","coordinates":[-100.47995,25.67512]},"properties":{"s":1.7,"a":4.7,"t":0.0,"f":0.0,"fi":0,"c":2.8,"nc":1,"sm":0,"sb":0.0,"k":"19048_0021"}},{"type":"Feature","geometry":{"type":"Point","coordinates":[-100.47995,25.67603]},"properties":{"s":1.3,"a":5.3,"t":0.0,"f":0.0,"fi":0,"c":3.8,"nc":1,"sm":0,"sb":0.0,"k":"19048_0021"}},{"type":"Feature","geometry":{"type":"Point","coordinates":[-100.47895,25.67603]},"properties":{"s":1.3,"a":4.1,"t":0.0,"f":0.0,"fi":0,"c":2.6,"nc":1,"sm":0,"sb":0.0,"k":"19048_0021"}},{"type":"Feature","geometry":{"type":"Point","coordinates":[-100.48094,25.67603]},"properties":{"s":1.2,"a":4.1,"t":0.0,"f":0.0,"fi":0,"c":2.7,"nc":1,"sm":0,"sb":0.0,"k":"19048_0021"}},{"type":"Feature","geometry":{"type":"Point","coordinates":[-100.48094,25.67693]},"properties":{"s":0.8,"a":2.9,"t":0.0,"f":0.0,"fi":0,"c":2.0,"nc":1,"sm":0,"sb":0.0,"k":"19048_0021"}},{"type":"Feature","geometry":{"type":"Point","coordinates":[-100.42611,25.69412]},"properties":{"s":3.7,"a":3.6,"t":0.0,"f":0.0,"fi":0,"c":0.0,"nc":0,"sm":0,"sb":-0.0,"k":"19048_0033"}},{"type":"Feature","geometry":{"type":"Point","coordinates":[-100.42412,25.69322]},"properties":{"s":3.6,"a":3.6,"t":0.0,"f":0.0,"fi":0,"c":0.0,"nc":0,"sm":0,"sb":-0.0,"k":"19048_0033"}},{"type":"Feature","geometry":{"type":"Point","coordinates":[-100.42412,25.69412]},"properties":{"s":3.6,"a":3.6,"t":0.0,"f":0.0,"fi":0,"c":0.0,"nc":0,"sm":0,"sb":-0.0,"k":"19048_0033"}},{"type":"Feature","geometry":{"type":"Point","coordinates":[-100.42611,25.69502]},"properties":{"s":3.3,"a":3.2,"t":0.0,"f":0.0,"fi":0,"c":0.0,"nc":0,"sm":0,"sb":-0.0,"k":"19048_0033"}},{"type":"Feature","geometry":{"type":"Point","coordinates":[-100.42412,25.69231]},"properties":{"s":3.2,"a":3.2,"t":0.0,"f":0.0,"fi":0,"c":0.0,"nc":0,"sm":0,"sb":-0.0,"k":"19048_0033"}},{"type":"Feature","geometry":{"type":"Point","coordinates":[-100.42511,25.69412]},"properties":{"s":2.4,"a":2.4,"t":0.0,"f":0.0,"fi":0,"c":0.0,"nc":0,"sm":0,"sb":-0.0,"k":"19048_0033"}},{"type":"Feature","geometry":{"type":"Point","coordinates":[-100.42312,25.69322]},"properties":{"s":2.4,"a":2.4,"t":0.0,"f":0.0,"fi":0,"c":0.0,"nc":0,"sm":0,"sb":-0.0,"k":"19048_0033"}},{"type":"Feature","geometry":{"type":"Point","coordinates":[-100.42611,25.69322]},"properties":{"s":2.0,"a":2.0,"t":0.0,"f":0.0,"fi":0,"c":0.0,"nc":0,"sm":0,"sb":-0.0,"k":"19048_0033"}},{"type":"Feature","geometry":{"type":"Point","coordinates":[-100.42511,25.69322]},"properties":{"s":2.0,"a":2.0,"t":0.0,"f":0.0,"fi":0,"c":0.0,"nc":0,"sm":0,"sb":-0.0,"k":"19048_0033"}},{"type":"Feature","geometry":{"type":"Point","coordinates":[-100.42611,25.6896]},"properties":{"s":4.8,"a":4.6,"t":0.0,"f":0.0,"fi":0,"c":0.0,"nc":0,"sm":0,"sb":-0.1,"k":"19048_0056"}},{"type":"Feature","geometry":{"type":"Point","coordinates":[-100.42511,25.6896]},"properties":{"s":4.8,"a":4.6,"t":0.0,"f":0.0,"fi":0,"c":0.0,"nc":0,"sm":0,"sb":-0.1,"k":"19048_0056"}},{"type":"Feature","geometry":{"type":"Point","coordinates":[-100.42611,25.68869]},"properties":{"s":4.4,"a":4.2,"t":0.0,"f":0.0,"fi":0,"c":0.0,"nc":0,"sm":0,"sb":-0.1,"k":"19048_0056"}},{"type":"Feature","geometry":{"type":"Point","coordinates":[-100.42611,25.6905]},"properties":{"s":4.0,"a":3.8,"t":0.0,"f":0.0,"fi":0,"c":0.0,"nc":0,"sm":0,"sb":-0.0,"k":"19048_0056"}},{"type":"Feature","geometry":{"type":"Point","coordinates":[-100.42711,25.68869]},"properties":{"s":3.5,"a":3.4,"t":0.0,"f":0.0,"fi":0,"c":0.0,"nc":0,"sm":0,"sb":-0.0,"k":"19048_0056"}},{"type":"Feature","geometry":{"type":"Point","coordinates":[-100.42711,25.6896]},"properties":{"s":3.5,"a":3.4,"t":0.0,"f":0.0,"fi":0,"c":0.0,"nc":0,"sm":0,"sb":-0.0,"k":"19048_0056"}},{"type":"Feature","geometry":{"type":"Point","coordinates":[-100.42511,25.68869]},"properties":{"s":3.3,"a":3.2,"t":0.0,"f":0.0,"fi":0,"c":0.0,"nc":0,"sm":0,"sb":-0.0,"k":"19048_0056"}},{"type":"Feature","geometry":{"type":"Point","coordinates":[-100.42711,25.6905]},"properties":{"s":3.1,"a":3.0,"t":0.0,"f":0.0,"fi":0,"c":0.0,"nc":0,"sm":0,"sb":-0.0,"k":"19048_0056"}},{"type":"Feature","geometry":{"type":"Point","coordinates":[-100.42811,25.6896]},"properties":{"s":2.2,"a":1.6,"t":0.0,"f":0.5,"fi":2,"c":0.0,"nc":0,"sm":0,"sb":-0.0,"k":"19048_0056"}},{"type":"Feature","geometry":{"type":"Point","coordinates":[-100.42811,25.6905]},"properties":{"s":1.8,"a":1.2,"t":0.0,"f":0.5,"fi":2,"c":0.0,"nc":0,"sm":0,"sb":-0.0,"k":"19048_0056"}},{"type":"Feature","geometry":{"type":"Point","coordinates":[-100.4311,25.67784]},"properties":{"s":1.5,"a":1.2,"t":0.0,"f":0.5,"fi":2,"c":0.0,"nc":0,"sm":0,"sb":-0.0,"k":"19048_0237"}},{"type":"Feature","geometry":{"type":"Point","coordinates":[-100.4301,25.67512]},"properties":{"s":1.5,"a":0.0,"t":1.8,"f":0.0,"fi":0,"c":0.0,"nc":0,"sm":0,"sb":-0.0,"k":"19048_0237"}},{"type":"Feature","geometry":{"type":"Point","coordinates":[-100.4301,25.67784]},"properties":{"s":1.5,"a":1.2,"t":0.0,"f":0.5,"fi":2,"c":0.0,"nc":0,"sm":0,"sb":-0.0,"k":"19048_0237"}},{"type":"Feature","geometry":{"type":"Point","coordinates":[-100.4291,25.67512]},"properties":{"s":1.3,"a":0.0,"t":1.0,"f":0.5,"fi":2,"c":0.0,"nc":0,"sm":0,"sb":-0.0,"k":"19048_0237"}},{"type":"Feature","geometry":{"type":"Point","coordinates":[-100.43508,25.67512]},"properties":{"s":1.1,"a":1.2,"t":0.0,"f":0.0,"fi":0,"c":0.0,"nc":0,"sm":0,"sb":-0.0,"k":"19048_0237"}},{"type":"Feature","geometry":{"type":"Point","coordinates":[-100.43508,25.67603]},"properties":{"s":1.1,"a":1.2,"t":0.0,"f":0.0,"fi":0,"c":0.0,"nc":0,"sm":0,"sb":-0.0,"k":"19048_0237"}},{"type":"Feature","geometry":{"type":"Point","coordinates":[-100.4311,25.67512]},"properties":{"s":0.9,"a":0.0,"t":1.0,"f":0.0,"fi":0,"c":0.0,"nc":0,"sm":0,"sb":-0.0,"k":"19048_0237"}},{"type":"Feature","geometry":{"type":"Point","coordinates":[-100.43209,25.67784]},"properties":{"s":0.8,"a":0.4,"t":0.0,"f":0.5,"fi":2,"c":0.0,"nc":0,"sm":0,"sb":-0.0,"k":"19048_0237"}},{"type":"Feature","geometry":{"type":"Point","coordinates":[-100.4291,25.67784]},"properties":{"s":0.8,"a":0.4,"t":0.0,"f":0.5,"fi":2,"c":0.0,"nc":0,"sm":0,"sb":-0.0,"k":"19048_0237"}},{"type":"Feature","geometry":{"type":"Point","coordinates":[-100.42811,25.67784]},"properties":{"s":0.8,"a":0.4,"t":0.0,"f":0.5,"fi":2,"c":0.0,"nc":0,"sm":0,"sb":-0.0,"k":"19048_0237"}},{"type":"Feature","geometry":{"type":"Point","coordinates":[-100.43409,25.67512]},"properties":{"s":0.7,"a":0.0,"t":0.8,"f":0.0,"fi":0,"c":0.0,"nc":0,"sm":0,"sb":-0.0,"k":"19048_0237"}},{"type":"Feature","geometry":{"type":"Point","coordinates":[-100.43309,25.67512]},"properties":{"s":0.7,"a":0.0,"t":0.8,"f":0.0,"fi":0,"c":0.0,"nc":0,"sm":0,"sb":-0.0,"k":"19048_0237"}},{"type":"Feature","geometry":{"type":"Point","coordinates":[-100.4301,25.67693]},"properties":{"s":0.7,"a":0.8,"t":0.0,"f":0.0,"fi":0,"c":0.0,"nc":0,"sm":0,"sb":-0.0,"k":"19048_0237"}},{"type":"Feature","geometry":{"type":"Point","coordinates":[-100.43309,25.67784]},"properties":{"s":0.4,"a":0.0,"t":0.0,"f":0.5,"fi":2,"c":0.0,"nc":0,"sm":0,"sb":-0.0,"k":"19048_0237"}},{"type":"Feature","geometry":{"type":"Point","coordinates":[-100.4291,25.67603]},"properties":{"s":0.4,"a":0.0,"t":0.0,"f":0.5,"fi":2,"c":0.0,"nc":0,"sm":0,"sb":-0.0,"k":"19048_0237"}},{"type":"Feature","geometry":{"type":"Point","coordinates":[-100.43209,25.67693]},"properties":{"s":0.3,"a":0.4,"t":0.0,"f":0.0,"fi":0,"c":0.0,"nc":0,"sm":0,"sb":-0.0,"k":"19048_0237"}},{"type":"Feature","geometry":{"type":"Point","coordinates":[-100.4311,25.67693]},"properties":{"s":0.3,"a":0.4,"t":0.0,"f":0.0,"fi":0,"c":0.0,"nc":0,"sm":0,"sb":-0.0,"k":"19048_0237"}},{"type":"Feature","geometry":{"type":"Point","coordinates":[-100.4291,25.67693]},"properties":{"s":0.3,"a":0.4,"t":0.0,"f":0.0,"fi":0,"c":0.0,"nc":0,"sm":0,"sb":-0.0,"k":"19048_0237"}},{"type":"Feature","geometry":{"type":"Point","coordinates":[-100.45702,25.69683]},"properties":{"s":4.9,"a":6.0,"t":1.0,"f":0.0,"fi":0,"c":0.7,"nc":1,"sm":0,"sb":-0.0,"k":"19048_0120"}},{"type":"Feature","geometry":{"type":"Point","coordinates":[-100.45502,25.69683]},"properties":{"s":3.9,"a":3.4,"t":1.0,"f":0.5,"fi":2,"c":0.0,"nc":0,"sm":0,"sb":-0.0,"k":"19048_0120"}},{"type":"Feature","geometry":{"type":"Point","coordinates":[-100.45602,25.69683]},"properties":{"s":3.8,"a":3.4,"t":1.0,"f":0.5,"fi":2,"c":0.0,"nc":0,"sm":0,"sb":-0.0,"k":"19048_0120"}},{"type":"Feature","geometry":{"type":"Point","coordinates":[-100.45702,25.69593]},"properties":{"s":3.1,"a":4.8,"t":0.0,"f":0.0,"fi":0,"c":0.8,"nc":1,"sm":0,"sb":-0.0,"k":"19048_0120"}},{"type":"Feature","geometry":{"type":"Point","coordinates":[-100.45502,25.69593]},"properties":{"s":2.9,"a":2.2,"t":1.0,"f":0.5,"fi":2,"c":0.0,"nc":0,"sm":0,"sb":-0.0,"k":"19048_0120"}},{"type":"Feature","geometry":{"type":"Point","coordinates":[-100.45801,25.69322]},"properties":{"s":2.8,"a":4.2,"t":2.0,"f":1.0,"fi":3,"c":3.6,"nc":1,"sm":0,"sb":-0.0,"k":"19048_0120"}},{"type":"Feature","geometry":{"type":"Point","coordinates":[-100.45702,25.69322]},"properties":{"s":2.3,"a":3.9,"t":1.0,"f":0.5,"fi":2,"c":2.5,"nc":1,"sm":0,"sb":-0.0,"k":"19048_0120"}},{"type":"Feature","geometry":{"type":"Point","coordinates":[-100.45602,25.69593]},"properties":{"s":2.3,"a":3.0,"t":0.0,"f":0.0,"fi":0,"c":0.0,"nc":0,"sm":0,"sb":-0.0,"k":"19048_0120"}},{"type":"Feature","geometry":{"type":"Point","coordinates":[-100.45702,25.69231]},"properties":{"s":2.1,"a":3.8,"t":0.0,"f":1.0,"fi":3,"c":2.2,"nc":1,"sm":0,"sb":-0.0,"k":"19048_0120"}},{"type":"Feature","geometry":{"type":"Point","coordinates":[-100.45602,25.69412]},"properties":{"s":2.0,"a":1.8,"t":1.0,"f":0.5,"fi":2,"c":0.7,"nc":1,"sm":0,"sb":-0.0,"k":"19048_0120"}},{"type":"Feature","geometry":{"type":"Point","coordinates":[-100.45602,25.69502]},"properties":{"s":1.7,"a":2.2,"t":0.0,"f":0.0,"fi":0,"c":0.0,"nc":0,"sm":0,"sb":-0.0,"k":"19048_0120"}},{"type":"Feature","geometry":{"type":"Point","coordinates":[-100.45801,25.69502]},"properties":{"s":0.9,"a":3.7,"t":0.0,"f":0.0,"fi":0,"c":2.6,"nc":2,"sm":0,"sb":-0.0,"k":"19048_0120"}},{"type":"Feature","geometry":{"type":"Point","coordinates":[-100.45702,25.69412]},"properties":{"s":0.7,"a":2.1,"t":0.0,"f":0.5,"fi":2,"c":1.8,"nc":1,"sm":0,"sb":-0.0,"k":"19048_0120"}},{"type":"Feature","geometry":{"type":"Point","coordinates":[-100.45901,25.69322]},"properties":{"s":0.5,"a":2.4,"t":0.0,"f":1.0,"fi":3,"c":2.8,"nc":1,"sm":0,"sb":-0.0,"k":"19048_0120"}},{"type":"Feature","geometry":{"type":"Point","coordinates":[-100.45702,25.69502]},"properties":{"s":0.4,"a":1.7,"t":0.0,"f":0.0,"fi":0,"c":1.1,"nc":2,"sm":0,"sb":-0.0,"k":"19048_0120"}},{"type":"Feature","geometry":{"type":"Point","coordinates":[-100.45801,25.69412]},"properties":{"s":0.3,"a":2.8,"t":0.0,"f":0.5,"fi":2,"c":2.9,"nc":2,"sm":0,"sb":-0.0,"k":"19048_0120"}},{"type":"Feature","geometry":{"type":"Point","coordinates":[-100.42511,25.6905]},"properties":{"s":5.6,"a":5.4,"t":0.0,"f":0.0,"fi":0,"c":0.0,"nc":0,"sm":0,"sb":-0.1,"k":"19048_0032"}},{"type":"Feature","geometry":{"type":"Point","coordinates":[-100.42511,25.69141]},"properties":{"s":3.3,"a":3.2,"t":0.0,"f":0.0,"fi":0,"c":0.0,"nc":0,"sm":0,"sb":-0.0,"k":"19048_0032"}},{"type":"Feature","geometry":{"type":"Point","coordinates":[-100.42611,25.69141]},"properties":{"s":2.9,"a":2.8,"t":0.0,"f":0.0,"fi":0,"c":0.0,"nc":0,"sm":0,"sb":-0.0,"k":"19048_0032"}},{"type":"Feature","geometry":{"type":"Point","coordinates":[-100.42412,25.6905]},"properties":{"s":2.9,"a":2.8,"t":0.0,"f":0.0,"fi":0,"c":0.0,"nc":0,"sm":0,"sb":-0.0,"k":"19048_0032"}},{"type":"Feature","geometry":{"type":"Point","coordinates":[-100.42711,25.69231]},"properties":{"s":2.6,"a":2.0,"t":0.0,"f":0.5,"fi":2,"c":0.0,"nc":0,"sm":0,"sb":-0.0,"k":"19048_0032"}},{"type":"Feature","geometry":{"type":"Point","coordinates":[-100.42711,25.69141]},"properties":{"s":2.5,"a":2.4,"t":0.0,"f":0.0,"fi":0,"c":0.0,"nc":0,"sm":0,"sb":-0.0,"k":"19048_0032"}},{"type":"Feature","geometry":{"type":"Point","coordinates":[-100.42412,25.69141]},"properties":{"s":2.5,"a":2.4,"t":0.0,"f":0.0,"fi":0,"c":0.0,"nc":0,"sm":0,"sb":-0.0,"k":"19048_0032"}},{"type":"Feature","geometry":{"type":"Point","coordinates":[-100.42611,25.69231]},"properties":{"s":2.1,"a":2.0,"t":0.0,"f":0.0,"fi":0,"c":0.0,"nc":0,"sm":0,"sb":-0.0,"k":"19048_0032"}},{"type":"Feature","geometry":{"type":"Point","coordinates":[-100.42511,25.69231]},"properties":{"s":2.1,"a":2.0,"t":0.0,"f":0.0,"fi":0,"c":0.0,"nc":0,"sm":0,"sb":-0.0,"k":"19048_0032"}},{"type":"Feature","geometry":{"type":"Point","coordinates":[-100.44306,25.68507]},"properties":{"s":4.1,"a":0.9,"t":4.0,"f":1.0,"fi":3,"c":0.0,"nc":1,"sm":0,"sb":0.1,"k":"19048_0129"}},{"type":"Feature","geometry":{"type":"Point","coordinates":[-100.44406,25.68598]},"properties":{"s":3.8,"a":0.4,"t":4.0,"f":1.0,"fi":3,"c":0.0,"nc":0,"sm":0,"sb":0.1,"k":"19048_0129"}},{"type":"Feature","geometry":{"type":"Point","coordinates":[-100.44206,25.68598]},"properties":{"s":3.7,"a":5.2,"t":0.0,"f":0.0,"fi":0,"c":0.0,"nc":0,"sm":0,"sb":0.1,"k":"19048_0129"}},{"type":"Feature","geometry":{"type":"Point","coordinates":[-100.44107,25.6905]},"properties":{"s":3.5,"a":2.6,"t":2.0,"f":0.5,"fi":2,"c":0.0,"nc":1,"sm":0,"sb":0.1,"k":"19048_0129"}},{"type":"Feature","geometry":{"type":"Point","coordinates":[-100.43807,25.6905]},"properties":{"s":3.1,"a":4.5,"t":0.0,"f":0.0,"fi":0,"c":0.0,"nc":1,"sm":0,"sb":0.1,"k":"19048_0129"}},{"type":"Feature","geometry":{"type":"Point","coordinates":[-100.44206,25.68688]},"properties":{"s":3.0,"a":4.4,"t":0.0,"f":0.0,"fi":0,"c":0.2,"nc":1,"sm":0,"sb":0.1,"k":"19048_0129"}},{"type":"Feature","geometry":{"type":"Point","coordinates":[-100.44107,25.68688]},"properties":{"s":2.8,"a":5.2,"t":0.0,"f":0.0,"fi":0,"c":1.3,"nc":1,"sm":0,"sb":0.1,"k":"19048_0129"}},{"type":"Feature","geometry":{"type":"Point","coordinates":[-100.44306,25.68779]},"properties":{"s":2.7,"a":2.5,"t":1.0,"f":0.5,"fi":2,"c":0.0,"nc":0,"sm":0,"sb":0.1,"k":"19048_0129"}},{"type":"Feature","geometry":{"type":"Point","coordinates":[-100.44206,25.6896]},"properties":{"s":2.7,"a":2.4,"t":1.0,"f":0.5,"fi":2,"c":0.1,"nc":1,"sm":0,"sb":0.1,"k":"19048_0129"}},{"type":"Feature","geometry":{"type":"Point","coordinates":[-100.43608,25.68779]},"properties":{"s":2.7,"a":3.4,"t":0.0,"f":0.5,"fi":2,"c":0.0,"nc":0,"sm":0,"sb":0.1,"k":"19048_0129"}},{"type":"Feature","geometry":{"type":"Point","coordinates":[-100.44206,25.68507]},"properties":{"s":2.6,"a":1.3,"t":2.0,"f":0.5,"fi":2,"c":0.0,"nc":0,"sm":0,"sb":0.1,"k":"19048_0129"}},{"type":"Feature","geometry":{"type":"Point","coordinates":[-100.44107,25.68598]},"properties":{"s":2.6,"a":4.0,"t":0.0,"f":0.0,"fi":0,"c":0.2,"nc":1,"sm":0,"sb":0.1,"k":"19048_0129"}},{"type":"Feature","geometry":{"type":"Point","coordinates":[-100.43608,25.68598]},"properties":{"s":2.6,"a":3.2,"t":0.0,"f":0.5,"fi":2,"c":0.0,"nc":0,"sm":0,"sb":0.1,"k":"19048_0129"}},{"type":"Feature","geometry":{"type":"Point","coordinates":[-100.44306,25.68688]},"properties":{"s":2.4,"a":2.5,"t":1.0,"f":0.0,"fi":0,"c":0.0,"nc":0,"sm":0,"sb":0.1,"k":"19048_0129"}},{"type":"Feature","geometry":{"type":"Point","coordinates":[-100.43608,25.68688]},"properties":{"s":2.4,"a":3.4,"t":0.0,"f":0.0,"fi":0,"c":0.0,"nc":0,"sm":0,"sb":0.1,"k":"19048_0129"}},{"type":"Feature","geometry":{"type":"Point","coordinates":[-100.44206,25.68779]},"properties":{"s":2.2,"a":3.9,"t":0.0,"f":0.0,"fi":0,"c":0.6,"nc":1,"sm":0,"sb":0.1,"k":"19048_0129"}},{"type":"Feature","geometry":{"type":"Point","coordinates":[-100.44107,25.68779]},"properties":{"s":2.2,"a":5.1,"t":0.0,"f":0.0,"fi":0,"c":1.9,"nc":1,"sm":0,"sb":0.1,"k":"19048_0129"}},{"type":"Feature","geometry":{"type":"Point","coordinates":[-100.43508,25.68779]},"properties":{"s":2.2,"a":2.6,"t":0.0,"f":0.5,"fi":2,"c":0.0,"nc":0,"sm":0,"sb":0.1,"k":"19048_0129"}},{"type":"Feature","geometry":{"type":"Point","coordinates":[-100.44107,25.68507]},"properties":{"s":1.9,"a":2.2,"t":0.0,"f":0.5,"fi":2,"c":0.0,"nc":0,"sm":0,"sb":0.0,"k":"19048_0129"}},{"type":"Feature","geometry":{"type":"Point","coordinates":[-100.43708,25.68779]},"properties":{"s":1.9,"a":3.4,"t":0.0,"f":0.0,"fi":0,"c":0.6,"nc":1,"sm":0,"sb":0.0,"k":"19048_0129"}},{"type":"Feature","geometry":{"type":"Point","coordinates":[-100.43708,25.68869]},"properties":{"s":1.8,"a":2.6,"t":0.0,"f":0.5,"fi":2,"c":0.6,"nc":1,"sm":0,"sb":0.0,"k":"19048_0129"}},{"type":"Feature","geometry":{"type":"Point","coordinates":[-100.44107,25.6896]},"properties":{"s":1.7,"a":3.6,"t":0.0,"f":0.0,"fi":0,"c":1.1,"nc":1,"sm":0,"sb":0.0,"k":"19048_0129"}},{"type":"Feature","geometry":{"type":"Point","coordinates":[-100.44007,25.68688]},"properties":{"s":1.7,"a":4.4,"t":0.0,"f":0.0,"fi":0,"c":2.0,"nc":1,"sm":0,"sb":0.0,"k":"19048_0129"}},{"type":"Feature","geometry":{"type":"Point","coordinates":[-100.43708,25.68688]},"properties":{"s":1.7,"a":2.6,"t":0.0,"f":0.0,"fi":0,"c":0.2,"nc":1,"sm":0,"sb":0.0,"k":"19048_0129"}},{"type":"Feature","geometry":{"type":"Point","coordinates":[-100.44206,25.68869]},"properties":{"s":1.5,"a":1.8,"t":1.0,"f":0.0,"fi":0,"c":0.6,"nc":1,"sm":0,"sb":0.0,"k":"19048_0129"}},{"type":"Feature","geometry":{"type":"Point","coordinates":[-100.43907,25.6896]},"properties":{"s":1.5,"a":3.5,"t":0.0,"f":0.5,"fi":2,"c":1.8,"nc":1,"sm":0,"sb":0.0,"k":"19048_0129"}},{"type":"Feature","geometry":{"type":"Point","coordinates":[-100.44007,25.68598]},"properties":{"s":1.3,"a":2.6,"t":0.0,"f":0.0,"fi":0,"c":0.7,"nc":1,"sm":0,"sb":0.0,"k":"19048_0129"}},{"type":"Feature","geometry":{"type":"Point","coordinates":[-100.44007,25.6896]},"properties":{"s":1.3,"a":3.2,"t":0.0,"f":0.5,"fi":2,"c":1.8,"nc":1,"sm":0,"sb":0.0,"k":"19048_0129"}},{"type":"Feature","geometry":{"type":"Point","coordinates":[-100.44007,25.6905]},"properties":{"s":1.3,"a":1.8,"t":0.0,"f":0.5,"fi":2,"c":0.5,"nc":1,"sm":0,"sb":0.0,"k":"19048_0129"}},{"type":"Feature","geometry":{"type":"Point","coordinates":[-100.43807,25.6896]},"properties":{"s":1.1,"a":2.1,"t":0.0,"f":0.5,"fi":2,"c":1.1,"nc":1,"sm":0,"sb":0.0,"k":"19048_0129"}},{"type":"Feature","geometry":{"type":"Point","coordinates":[-100.43708,25.68598]},"properties":{"s":1.1,"a":1.6,"t":0.0,"f":0.0,"fi":0,"c":0.0,"nc":0,"sm":0,"sb":0.0,"k":"19048_0129"}},{"type":"Feature","geometry":{"type":"Point","coordinates":[-100.44007,25.68869]},"properties":{"s":1.0,"a":4.4,"t":0.0,"f":0.0,"fi":0,"c":3.0,"nc":1,"sm":0,"sb":0.0,"k":"19048_0129"}},{"type":"Feature","geometry":{"type":"Point","coordinates":[-100.44107,25.68869]},"properties":{"s":0.9,"a":3.2,"t":0.0,"f":0.0,"fi":0,"c":1.9,"nc":1,"sm":0,"sb":0.0,"k":"19048_0129"}},{"type":"Feature","geometry":{"type":"Point","coordinates":[-100.44007,25.68507]},"properties":{"s":0.9,"a":0.8,"t":0.0,"f":0.5,"fi":2,"c":0.0,"nc":0,"sm":0,"sb":0.0,"k":"19048_0129"}},{"type":"Feature","geometry":{"type":"Point","coordinates":[-100.43907,25.68869]},"properties":{"s":0.7,"a":3.9,"t":0.0,"f":0.0,"fi":0,"c":3.0,"nc":1,"sm":0,"sb":0.0,"k":"19048_0129"}},{"type":"Feature","geometry":{"type":"Point","coordinates":[-100.43708,25.68507]},"properties":{"s":0.6,"a":0.9,"t":0.0,"f":0.0,"fi":0,"c":0.0,"nc":0,"sm":0,"sb":0.0,"k":"19048_0129"}},{"type":"Feature","geometry":{"type":"Point","coordinates":[-100.44007,25.68779]},"properties":{"s":0.5,"a":3.8,"t":0.0,"f":0.0,"fi":0,"c":3.1,"nc":1,"sm":0,"sb":0.0,"k":"19048_0129"}},{"type":"Feature","geometry":{"type":"Point","coordinates":[-100.43807,25.68869]},"properties":{"s":0.5,"a":2.1,"t":0.0,"f":0.5,"fi":2,"c":1.8,"nc":1,"sm":0,"sb":0.0,"k":"19048_0129"}},{"type":"Feature","geometry":{"type":"Point","coordinates":[-100.44306,25.68598]},"properties":{"s":0.3,"a":0.4,"t":0.0,"f":0.0,"fi":0,"c":0.0,"nc":0,"sm":0,"sb":0.0,"k":"19048_0129"}},{"type":"Feature","geometry":{"type":"Point","coordinates":[-100.43807,25.68507]},"properties":{"s":0.3,"a":0.5,"t":0.0,"f":0.0,"fi":0,"c":0.0,"nc":0,"sm":0,"sb":0.0,"k":"19048_0129"}},{"type":"Feature","geometry":{"type":"Point","coordinates":[-100.43807,25.68688]},"properties":{"s":0.2,"a":1.6,"t":0.0,"f":0.0,"fi":0,"c":1.2,"nc":1,"sm":0,"sb":0.0,"k":"19048_0129"}},{"type":"Feature","geometry":{"type":"Point","coordinates":[-100.43807,25.68779]},"properties":{"s":0.2,"a":2.2,"t":0.0,"f":0.0,"fi":0,"c":1.9,"nc":1,"sm":0,"sb":0.0,"k":"19048_0129"}},{"type":"Feature","geometry":{"type":"Point","coordinates":[-100.43807,25.68598]},"properties":{"s":0.1,"a":0.4,"t":0.0,"f":0.0,"fi":0,"c":0.2,"nc":1,"sm":0,"sb":0.0,"k":"19048_0129"}}]}