{"type":"FeatureCollection","features":[{"type":"Feature","geometry":{"type":"Point","coordinates":[-100.36231,25.7683]},"properties":{"k":"19039_0041","c":"Ampliacion Municipal","m":"Monterrey","i":1,"n":1,"s":9.0,"rb":1,"pd":9.6}},{"type":"Feature","geometry":{"type":"Point","coordinates":[-100.37327,25.77011]},"properties":{"k":"19039_0289","c":"Fomerrey 112 (San Bernabe 9)","m":"Monterrey","i":1,"n":2,"s":7.5,"rb":2,"pd":3.1}},{"type":"Feature","geometry":{"type":"Point","coordinates":[-100.37527,25.76468]},"properties":{"k":"19039_0289","c":"Fomerrey 112 (San Bernabe 9)","m":"Monterrey","i":2,"n":2,"s":6.0,"rb":2,"pd":2.6}},{"type":"Feature","geometry":{"type":"Point","coordinates":[-100.37327,25.82891]},"properties":{"k":"19021_0247","c":"San Miguel Residencial","m":"General Escobedo","i":1,"n":3,"s":6.9,"rb":3,"pd":1.3}},{"type":"Feature","geometry":{"type":"Point","coordinates":[-100.37427,25.84158]},"properties":{"k":"19021_0247","c":"San Miguel Residencial","m":"General Escobedo","i":2,"n":3,"s":6.6,"rb":3,"pd":1.2}},{"type":"Feature","geometry":{"type":"Point","coordinates":[-100.37327,25.84791]},"properties":{"k":"19021_0247","c":"San Miguel Residencial","m":"General Escobedo","i":3,"n":3,"s":6.2,"rb":3,"pd":1.3}},{"type":"Feature","geometry":{"type":"Point","coordinates":[-100.37726,25.78549]},"properties":{"k":"19039_0167","c":"Croc","m":"Monterrey","i":1,"n":3,"s":9.2,"rb":4,"pd":4.7}},{"type":"Feature","geometry":{"type":"Point","coordinates":[-100.36829,25.77463]},"properties":{"k":"19039_0167","c":"Croc","m":"Monterrey","i":2,"n":3,"s":8.8,"rb":4,"pd":6.7}},{"type":"Feature","geometry":{"type":"Point","coordinates":[-100.37627,25.79363]},"properties":{"k":"19039_0167","c":"Croc","m":"Monterrey","i":3,"n":3,"s":7.5,"rb":4,"pd":12.0}},{"type":"Feature","geometry":{"type":"Point","coordinates":[-100.17189,25.75925]},"properties":{"k":"19006_0406","c":"Pueblo Nuevo 4To Sector","m":"Apodaca","i":1,"n":1,"s":10.9,"rb":5,"pd":2.5}},{"type":"Feature","geometry":{"type":"Point","coordinates":[-100.16691,25.76016]},"properties":{"k":"19006_0403","c":"Pueblo Nuevo 1Er Sector","m":"Apodaca","i":1,"n":1,"s":13.3,"rb":6,"pd":2.2}},{"type":"Feature","geometry":{"type":"Point","coordinates":[-100.37726,25.78911]},"properties":{"k":"19039_0296","c":"Fomerrey 24","m":"Monterrey","i":1,"n":1,"s":9.4,"rb":7,"pd":7.5}},{"type":"Feature","geometry":{"type":"Point","coordinates":[-100.36031,25.7683]},"properties":{"k":"19039_0321","c":"Gloria Mendiola","m":"Monterrey","i":1,"n":1,"s":10.2,"rb":8,"pd":21.2}},{"type":"Feature","geometry":{"type":"Point","coordinates":[-100.26959,25.72397]},"properties":{"k":"19046_0080","c":"Floridos Bosques del Nogalar","m":"San Nicolás de los Garza","i":1,"n":1,"s":9.1,"rb":9,"pd":0.9}},{"type":"Feature","geometry":{"type":"Point","coordinates":[-100.4311,25.68326]},"properties":{"k":"19048_0216","c":"Rincon de Las Mitras (Fomerrey 2)","m":"Santa Catarina","i":1,"n":1,"s":7.4,"rb":10,"pd":4.8}},{"type":"Feature","geometry":{"type":"Point","coordinates":[-100.20579,25.65612]},"properties":{"k":"19026_0236","c":"La Playa","m":"Guadalupe","i":1,"n":1,"s":6.2,"rb":11,"pd":3.6}},{"type":"Feature","geometry":{"type":"Point","coordinates":[-100.38823,25.75745]},"properties":{"k":"19039_0666","c":"San Bernabe 1Er Sector","m":"Monterrey","i":1,"n":3,"s":10.7,"rb":12,"pd":3.1}},{"type":"Feature","geometry":{"type":"Point","coordinates":[-100.36729,25.75654]},"properties":{"k":"19039_0666","c":"San Bernabe 1Er Sector","m":"Monterrey","i":2,"n":3,"s":7.2,"rb":12,"pd":2.2}},{"type":"Feature","geometry":{"type":"Point","coordinates":[-100.37028,25.75021]},"properties":{"k":"19039_0666","c":"San Bernabe 1Er Sector","m":"Monterrey","i":3,"n":3,"s":6.7,"rb":12,"pd":4.1}},{"type":"Feature","geometry":{"type":"Point","coordinates":[-100.42511,25.69502]},"properties":{"k":"19048_0151","c":"Paseo de Las Minas","m":"Santa Catarina","i":1,"n":2,"s":3.7,"rb":13,"pd":34.6}},{"type":"Feature","geometry":{"type":"Point","coordinates":[-100.42412,25.68869]},"properties":{"k":"19048_0151","c":"Paseo de Las Minas","m":"Santa Catarina","i":2,"n":2,"s":3.2,"rb":13,"pd":9.7}},{"type":"Feature","geometry":{"type":"Point","coordinates":[-100.27059,25.72488]},"properties":{"k":"19046_0207","c":"Paseo del Nogalar","m":"San Nicolás de los Garza","i":1,"n":1,"s":9.9,"rb":14,"pd":0.9}},{"type":"Feature","geometry":{"type":"Point","coordinates":[-100.20679,25.66517]},"properties":{"k":"19026_0291","c":"Miguel Hidalgo","m":"Guadalupe","i":1,"n":2,"s":11.1,"rb":15,"pd":2.4}},{"type":"Feature","geometry":{"type":"Point","coordinates":[-100.20878,25.65974]},"properties":{"k":"19026_0291","c":"Miguel Hidalgo","m":"Guadalupe","i":2,"n":2,"s":6.7,"rb":15,"pd":3.3}},{"type":"Feature","geometry":{"type":"Point","coordinates":[-100.37926,25.79454]},"properties":{"k":"19039_0298","c":"Fomerrey 35 (Tierra Propia)","m":"Monterrey","i":1,"n":2,"s":11.3,"rb":16,"pd":3.4}},{"type":"Feature","geometry":{"type":"Point","coordinates":[-100.37826,25.78911]},"properties":{"k":"19039_0298","c":"Fomerrey 35 (Tierra Propia)","m":"Monterrey","i":2,"n":2,"s":9.1,"rb":16,"pd":4.8}},{"type":"Feature","geometry":{"type":"Point","coordinates":[-100.32243,25.74568]},"properties":{"k":"19039_0430","c":"Lazaro Cardenas","m":"Monterrey","i":1,"n":1,"s":10.0,"rb":17,"pd":13.3}},{"type":"Feature","geometry":{"type":"Point","coordinates":[-100.36929,25.77011]},"properties":{"k":"19039_0295","c":"Fomerrey 23 ( Laderas de Topo Chico)","m":"Monterrey","i":1,"n":1,"s":8.6,"rb":18,"pd":4.5}},{"type":"Feature","geometry":{"type":"Point","coordinates":[-100.38424,25.7683]},"properties":{"k":"19039_0292","c":"Fomerrey 115 (San Bernabe 12)","m":"Monterrey","i":1,"n":2,"s":8.5,"rb":19,"pd":1.4}},{"type":"Feature","geometry":{"type":"Point","coordinates":[-100.37826,25.77011]},"properties":{"k":"19039_0292","c":"Fomerrey 115 (San Bernabe 12)","m":"Monterrey","i":2,"n":2,"s":5.6,"rb":19,"pd":1.5}},{"type":"Feature","geometry":{"type":"Point","coordinates":[-100.42511,25.68598]},"properties":{"k":"19048_0071","c":"Indeco La Fama 1","m":"Santa Catarina","i":1,"n":1,"s":6.0,"rb":20,"pd":8.0}},{"type":"Feature","geometry":{"type":"Point","coordinates":[-100.38025,25.76559]},"properties":{"k":"19039_0291","c":"Fomerrey 114 (San Bernabe 13)","m":"Monterrey","i":1,"n":1,"s":8.3,"rb":21,"pd":1.5}},{"type":"Feature","geometry":{"type":"Point","coordinates":[-100.21377,25.64527]},"properties":{"k":"19026_0432","c":"Unidad Piloto","m":"Guadalupe","i":1,"n":1,"s":5.9,"rb":22,"pd":15.3}},{"type":"Feature","geometry":{"type":"Point","coordinates":[-100.36829,25.83344]},"properties":{"k":"19021_0280","c":"Villas de San Francisco","m":"General Escobedo","i":1,"n":3,"s":7.5,"rb":23,"pd":0.7}},{"type":"Feature","geometry":{"type":"Point","coordinates":[-100.36729,25.8452]},"properties":{"k":"19021_0280","c":"Villas de San Francisco","m":"General Escobedo","i":2,"n":3,"s":6.8,"rb":23,"pd":1.1}},{"type":"Feature","geometry":{"type":"Point","coordinates":[-100.36729,25.83886]},"properties":{"k":"19021_0280","c":"Villas de San Francisco","m":"General Escobedo","i":3,"n":3,"s":4.9,"rb":23,"pd":1.0}},{"type":"Feature","geometry":{"type":"Point","coordinates":[-100.19981,25.68598]},"properties":{"k":"19026_0434","c":"Union Modelo","m":"Guadalupe","i":1,"n":1,"s":6.5,"rb":24,"pd":2.0}},{"type":"Feature","geometry":{"type":"Point","coordinates":[-100.3982,25.84791]},"properties":{"k":"19021_0177","c":"Nuevo Leon Estado de Progreso (Alianza Real)","m":"General Escobedo","i":1,"n":3,"s":7.9,"rb":25,"pd":2.1}},{"type":"Feature","geometry":{"type":"Point","coordinates":[-100.38623,25.84701]},"properties":{"k":"19021_0177","c":"Nuevo Leon Estado de Progreso (Alianza Real)","m":"General Escobedo","i":2,"n":3,"s":7.9,"rb":25,"pd":2.0}},{"type":"Feature","geometry":{"type":"Point","coordinates":[-100.39222,25.8452]},"properties":{"k":"19021_0177","c":"Nuevo Leon Estado de Progreso (Alianza Real)","m":"General Escobedo","i":3,"n":3,"s":6.3,"rb":25,"pd":2.1}},{"type":"Feature","geometry":{"type":"Point","coordinates":[-100.34835,25.73392]},"properties":{"k":"19039_0508","c":"Moctezuma","m":"Monterrey","i":1,"n":1,"s":6.3,"rb":26,"pd":4.2}},{"type":"Feature","geometry":{"type":"Point","coordinates":[-100.08018,25.64979]},"properties":{"k":"19031_0219","c":"Villas de San Jose 7 Sector","m":"Juárez","i":1,"n":1,"s":7.2,"rb":27,"pd":2.9}},{"type":"Feature","geometry":{"type":"Point","coordinates":[-100.3334,25.73392]},"properties":{"k":"19039_0727","c":"Topo Chico","m":"Monterrey","i":1,"n":3,"s":10.6,"rb":28,"pd":3.2}},{"type":"Feature","geometry":{"type":"Point","coordinates":[-100.32941,25.73845]},"properties":{"k":"19039_0727","c":"Topo Chico","m":"Monterrey","i":2,"n":3,"s":8.1,"rb":28,"pd":8.3}},{"type":"Feature","geometry":{"type":"Point","coordinates":[-100.32542,25.73031]},"properties":{"k":"19039_0727","c":"Topo Chico","m":"Monterrey","i":3,"n":3,"s":6.9,"rb":28,"pd":3.0}},{"type":"Feature","geometry":{"type":"Point","coordinates":[-100.27059,25.65522]},"properties":{"k":"19026_0017","c":"25 de Noviembre","m":"Guadalupe","i":1,"n":1,"s":7.6,"rb":29,"pd":2.7}},{"type":"Feature","geometry":{"type":"Point","coordinates":[-100.35932,25.76287]},"properties":{"k":"19039_0626","c":"Rene Alvarez","m":"Monterrey","i":1,"n":1,"s":6.5,"rb":30,"pd":6.5}},{"type":"Feature","geometry":{"type":"Point","coordinates":[-100.36131,25.76197]},"properties":{"k":"19039_0284","c":"Fomerrey 1 ( Reforma )","m":"Monterrey","i":1,"n":2,"s":7.6,"rb":31,"pd":4.6}},{"type":"Feature","geometry":{"type":"Point","coordinates":[-100.35732,25.75745]},"properties":{"k":"19039_0284","c":"Fomerrey 1 ( Reforma )","m":"Monterrey","i":2,"n":2,"s":4.9,"rb":31,"pd":4.6}},{"type":"Feature","geometry":{"type":"Point","coordinates":[-100.36031,25.70317]},"properties":{"k":"19039_0257","c":"Emiliano Zapata","m":"Monterrey","i":1,"n":1,"s":5.7,"rb":32,"pd":4.0}},{"type":"Feature","geometry":{"type":"Point","coordinates":[-100.39022,25.78549]},"properties":{"k":"19039_0656","c":"Riveras del Rio","m":"Monterrey","i":1,"n":3,"s":5.0,"rb":33,"pd":1.0}},{"type":"Feature","geometry":{"type":"Point","coordinates":[-100.40318,25.79363]},"properties":{"k":"19039_0656","c":"Riveras del Rio","m":"Monterrey","i":2,"n":3,"s":4.0,"rb":33,"pd":1.9}},{"type":"Feature","geometry":{"type":"Point","coordinates":[-100.41116,25.7873]},"properties":{"k":"19039_0656","c":"Riveras del Rio","m":"Monterrey","i":3,"n":3,"s":3.6,"rb":33,"pd":1.4}},{"type":"Feature","geometry":{"type":"Point","coordinates":[-100.38324,25.76106]},"properties":{"k":"19039_0288","c":"Fomerrey 110 (San Bernabe 15)","m":"Monterrey","i":1,"n":2,"s":9.1,"rb":34,"pd":2.3}},{"type":"Feature","geometry":{"type":"Point","coordinates":[-100.39022,25.76016]},"properties":{"k":"19039_0288","c":"Fomerrey 110 (San Bernabe 15)","m":"Monterrey","i":2,"n":2,"s":5.7,"rb":34,"pd":2.2}},{"type":"Feature","geometry":{"type":"Point","coordinates":[-100.41515,25.77282]},"properties":{"k":"19039_0550","c":"Paseo de San Bernabe","m":"Monterrey","i":1,"n":2,"s":4.1,"rb":35,"pd":2.2}},{"type":"Feature","geometry":{"type":"Point","coordinates":[-100.42113,25.77102]},"properties":{"k":"19039_0550","c":"Paseo de San Bernabe","m":"Monterrey","i":2,"n":2,"s":2.6,"rb":35,"pd":2.4}},{"type":"Feature","geometry":{"type":"Point","coordinates":[-100.42511,25.6896]},"properties":{"k":"19048_0056","c":"Eugenio Canavati","m":"Santa Catarina","i":1,"n":1,"s":4.8,"rb":36,"pd":10.0}},{"type":"Feature","geometry":{"type":"Point","coordinates":[-100.15993,25.75835]},"properties":{"k":"19006_0405","c":"Pueblo Nuevo 3Er Sector","m":"Apodaca","i":1,"n":1,"s":7.0,"rb":37,"pd":2.8}},{"type":"Feature","geometry":{"type":"Point","coordinates":[-100.42412,25.68598]},"properties":{"k":"19048_0058","c":"Fama Iii","m":"Santa Catarina","i":1,"n":2,"s":7.2,"rb":38,"pd":8.4}},{"type":"Feature","geometry":{"type":"Point","coordinates":[-100.41814,25.68688]},"properties":{"k":"19048_0058","c":"Fama Iii","m":"Santa Catarina","i":2,"n":2,"s":6.2,"rb":38,"pd":11.7}},{"type":"Feature","geometry":{"type":"Point","coordinates":[-100.42511,25.6905]},"properties":{"k":"19048_0032","c":"Cerro de Las Mitras (Raul Salinas Lozano)","m":"Santa Catarina","i":1,"n":1,"s":5.6,"rb":39,"pd":10.6}},{"type":"Feature","geometry":{"type":"Point","coordinates":[-100.2676,25.72216]},"properties":{"k":"19046_0021","c":"Azteca","m":"San Nicolás de los Garza","i":1,"n":1,"s":9.5,"rb":40,"pd":1.4}},{"type":"Feature","geometry":{"type":"Point","coordinates":[-100.32642,25.72759]},"properties":{"k":"19039_0156","c":"Constituyentes del 57","m":"Monterrey","i":1,"n":2,"s":8.8,"rb":41,"pd":1.9}},{"type":"Feature","geometry":{"type":"Point","coordinates":[-100.33041,25.72307]},"properties":{"k":"19039_0156","c":"Constituyentes del 57","m":"Monterrey","i":2,"n":2,"s":5.6,"rb":41,"pd":2.9}},{"type":"Feature","geometry":{"type":"Point","coordinates":[-100.27059,25.8072]},"properties":{"k":"19021_0055","c":"Fernando Amilpa","m":"General Escobedo","i":1,"n":2,"s":8.8,"rb":42,"pd":1.2}},{"type":"Feature","geometry":{"type":"Point","coordinates":[-100.26461,25.8063]},"properties":{"k":"19021_0055","c":"Fernando Amilpa","m":"General Escobedo","i":2,"n":2,"s":6.2,"rb":42,"pd":2.1}},{"type":"Feature","geometry":{"type":"Point","coordinates":[-100.28355,25.69322]},"properties":{"k":"19039_0061","c":"Argentina","m":"Monterrey","i":1,"n":1,"s":3.5,"rb":43,"pd":1.6}},{"type":"Feature","geometry":{"type":"Point","coordinates":[-100.463,25.69955]},"properties":{"k":"19048_0220","c":"San Gilberto","m":"Santa Catarina","i":1,"n":1,"s":15.6,"rb":44,"pd":5.2}},{"type":"Feature","geometry":{"type":"Point","coordinates":[-100.35633,25.75564]},"properties":{"k":"19039_0684","c":"San Martin","m":"Monterrey","i":1,"n":3,"s":5.0,"rb":45,"pd":3.9}},{"type":"Feature","geometry":{"type":"Point","coordinates":[-100.36331,25.75202]},"properties":{"k":"19039_0684","c":"San Martin","m":"Monterrey","i":2,"n":3,"s":3.7,"rb":45,"pd":2.4}},{"type":"Feature","geometry":{"type":"Point","coordinates":[-100.36331,25.75835]},"properties":{"k":"19039_0684","c":"San Martin","m":"Monterrey","i":3,"n":3,"s":3.3,"rb":45,"pd":3.2}},{"type":"Feature","geometry":{"type":"Point","coordinates":[-100.22972,25.6896]},"properties":{"k":"19026_0461","c":"Vicente Guerrero","m":"Guadalupe","i":1,"n":1,"s":5.3,"rb":46,"pd":2.3}},{"type":"Feature","geometry":{"type":"Point","coordinates":[-100.42611,25.69412]},"properties":{"k":"19048_0033","c":"Cimas de Las Mitras (Ampl Raul Salinas Lozano)","m":"Santa Catarina","i":1,"n":1,"s":3.7,"rb":47,"pd":21.7}},{"type":"Feature","geometry":{"type":"Point","coordinates":[-100.14298,25.6118]},"properties":{"k":"19031_0116","c":"Monte Kristal","m":"Juárez","i":1,"n":3,"s":9.3,"rb":48,"pd":1.9}},{"type":"Feature","geometry":{"type":"Point","coordinates":[-100.14597,25.61903]},"properties":{"k":"19031_0116","c":"Monte Kristal","m":"Juárez","i":2,"n":3,"s":8.0,"rb":48,"pd":2.3}},{"type":"Feature","geometry":{"type":"Point","coordinates":[-100.14897,25.6118]},"properties":{"k":"19031_0116","c":"Monte Kristal","m":"Juárez","i":3,"n":3,"s":5.7,"rb":48,"pd":2.0}},{"type":"Feature","geometry":{"type":"Point","coordinates":[-100.16691,25.75925]},"properties":{"k":"19006_0407","c":"Pueblo Nuevo 5To Sector","m":"Apodaca","i":1,"n":2,"s":9.0,"rb":49,"pd":2.2}},{"type":"Feature","geometry":{"type":"Point","coordinates":[-100.1689,25.75383]},"properties":{"k":"19006_0407","c":"Pueblo Nuevo 5To Sector","m":"Apodaca","i":2,"n":2,"s":5.4,"rb":49,"pd":2.5}},{"type":"Feature","geometry":{"type":"Point","coordinates":[-100.35633,25.76016]},"properties":{"k":"19039_0433","c":"Libertadores de America","m":"Monterrey","i":1,"n":1,"s":4.9,"rb":50,"pd":9.2}},{"type":"Feature","geometry":{"type":"Point","coordinates":[-100.12604,25.63803]},"properties":{"k":"19031_0057","c":"Hector Caballero","m":"Juárez","i":1,"n":1,"s":7.8,"rb":51,"pd":1.6}},{"type":"Feature","geometry":{"type":"Point","coordinates":[-100.16093,25.62265]},"properties":{"k":"19031_0109","c":"Los Valles 2Do Sector","m":"Juárez","i":1,"n":1,"s":6.2,"rb":52,"pd":4.5}},{"type":"Feature","geometry":{"type":"Point","coordinates":[-100.32642,25.70588]},"properties":{"k":"19039_0518","c":"Niño Artillero","m":"Monterrey","i":1,"n":3,"s":9.3,"rb":53,"pd":1.4}},{"type":"Feature","geometry":{"type":"Point","coordinates":[-100.32542,25.72759]},"properties":{"k":"19039_0518","c":"Niño Artillero","m":"Monterrey","i":2,"n":3,"s":7.4,"rb":53,"pd":1.9}},{"type":"Feature","geometry":{"type":"Point","coordinates":[-100.33041,25.72216]},"properties":{"k":"19039_0518","c":"Niño Artillero","m":"Monterrey","i":3,"n":3,"s":5.9,"rb":53,"pd":2.7}},{"type":"Feature","geometry":{"type":"Point","coordinates":[-100.19482,25.73302]},"properties":{"k":"19006_0310","c":"Noria Norte","m":"Apodaca","i":1,"n":2,"s":10.7,"rb":54,"pd":1.3}},{"type":"Feature","geometry":{"type":"Point","coordinates":[-100.18984,25.73664]},"properties":{"k":"19006_0310","c":"Noria Norte","m":"Apodaca","i":2,"n":2,"s":8.6,"rb":54,"pd":2.2}},{"type":"Feature","geometry":{"type":"Point","coordinates":[-100.25265,25.75654]},"properties":{"k":"19046_0300","c":"Vicente Guerrero 3 Sector","m":"San Nicolás de los Garza","i":1,"n":2,"s":7.9,"rb":55,"pd":1.1}},{"type":"Feature","geometry":{"type":"Point","coordinates":[-100.25863,25.75292]},"properties":{"k":"19046_0300","c":"Vicente Guerrero 3 Sector","m":"San Nicolás de los Garza","i":2,"n":2,"s":7.0,"rb":55,"pd":1.2}},{"type":"Feature","geometry":{"type":"Point","coordinates":[-100.21377,25.64708]},"properties":{"k":"19026_0310","c":"Nuevo Almaguer","m":"Guadalupe","i":1,"n":1,"s":4.5,"rb":56,"pd":15.1}},{"type":"Feature","geometry":{"type":"Point","coordinates":[-100.34038,25.74207]},"properties":{"k":"19039_0725","c":"Tierra Y Libertad","m":"Monterrey","i":1,"n":1,"s":9.7,"rb":57,"pd":7.2}},{"type":"Feature","geometry":{"type":"Point","coordinates":[-100.36729,25.8271]},"properties":{"k":"19021_0281","c":"Villas de San Francisco 2Do Sector","m":"General Escobedo","i":1,"n":1,"s":4.4,"rb":58,"pd":1.1}},{"type":"Feature","geometry":{"type":"Point","coordinates":[-100.19084,25.72397]},"properties":{"k":"19026_0072","c":"Cañada Blanca","m":"Guadalupe","i":1,"n":1,"s":11.3,"rb":59,"pd":2.2}},{"type":"Feature","geometry":{"type":"Point","coordinates":[-100.38324,25.76197]},"properties":{"k":"19039_0293","c":"Fomerrey 116 (San Bernabe 8)","m":"Monterrey","i":1,"n":1,"s":9.9,"rb":60,"pd":2.0}},{"type":"Feature","geometry":{"type":"Point","coordinates":[-100.16791,25.62084]},"properties":{"k":"19031_0108","c":"Los Valles","m":"Juárez","i":1,"n":1,"s":4.8,"rb":61,"pd":3.3}},{"type":"Feature","geometry":{"type":"Point","coordinates":[-100.38424,25.76197]},"properties":{"k":"19039_0287","c":"Fomerrey 109 (San Bernabe 14)","m":"Monterrey","i":1,"n":2,"s":8.1,"rb":62,"pd":2.0}},{"type":"Feature","geometry":{"type":"Point","coordinates":[-100.39122,25.76106]},"properties":{"k":"19039_0287","c":"Fomerrey 109 (San Bernabe 14)","m":"Monterrey","i":2,"n":2,"s":5.0,"rb":62,"pd":2.1}},{"type":"Feature","geometry":{"type":"Point","coordinates":[-100.36729,25.76559]},"properties":{"k":"19039_0250","c":"El Porvenir","m":"Monterrey","i":1,"n":2,"s":5.5,"rb":63,"pd":4.1}},{"type":"Feature","geometry":{"type":"Point","coordinates":[-100.3663,25.77102]},"properties":{"k":"19039_0250","c":"El Porvenir","m":"Monterrey","i":2,"n":2,"s":4.4,"rb":63,"pd":6.0}},{"type":"Feature","geometry":{"type":"Point","coordinates":[-100.30748,25.64617]},"properties":{"k":"19039_0030","c":"Alfonso Reyes","m":"Monterrey","i":1,"n":1,"s":3.9,"rb":64,"pd":21.8}},{"type":"Feature","geometry":{"type":"Point","coordinates":[-100.32542,25.66065]},"properties":{"k":"19039_0343","c":"Independencia","m":"Monterrey","i":1,"n":3,"s":8.4,"rb":65,"pd":7.7}},{"type":"Feature","geometry":{"type":"Point","coordinates":[-100.30748,25.65522]},"properties":{"k":"19039_0343","c":"Independencia","m":"Monterrey","i":2,"n":3,"s":7.5,"rb":65,"pd":3.4}},{"type":"Feature","geometry":{"type":"Point","coordinates":[-100.31844,25.65612]},"properties":{"k":"19039_0343","c":"Independencia","m":"Monterrey","i":3,"n":3,"s":6.7,"rb":65,"pd":11.2}},{"type":"Feature","geometry":{"type":"Point","coordinates":[-100.15295,25.60275]},"properties":{"k":"19031_0010","c":"Arboledas de San Roque","m":"Juárez","i":1,"n":1,"s":7.1,"rb":66,"pd":1.9}},{"type":"Feature","geometry":{"type":"Point","coordinates":[-100.27159,25.65612]},"properties":{"k":"19026_0049","c":"Atoyac de Alvarez","m":"Guadalupe","i":1,"n":1,"s":4.9,"rb":67,"pd":3.9}},{"type":"Feature","geometry":{"type":"Point","coordinates":[-100.1699,25.62446]},"properties":{"k":"19031_0154","c":"Rancho Viejo","m":"Juárez","i":1,"n":1,"s":7.8,"rb":68,"pd":2.5}},{"type":"Feature","geometry":{"type":"Point","coordinates":[-100.15794,25.75835]},"properties":{"k":"19006_0404","c":"Pueblo Nuevo 2Do Sector","m":"Apodaca","i":1,"n":1,"s":9.0,"rb":69,"pd":2.6}},{"type":"Feature","geometry":{"type":"Point","coordinates":[-100.25165,25.71945]},"properties":{"k":"19046_0052","c":"Const de Queretaro 1 Sec","m":"San Nicolás de los Garza","i":1,"n":1,"s":5.8,"rb":70,"pd":2.4}},{"type":"Feature","geometry":{"type":"Point","coordinates":[-100.36929,25.80358]},"properties":{"k":"19021_0052","c":"Eulalio Villarreal","m":"General Escobedo","i":1,"n":1,"s":7.2,"rb":71,"pd":6.5}},{"type":"Feature","geometry":{"type":"Point","coordinates":[-100.60257,25.79906]},"properties":{"k":"19018_0077","c":"Los Nogales","m":"García","i":1,"n":1,"s":10.0,"rb":72,"pd":1.8}},{"type":"Feature","geometry":{"type":"Point","coordinates":[-100.33041,25.69141]},"properties":{"k":"19039_0002","c":"10 de Marzo","m":"Monterrey","i":1,"n":1,"s":8.5,"rb":73,"pd":1.7}},{"type":"Feature","geometry":{"type":"Point","coordinates":[-100.25464,25.78006]},"properties":{"k":"19006_0361","c":"Prados de La Cieneguita","m":"Apodaca","i":1,"n":1,"s":15.0,"rb":74,"pd":1.3}},{"type":"Feature","geometry":{"type":"Point","coordinates":[-100.38923,25.80087]},"properties":{"k":"19021_0174","c":"Nueva Esperanza","m":"General Escobedo","i":1,"n":2,"s":7.8,"rb":75,"pd":1.2}},{"type":"Feature","geometry":{"type":"Point","coordinates":[-100.39521,25.79906]},"properties":{"k":"19021_0174","c":"Nueva Esperanza","m":"General Escobedo","i":2,"n":2,"s":5.6,"rb":75,"pd":0.7}},{"type":"Feature","geometry":{"type":"Point","coordinates":[-100.42013,25.68869]},"properties":{"k":"19048_0115","c":"Lomas de La Fama","m":"Santa Catarina","i":1,"n":1,"s":8.3,"rb":76,"pd":12.8}},{"type":"Feature","geometry":{"type":"Point","coordinates":[-100.39421,25.79544]},"properties":{"k":"19021_0002","c":"18 de Octubre","m":"General Escobedo","i":1,"n":1,"s":6.1,"rb":77,"pd":1.6}},{"type":"Feature","geometry":{"type":"Point","coordinates":[-100.28953,25.63532]},"properties":{"k":"19039_0637","c":"Revolucion Proletaria","m":"Monterrey","i":1,"n":1,"s":6.9,"rb":78,"pd":11.9}},{"type":"Feature","geometry":{"type":"Point","coordinates":[-100.36231,25.80811]},"properties":{"k":"19021_0183","c":"Pedregal del Topo Chico [19021_0183]","m":"General Escobedo","i":1,"n":1,"s":9.3,"rb":79,"pd":6.9}},{"type":"Feature","geometry":{"type":"Point","coordinates":[-100.35334,25.74116]},"properties":{"k":"19039_0770","c":"Valle de Santa Lucia (Granja Sanitaria)","m":"Monterrey","i":1,"n":3,"s":8.0,"rb":80,"pd":3.1}},{"type":"Feature","geometry":{"type":"Point","coordinates":[-100.35832,25.74659]},"properties":{"k":"19039_0770","c":"Valle de Santa Lucia (Granja Sanitaria)","m":"Monterrey","i":2,"n":3,"s":6.9,"rb":80,"pd":2.6}},{"type":"Feature","geometry":{"type":"Point","coordinates":[-100.35034,25.75021]},"properties":{"k":"19039_0770","c":"Valle de Santa Lucia (Granja Sanitaria)","m":"Monterrey","i":3,"n":3,"s":5.3,"rb":80,"pd":3.4}},{"type":"Feature","geometry":{"type":"Point","coordinates":[-100.40019,25.84429]},"properties":{"k":"19021_0206","c":"Privadas de Camino Real Ii","m":"General Escobedo","i":1,"n":1,"s":6.4,"rb":81,"pd":2.0}},{"type":"Feature","geometry":{"type":"Point","coordinates":[-100.59758,25.80268]},"properties":{"k":"19018_0002","c":"Ampl Los Nogales ( El Polvorin )","m":"García","i":1,"n":2,"s":8.5,"rb":82,"pd":2.5}},{"type":"Feature","geometry":{"type":"Point","coordinates":[-100.60357,25.80268]},"properties":{"k":"19018_0002","c":"Ampl Los Nogales ( El Polvorin )","m":"García","i":2,"n":2,"s":6.5,"rb":82,"pd":1.6}},{"type":"Feature","geometry":{"type":"Point","coordinates":[-100.2028,25.64889]},"properties":{"k":"19026_0070","c":"Campestre La Silla","m":"Guadalupe","i":1,"n":2,"s":3.5,"rb":83,"pd":4.3}},{"type":"Feature","geometry":{"type":"Point","coordinates":[-100.20579,25.64165]},"properties":{"k":"19026_0070","c":"Campestre La Silla","m":"Guadalupe","i":2,"n":2,"s":2.4,"rb":83,"pd":8.7}},{"type":"Feature","geometry":{"type":"Point","coordinates":[-100.36331,25.80358]},"properties":{"k":"19021_0184","c":"Pedregal del Topo Chico [19021_0184]","m":"General Escobedo","i":1,"n":1,"s":3.0,"rb":84,"pd":24.8}},{"type":"Feature","geometry":{"type":"Point","coordinates":[-100.2676,25.61994]},"properties":{"k":"19039_0664","c":"San Angel Sur ( Los Remates )","m":"Monterrey","i":1,"n":1,"s":13.1,"rb":85,"pd":9.7}},{"type":"Feature","geometry":{"type":"Point","coordinates":[-100.29551,25.6326]},"properties":{"k":"19039_0104","c":"Burocratas Municipales","m":"Monterrey","i":1,"n":3,"s":7.0,"rb":86,"pd":10.7}},{"type":"Feature","geometry":{"type":"Point","coordinates":[-100.28854,25.6326]},"properties":{"k":"19039_0104","c":"Burocratas Municipales","m":"Monterrey","i":2,"n":3,"s":5.5,"rb":86,"pd":19.5}},{"type":"Feature","geometry":{"type":"Point","coordinates":[-100.29751,25.63984]},"properties":{"k":"19039_0104","c":"Burocratas Municipales","m":"Monterrey","i":3,"n":3,"s":4.8,"rb":86,"pd":21.3}},{"type":"Feature","geometry":{"type":"Point","coordinates":[-100.32243,25.68688]},"properties":{"k":"19039_0345","c":"Industrial","m":"Monterrey","i":1,"n":3,"s":9.8,"rb":87,"pd":2.5}},{"type":"Feature","geometry":{"type":"Point","coordinates":[-100.32542,25.69774]},"properties":{"k":"19039_0345","c":"Industrial","m":"Monterrey","i":2,"n":3,"s":6.6,"rb":87,"pd":1.5}},{"type":"Feature","geometry":{"type":"Point","coordinates":[-100.32941,25.69231]},"properties":{"k":"19039_0345","c":"Industrial","m":"Monterrey","i":3,"n":3,"s":6.3,"rb":87,"pd":1.6}},{"type":"Feature","geometry":{"type":"Point","coordinates":[-100.18087,25.72307]},"properties":{"k":"19026_0220","c":"Josefa Zozaya 2Do Sector","m":"Guadalupe","i":1,"n":1,"s":6.6,"rb":88,"pd":3.6}},{"type":"Feature","geometry":{"type":"Point","coordinates":[-100.30449,25.64075]},"properties":{"k":"19039_0381","c":"La Altamira","m":"Monterrey","i":1,"n":2,"s":8.0,"rb":89,"pd":16.0}},{"type":"Feature","geometry":{"type":"Point","coordinates":[-100.31047,25.64165]},"properties":{"k":"19039_0381","c":"La Altamira","m":"Monterrey","i":2,"n":2,"s":4.9,"rb":89,"pd":17.0}},{"type":"Feature","geometry":{"type":"Point","coordinates":[-100.37627,25.79454]},"properties":{"k":"19021_0040","c":"Colinas del Topo Chico","m":"General Escobedo","i":1,"n":2,"s":6.4,"rb":90,"pd":11.0}},{"type":"Feature","geometry":{"type":"Point","coordinates":[-100.37527,25.79996]},"properties":{"k":"19021_0040","c":"Colinas del Topo Chico","m":"General Escobedo","i":2,"n":2,"s":4.1,"rb":90,"pd":5.5}},{"type":"Feature","geometry":{"type":"Point","coordinates":[-100.45901,25.68417]},"properties":{"k":"19048_0232","c":"Sarabia","m":"Santa Catarina","i":1,"n":2,"s":2.3,"rb":91,"pd":2.0}},{"type":"Feature","geometry":{"type":"Point","coordinates":[-100.46599,25.69141]},"properties":{"k":"19048_0232","c":"Sarabia","m":"Santa Catarina","i":2,"n":2,"s":1.7,"rb":91,"pd":1.9}},{"type":"Feature","geometry":{"type":"Point","coordinates":[-100.41614,25.79544]},"properties":{"k":"19021_0103","c":"La Unidad","m":"General Escobedo","i":1,"n":1,"s":9.5,"rb":92,"pd":1.2}},{"type":"Feature","geometry":{"type":"Point","coordinates":[-100.16193,25.76287]},"properties":{"k":"19006_0327","c":"Parque Industrial Intermex Industrial Campus Apodaca","m":"Apodaca","i":1,"n":3,"s":2.5,"rb":93,"pd":3.0}},{"type":"Feature","geometry":{"type":"Point","coordinates":[-100.15495,25.7683]},"properties":{"k":"19006_0327","c":"Parque Industrial Intermex Industrial Campus Apodaca","m":"Apodaca","i":2,"n":3,"s":2.3,"rb":93,"pd":4.2}},{"type":"Feature","geometry":{"type":"Point","coordinates":[-100.16591,25.7674]},"properties":{"k":"19006_0327","c":"Parque Industrial Intermex Industrial Campus Apodaca","m":"Apodaca","i":3,"n":3,"s":2.3,"rb":93,"pd":3.5}},{"type":"Feature","geometry":{"type":"Point","coordinates":[-100.37826,25.79544]},"properties":{"k":"19021_0175","c":"Nuevo Escobedo","m":"General Escobedo","i":1,"n":1,"s":7.9,"rb":94,"pd":4.2}},{"type":"Feature","geometry":{"type":"Point","coordinates":[-100.47995,25.67784]},"properties":{"k":"19048_0021","c":"Balcones de Santa Catarina ( Fomerrey 134)","m":"Santa Catarina","i":1,"n":1,"s":6.8,"rb":95,"pd":6.7}},{"type":"Feature","geometry":{"type":"Point","coordinates":[-100.34835,25.7493]},"properties":{"k":"19039_0663","c":"San Angel Norte","m":"Monterrey","i":1,"n":1,"s":3.8,"rb":96,"pd":3.5}},{"type":"Feature","geometry":{"type":"Point","coordinates":[-100.16691,25.62718]},"properties":{"k":"19031_0009","c":"Arboledas de Los Naranjos","m":"Juárez","i":1,"n":1,"s":5.2,"rb":97,"pd":3.0}},{"type":"Feature","geometry":{"type":"Point","coordinates":[-100.137,25.66698]},"properties":{"k":"19026_0021","c":"31 de Diciembre","m":"Guadalupe","i":1,"n":1,"s":5.0,"rb":98,"pd":3.0}},{"type":"Feature","geometry":{"type":"Point","coordinates":[-100.24666,25.59009]},"properties":{"k":"19039_0299","c":"Fomerrey 45","m":"Monterrey","i":1,"n":1,"s":9.9,"rb":99,"pd":8.9}},{"type":"Feature","geometry":{"type":"Point","coordinates":[-100.40318,25.8452]},"properties":{"k":"19021_0224","c":"Puerta del Sol","m":"General Escobedo","i":1,"n":1,"s":2.9,"rb":100,"pd":2.0}},{"type":"Feature","geometry":{"type":"Point","coordinates":[-100.32841,25.78458]},"properties":{"k":"19021_0057","c":"Fomerrey 9 (Solidaridad Social)","m":"General Escobedo","i":1,"n":1,"s":8.5,"rb":101,"pd":3.7}},{"type":"Feature","geometry":{"type":"Point","coordinates":[-100.21476,25.65612]},"properties":{"k":"19026_0013","c":"2 de Mayo","m":"Guadalupe","i":1,"n":1,"s":6.7,"rb":102,"pd":5.2}},{"type":"Feature","geometry":{"type":"Point","coordinates":[-100.33041,25.77282]},"properties":{"k":"19021_0056","c":"Fomerrey 36","m":"General Escobedo","i":1,"n":1,"s":8.5,"rb":103,"pd":7.6}},{"type":"Feature","geometry":{"type":"Point","coordinates":[-100.36829,25.80268]},"properties":{"k":"19021_0248","c":"Santa Lucia","m":"General Escobedo","i":1,"n":1,"s":8.1,"rb":104,"pd":10.1}},{"type":"Feature","geometry":{"type":"Point","coordinates":[-100.28554,25.80539]},"properties":{"k":"19021_0006","c":"Agropecuaria Emiliano Zapata (Col Nueva Esperanza)","m":"General Escobedo","i":1,"n":3,"s":5.0,"rb":105,"pd":1.0}},{"type":"Feature","geometry":{"type":"Point","coordinates":[-100.29452,25.81715]},"properties":{"k":"19021_0006","c":"Agropecuaria Emiliano Zapata (Col Nueva Esperanza)","m":"General Escobedo","i":2,"n":3,"s":3.1,"rb":105,"pd":2.6}},{"type":"Feature","geometry":{"type":"Point","coordinates":[-100.28654,25.81263]},"properties":{"k":"19021_0006","c":"Agropecuaria Emiliano Zapata (Col Nueva Esperanza)","m":"General Escobedo","i":3,"n":3,"s":3.1,"rb":105,"pd":1.4}},{"type":"Feature","geometry":{"type":"Point","coordinates":[-100.40119,25.79635]},"properties":{"k":"19021_0239","c":"Rivera de Los Naranjos","m":"General Escobedo","i":1,"n":2,"s":2.8,"rb":106,"pd":2.6}},{"type":"Feature","geometry":{"type":"Point","coordinates":[-100.41116,25.79182]},"properties":{"k":"19021_0239","c":"Rivera de Los Naranjos","m":"General Escobedo","i":2,"n":2,"s":2.5,"rb":106,"pd":2.4}},{"type":"Feature","geometry":{"type":"Point","coordinates":[-100.41016,25.84339]},"properties":{"k":"19021_0188","c":"Portal de San Francisco Sector 20 de Noviembre","m":"General Escobedo","i":1,"n":1,"s":3.3,"rb":107,"pd":2.1}},{"type":"Feature","geometry":{"type":"Point","coordinates":[-100.34935,25.73664]},"properties":{"k":"19039_0112","c":"Carmen Serdan","m":"Monterrey","i":1,"n":1,"s":5.9,"rb":108,"pd":3.4}},{"type":"Feature","geometry":{"type":"Point","coordinates":[-100.47995,25.67874]},"properties":{"k":"19048_0195","c":"Puerta del Sol","m":"Santa Catarina","i":1,"n":2,"s":6.8,"rb":109,"pd":6.4}},{"type":"Feature","geometry":{"type":"Point","coordinates":[-100.48593,25.68326]},"properties":{"k":"19048_0195","c":"Puerta del Sol","m":"Santa Catarina","i":2,"n":2,"s":6.0,"rb":109,"pd":5.7}},{"type":"Feature","geometry":{"type":"Point","coordinates":[-100.32243,25.76378]},"properties":{"k":"19046_0081","c":"Fomerrey 129 (Mirador San Nicolas)","m":"San Nicolás de los Garza","i":1,"n":1,"s":9.6,"rb":110,"pd":6.3}},{"type":"Feature","geometry":{"type":"Point","coordinates":[-100.34337,25.75021]},"properties":{"k":"19039_0741","c":"Unidad Pedreras ( Fomerrey 106 )","m":"Monterrey","i":1,"n":1,"s":5.3,"rb":111,"pd":26.3}},{"type":"Feature","geometry":{"type":"Point","coordinates":[-100.36729,25.80449]},"properties":{"k":"19021_0251","c":"Serranias","m":"General Escobedo","i":1,"n":1,"s":5.6,"rb":112,"pd":8.9}},{"type":"Feature","geometry":{"type":"Point","coordinates":[-100.4301,25.67784]},"properties":{"k":"19048_0237","c":"Union de Colonos","m":"Santa Catarina","i":1,"n":1,"s":1.5,"rb":113,"pd":2.9}},{"type":"Feature","geometry":{"type":"Point","coordinates":[-100.63646,25.8072]},"properties":{"k":"19018_0055","c":"Hacienda Renacimiento","m":"García","i":1,"n":1,"s":4.2,"rb":114,"pd":2.4}},{"type":"Feature","geometry":{"type":"Point","coordinates":[-100.15495,25.62808]},"properties":{"k":"19031_0117","c":"Monte Kristal 4To Sector","m":"Juárez","i":1,"n":2,"s":5.1,"rb":115,"pd":3.8}},{"type":"Feature","geometry":{"type":"Point","coordinates":[-100.16093,25.62356]},"properties":{"k":"19031_0117","c":"Monte Kristal 4To Sector","m":"Juárez","i":2,"n":2,"s":4.7,"rb":115,"pd":4.5}},{"type":"Feature","geometry":{"type":"Point","coordinates":[-100.20579,25.69593]},"properties":{"k":"19026_0316","c":"Nuevo San Rafael","m":"Guadalupe","i":1,"n":1,"s":5.7,"rb":116,"pd":1.1}},{"type":"Feature","geometry":{"type":"Point","coordinates":[-100.20679,25.64617]},"properties":{"k":"19026_0160","c":"Garza Melo","m":"Guadalupe","i":1,"n":2,"s":4.6,"rb":117,"pd":6.4}},{"type":"Feature","geometry":{"type":"Point","coordinates":[-100.2038,25.65251]},"properties":{"k":"19026_0160","c":"Garza Melo","m":"Guadalupe","i":2,"n":2,"s":3.6,"rb":117,"pd":4.3}},{"type":"Feature","geometry":{"type":"Point","coordinates":[-100.41913,25.68779]},"properties":{"k":"19048_0014","c":"Arboledas de Las Mitras (Carlos Salinas de Gortari)","m":"Santa Catarina","i":1,"n":1,"s":5.0,"rb":118,"pd":12.2}},{"type":"Feature","geometry":{"type":"Point","coordinates":[-100.35932,25.75021]},"properties":{"k":"19039_0314","c":"Francisco Villa","m":"Monterrey","i":1,"n":2,"s":6.7,"rb":119,"pd":2.4}},{"type":"Feature","geometry":{"type":"Point","coordinates":[-100.35134,25.75111]},"properties":{"k":"19039_0314","c":"Francisco Villa","m":"Monterrey","i":2,"n":2,"s":5.4,"rb":119,"pd":3.5}},{"type":"Feature","geometry":{"type":"Point","coordinates":[-100.23669,25.58828]},"properties":{"k":"19039_0553","c":"Paseo del Vergel 1Er Sector","m":"Monterrey","i":1,"n":1,"s":1.4,"rb":120,"pd":41.3}},{"type":"Feature","geometry":{"type":"Point","coordinates":[-100.34835,25.74388]},"properties":{"k":"19039_0316","c":"Fray Servando Teresa de Mier (Fomerrey 6 )","m":"Monterrey","i":1,"n":1,"s":4.2,"rb":121,"pd":1.6}},{"type":"Feature","geometry":{"type":"Point","coordinates":[-100.27059,25.61632]},"properties":{"k":"19039_0384","c":"La Condesa","m":"Monterrey","i":1,"n":2,"s":5.0,"rb":122,"pd":6.7}},{"type":"Feature","geometry":{"type":"Point","coordinates":[-100.27258,25.62627]},"properties":{"k":"19039_0384","c":"La Condesa","m":"Monterrey","i":2,"n":2,"s":4.7,"rb":122,"pd":5.9}},{"type":"Feature","geometry":{"type":"Point","coordinates":[-100.17389,25.76649]},"properties":{"k":"19006_0345","c":"Pimsa Sur","m":"Apodaca","i":1,"n":1,"s":3.0,"rb":123,"pd":2.8}},{"type":"Feature","geometry":{"type":"Point","coordinates":[-100.2985,25.64075]},"properties":{"k":"19039_0383","c":"La Campana","m":"Monterrey","i":1,"n":1,"s":4.6,"rb":124,"pd":19.9}},{"type":"Feature","geometry":{"type":"Point","coordinates":[-100.47795,25.67422]},"properties":{"k":"19048_0065","c":"Hacienda Santa Catarina (Fomerrey 29)","m":"Santa Catarina","i":1,"n":1,"s":5.5,"rb":125,"pd":8.6}},{"type":"Feature","geometry":{"type":"Point","coordinates":[-100.27358,25.72759]},"properties":{"k":"19046_0036","c":"Carmen Romano","m":"San Nicolás de los Garza","i":1,"n":1,"s":6.7,"rb":126,"pd":1.7}},{"type":"Feature","geometry":{"type":"Point","coordinates":[-100.34038,25.74568]},"properties":{"k":"19039_0739","c":"Unidad del Pueblo","m":"Monterrey","i":1,"n":1,"s":4.7,"rb":127,"pd":21.0}},{"type":"Feature","geometry":{"type":"Point","coordinates":[-100.26461,25.71131]},"properties":{"k":"19046_0057","c":"Constituyentes de Queretaro 4 Sec","m":"San Nicolás de los Garza","i":1,"n":1,"s":5.4,"rb":128,"pd":1.5}},{"type":"Feature","geometry":{"type":"Point","coordinates":[-100.32841,25.69955]},"properties":{"k":"19039_0318","c":"Garza Nieto","m":"Monterrey","i":1,"n":2,"s":5.8,"rb":129,"pd":1.5}},{"type":"Feature","geometry":{"type":"Point","coordinates":[-100.3324,25.70407]},"properties":{"k":"19039_0318","c":"Garza Nieto","m":"Monterrey","i":2,"n":2,"s":3.5,"rb":129,"pd":1.8}},{"type":"Feature","geometry":{"type":"Point","coordinates":[-100.38723,25.8063]},"properties":{"k":"19021_0061","c":"Gloria Mendiola","m":"General Escobedo","i":1,"n":2,"s":2.3,"rb":130,"pd":1.1}},{"type":"Feature","geometry":{"type":"Point","coordinates":[-100.37427,25.80811]},"properties":{"k":"19021_0061","c":"Gloria Mendiola","m":"General Escobedo","i":2,"n":2,"s":1.5,"rb":130,"pd":5.8}},{"type":"Feature","geometry":{"type":"Point","coordinates":[-100.23769,25.58013]},"properties":{"k":"19039_0525","c":"Nueva Estanzuela","m":"Monterrey","i":1,"n":1,"s":6.0,"rb":131,"pd":6.0}},{"type":"Feature","geometry":{"type":"Point","coordinates":[-100.16691,25.65341]},"properties":{"k":"19026_0457","c":"Valles del Sol","m":"Guadalupe","i":1,"n":1,"s":7.6,"rb":132,"pd":2.4}},{"type":"Feature","geometry":{"type":"Point","coordinates":[-100.37427,25.77011]},"properties":{"k":"19039_0290","c":"Fomerrey 113 (San Bernabe 9)","m":"Monterrey","i":1,"n":1,"s":6.5,"rb":133,"pd":2.7}},{"type":"Feature","geometry":{"type":"Point","coordinates":[-100.24168,25.59099]},"properties":{"k":"19039_0091","c":"Bosques de La Estanzuela","m":"Monterrey","i":1,"n":2,"s":2.0,"rb":134,"pd":24.2}},{"type":"Feature","geometry":{"type":"Point","coordinates":[-100.24567,25.58647]},"properties":{"k":"19039_0091","c":"Bosques de La Estanzuela","m":"Monterrey","i":2,"n":2,"s":1.7,"rb":134,"pd":5.6}},{"type":"Feature","geometry":{"type":"Point","coordinates":[-100.38025,25.75473]},"properties":{"k":"19039_0297","c":"Fomerrey 25","m":"Monterrey","i":1,"n":1,"s":4.8,"rb":135,"pd":6.7}},{"type":"Feature","geometry":{"type":"Point","coordinates":[-100.28355,25.62989]},"properties":{"k":"19039_0711","c":"Sierra Ventana","m":"Monterrey","i":1,"n":1,"s":7.9,"rb":136,"pd":14.3}},{"type":"Feature","geometry":{"type":"Point","coordinates":[-100.23071,25.68598]},"properties":{"k":"19026_0183","c":"Ignacio Zaragoza","m":"Guadalupe","i":1,"n":1,"s":5.4,"rb":137,"pd":1.4}},{"type":"Feature","geometry":{"type":"Point","coordinates":[-100.38823,25.80177]},"properties":{"k":"19021_0250","c":"Santa Martha","m":"General Escobedo","i":1,"n":1,"s":6.4,"rb":138,"pd":1.1}},{"type":"Feature","geometry":{"type":"Point","coordinates":[-100.27458,25.69231]},"properties":{"k":"19039_0784","c":"Venustiano Carranza","m":"Monterrey","i":1,"n":2,"s":4.5,"rb":139,"pd":1.4}},{"type":"Feature","geometry":{"type":"Point","coordinates":[-100.2686,25.69412]},"properties":{"k":"19039_0784","c":"Venustiano Carranza","m":"Monterrey","i":2,"n":2,"s":3.7,"rb":139,"pd":2.2}},{"type":"Feature","geometry":{"type":"Point","coordinates":[-100.36829,25.7285]},"properties":{"k":"19039_0038","c":"Alvaro Obregon","m":"Monterrey","i":1,"n":2,"s":5.0,"rb":140,"pd":3.5}},{"type":"Feature","geometry":{"type":"Point","coordinates":[-100.3643,25.73664]},"properties":{"k":"19039_0038","c":"Alvaro Obregon","m":"Monterrey","i":2,"n":2,"s":3.9,"rb":140,"pd":9.6}},{"type":"Feature","geometry":{"type":"Point","coordinates":[-100.24367,25.74388]},"properties":{"k":"19046_0292","c":"Valle del Mezquital","m":"San Nicolás de los Garza","i":1,"n":1,"s":4.4,"rb":141,"pd":1.3}},{"type":"Feature","geometry":{"type":"Point","coordinates":[-100.27258,25.72669]},"properties":{"k":"19046_0147","c":"Lagos de Chapultepec","m":"San Nicolás de los Garza","i":1,"n":1,"s":4.2,"rb":142,"pd":1.7}},{"type":"Feature","geometry":{"type":"Point","coordinates":[-100.5926,25.83163]},"properties":{"k":"19018_0010","c":"Brisas Residencial","m":"García","i":1,"n":1,"s":5.2,"rb":143,"pd":6.2}},{"type":"Feature","geometry":{"type":"Point","coordinates":[-100.31246,25.64979]},"properties":{"k":"19039_0039","c":"America 2","m":"Monterrey","i":1,"n":1,"s":3.6,"rb":144,"pd":26.3}},{"type":"Feature","geometry":{"type":"Point","coordinates":[-100.61254,25.81534]},"properties":{"k":"19018_0003","c":"Ampliacion Cerritos","m":"García","i":1,"n":1,"s":4.3,"rb":145,"pd":3.6}},{"type":"Feature","geometry":{"type":"Point","coordinates":[-100.21377,25.64346]},"properties":{"k":"19026_0460","c":"Vicente Ferrer","m":"Guadalupe","i":1,"n":2,"s":4.0,"rb":146,"pd":18.8}},{"type":"Feature","geometry":{"type":"Point","coordinates":[-100.23271,25.66969]},"properties":{"k":"19026_0460","c":"Vicente Ferrer","m":"Guadalupe","i":2,"n":2,"s":3.2,"rb":146,"pd":2.7}},{"type":"Feature","geometry":{"type":"Point","coordinates":[-100.2347,25.58285]},"properties":{"k":"19039_0521","c":"Nogales de La Sierra","m":"Monterrey","i":1,"n":1,"s":5.3,"rb":147,"pd":16.5}},{"type":"Feature","geometry":{"type":"Point","coordinates":[-100.18685,25.63894]},"properties":{"k":"19026_0426","c":"Tierra Propia 2Do Sector","m":"Guadalupe","i":1,"n":1,"s":5.5,"rb":148,"pd":3.0}},{"type":"Feature","geometry":{"type":"Point","coordinates":[-100.63646,25.80539]},"properties":{"k":"19018_0146","c":"Renacimiento","m":"García","i":1,"n":1,"s":5.9,"rb":149,"pd":3.4}},{"type":"Feature","geometry":{"type":"Point","coordinates":[-100.11607,25.64527]},"properties":{"k":"19031_0097","c":"Los Encinos","m":"Juárez","i":1,"n":1,"s":5.7,"rb":150,"pd":1.8}},{"type":"Feature","geometry":{"type":"Point","coordinates":[-100.19084,25.69502]},"properties":{"k":"19026_0381","c":"Riberas de La Silla","m":"Guadalupe","i":1,"n":1,"s":5.5,"rb":151,"pd":2.5}},{"type":"Feature","geometry":{"type":"Point","coordinates":[-100.38623,25.75745]},"properties":{"k":"19039_0300","c":"Fomerrey 51","m":"Monterrey","i":1,"n":1,"s":4.3,"rb":152,"pd":3.6}},{"type":"Feature","geometry":{"type":"Point","coordinates":[-100.45702,25.69683]},"properties":{"k":"19048_0120","c":"Lomas del Poniente 1Er Sector","m":"Santa Catarina","i":1,"n":1,"s":4.9,"rb":153,"pd":6.4}},{"type":"Feature","geometry":{"type":"Point","coordinates":[-100.36131,25.73392]},"properties":{"k":"19039_0319","c":"Genaro Vazquez Rojas","m":"Monterrey","i":1,"n":1,"s":5.2,"rb":154,"pd":11.1}},{"type":"Feature","geometry":{"type":"Point","coordinates":[-100.18585,25.7873]},"properties":{"k":"19006_0312","c":"Novapodaca","m":"Apodaca","i":1,"n":1,"s":5.3,"rb":155,"pd":1.6}},{"type":"Feature","geometry":{"type":"Point","coordinates":[-100.16591,25.70498]},"properties":{"k":"19026_0448","c":"Valle Soleado","m":"Guadalupe","i":1,"n":2,"s":6.8,"rb":156,"pd":3.1}},{"type":"Feature","geometry":{"type":"Point","coordinates":[-100.16492,25.69774]},"properties":{"k":"19026_0448","c":"Valle Soleado","m":"Guadalupe","i":2,"n":2,"s":4.1,"rb":156,"pd":2.3}},{"type":"Feature","geometry":{"type":"Point","coordinates":[-100.42711,25.84429]},"properties":{"k":"19021_0071","c":"Hacienda San Miguel, Sector Palmiras","m":"General Escobedo","i":1,"n":1,"s":4.8,"rb":157,"pd":2.6}},{"type":"Feature","geometry":{"type":"Point","coordinates":[-100.32442,25.69774]},"properties":{"k":"19039_0085","c":"Bella Vista","m":"Monterrey","i":1,"n":1,"s":5.7,"rb":158,"pd":1.6}},{"type":"Feature","geometry":{"type":"Point","coordinates":[-100.10111,25.64979]},"properties":{"k":"19031_0067","c":"Joaquin Garza Y Garza","m":"Juárez","i":1,"n":1,"s":3.4,"rb":159,"pd":1.7}},{"type":"Feature","geometry":{"type":"Point","coordinates":[-100.44306,25.68507]},"properties":{"k":"19048_0129","c":"Martires de Cananea","m":"Santa Catarina","i":1,"n":3,"s":4.1,"rb":160,"pd":4.0}},{"type":"Feature","geometry":{"type":"Point","coordinates":[-100.44107,25.6905]},"properties":{"k":"19048_0129","c":"Martires de Cananea","m":"Santa Catarina","i":2,"n":3,"s":3.5,"rb":160,"pd":6.1}},{"type":"Feature","geometry":{"type":"Point","coordinates":[-100.43608,25.68598]},"properties":{"k":"19048_0129","c":"Martires de Cananea","m":"Santa Catarina","i":3,"n":3,"s":2.6,"rb":160,"pd":5.7}},{"type":"Feature","geometry":{"type":"Point","coordinates":[-100.29352,25.79635]},"properties":{"k":"19021_0113","c":"Las Malvinas","m":"General Escobedo","i":1,"n":1,"s":2.7,"rb":161,"pd":1.7}},{"type":"Feature","geometry":{"type":"Point","coordinates":[-100.17189,25.7294]},"properties":{"k":"19006_0235","c":"Lomas del Pedregal","m":"Apodaca","i":1,"n":1,"s":5.6,"rb":162,"pd":4.3}},{"type":"Feature","geometry":{"type":"Point","coordinates":[-100.5916,25.82348]},"properties":{"k":"19018_0076","c":"Los Encinos Residencial","m":"García","i":1,"n":1,"s":3.7,"rb":163,"pd":2.8}},{"type":"Feature","geometry":{"type":"Point","coordinates":[-100.07818,25.64889]},"properties":{"k":"19031_0111","c":"Mirador del Parque","m":"Juárez","i":1,"n":1,"s":3.1,"rb":164,"pd":3.4}},{"type":"Feature","geometry":{"type":"Point","coordinates":[-100.14697,25.63713]},"properties":{"k":"19031_0133","c":"Portal de Vaquerias","m":"Juárez","i":1,"n":1,"s":2.4,"rb":165,"pd":2.2}},{"type":"Feature","geometry":{"type":"Point","coordinates":[-100.27757,25.72307]},"properties":{"k":"19046_0187","c":"Nogalar","m":"San Nicolás de los Garza","i":1,"n":1,"s":1.2,"rb":166,"pd":2.1}},{"type":"Feature","geometry":{"type":"Point","coordinates":[-100.25663,25.76921]},"properties":{"k":"19006_0251","c":"Los Fresnos 1Er Sector","m":"Apodaca","i":1,"n":1,"s":1.8,"rb":167,"pd":0.9}}]}